{"type": "FeatureCollection", "features": [{"type": "Feature", "geometry": {"type": "MultiPolygon", "coordinates": [[[[34.527926908728105, 6.75], [34.5, 6.836930427718263], [34.5, 7.0], [34.255845825939765, 7.0], [34.25, 7.005719422583938], [34.25, 7.25], [34.027237255637054, 7.25], [34.02862250900006, 7.266560782000113], [34.02974999999998, 7.280039999999985], [34.03278000000006, 7.304440000000056], [34.031287758000076, 7.32629089400001], [34.03059155600016, 7.336485380999989], [34.02995617200003, 7.34578930400005], [34.02946739000009, 7.352946539000072], [34.02912253600016, 7.357996237000123], [34.02771000000013, 7.378680000000031], [34.00540917700016, 7.401699294000082], [34.0, 7.407282739645577], [34.0, 7.5], [33.91017659995651, 7.5], [33.89687238000005, 7.513732845000106], [33.88555000000008, 7.525420000000167], [33.850232331000086, 7.552572524000027], [33.780475743000125, 7.606201983000119], [33.75, 7.629631993218837], [33.75, 7.75], [33.5, 7.75], [33.38647196244932, 7.75], [33.25814697900017, 7.763541726000142], [33.25749999999999, 7.763610000000085], [33.10808516600014, 7.779866899000069], [33.10283424000016, 7.780438219000075], [33.096660000000156, 7.781110000000183], [33.054243773999985, 7.790253732000167], [33.05238928000006, 7.790653508000048], [33.05222000000009, 7.7906900000000405], [33.05215208400011, 7.790790954000045], [33.04650785900003, 7.79918077200017], [33.01497000000012, 7.846060000000136], [33.0127192380001, 7.851167022000084], [33.00185945100009, 7.875808081999992], [33.0, 7.880027210954269], [33.0, 7.94061573534574], [33.00083513400017, 7.942100209999978], [33.004497197000035, 7.948609632000171], [33.03194000000002, 7.997390000000053], [33.03419370151382, 8.0], [33.25, 8.0], [33.25, 8.25], [33.25, 8.452472035046087], [33.26354000000009, 8.461530000000096], [33.26928050700013, 8.46081686499997], [33.27678563200004, 8.459884515000113], [33.30391724900005, 8.456513994000034], [33.32064972700016, 8.454435343000114], [33.32673000000011, 8.45368000000002], [33.343195241000046, 8.448883471000102], [33.37019740300008, 8.441017407000118], [33.38083000000012, 8.437920000000076], [33.403566695999984, 8.442952038000044], [33.43003976000017, 8.448811000000035], [33.45495370800006, 8.454324902999986], [33.47044969700016, 8.45775444200018], [33.47151578600017, 8.456608566000057], [33.47327267600019, 8.45584073800012], [33.475632740000094, 8.456191290000163], [33.47668777100006, 8.456970924000188], [33.47905601999997, 8.458720984000024], [33.480993390000094, 8.460087950000172], [33.484972616000164, 8.460968624000031], [33.50861000000015, 8.466200000000129], [33.56455081500013, 8.466627599000105], [33.564721618000135, 8.466628877000005], [33.61463858500019, 8.467002366000088], [33.62412526900016, 8.467073346999996], [33.63437000000005, 8.46715000000006], [33.64094083500004, 8.461602976000108], [33.6699900000001, 8.437080000000037], [33.67583744300015, 8.425208179000151], [33.677052997000146, 8.42274029000015], [33.68028425700015, 8.41617999600004], [33.68847192300012, 8.399556915000176], [33.69048000000009, 8.395480000000077], [33.691453427000056, 8.394678562000024], [33.71527000000009, 8.375070000000107], [33.73544344800018, 8.372435864000124], [33.76583246700005, 8.368467836999969], [33.77133000000009, 8.367750000000001], [33.77373616600005, 8.369933736000064], [33.77869253800014, 8.374431932999983], [33.789720000000045, 8.38444000000004], [33.791562247000115, 8.386159726000187], [33.792937422000136, 8.387443445000088], [33.81874000000005, 8.411530000000027], [33.82403200500016, 8.413772242000107], [33.8524900000001, 8.42583000000019], [33.88152000000008, 8.430830000000185], [33.91528000000005, 8.430550000000096], [33.97076000000004, 8.43757000000005], [34.002220000000136, 8.460280000000068], [34.048365011000044, 8.502685523000139], [34.04987434100019, 8.504072541000141], [34.070830000000115, 8.523330000000044], [34.09723750800015, 8.549532150000175], [34.10555000000011, 8.557780000000093], [34.12166000000008, 8.579580000000135], [34.1228000000001, 8.584650000000067], [34.12360000000018, 8.634160000000065], [34.12424570300004, 8.651479982000126], [34.124368289000074, 8.654768148000073], [34.12513534700014, 8.675343279999993], [34.1279186113577, 8.75], [34.25, 8.75], [34.25, 9.0], [34.13140824018173, 9.0], [34.12990603800006, 9.018755721000105], [34.10055000000011, 9.385280000000023], [34.09777000000014, 9.419720000000154], [34.094990000000166, 9.453890000000172], [34.094160000000045, 9.454720000000066], [34.09032411674977, 9.5], [34.25, 9.5], [34.25, 9.75], [34.5, 9.75], [34.75, 9.75], [34.75, 9.5], [35.0, 9.5], [35.0, 9.25], [35.25, 9.25], [35.5, 9.25], [35.5, 9.0], [35.75, 9.0], [36.0, 9.0], [36.25, 9.0], [36.5, 9.0], [36.5, 9.25], [36.75, 9.25], [36.75, 9.5], [37.0, 9.5], [37.25, 9.5], [37.5, 9.5], [37.75, 9.5], [37.75, 9.75], [38.0, 9.75], [38.25, 9.75], [38.25, 10.0], [38.5, 10.0], [38.75, 10.0], [38.75, 9.75], [38.75, 9.5], [38.75, 9.25], [38.75, 9.0], [39.0, 9.0], [39.0, 8.75], [39.25, 8.75], [39.5, 8.75], [39.5, 9.0], [39.5, 9.25], [39.5, 9.5], [39.75, 9.5], [39.75, 9.75], [39.75, 10.0], [39.75, 10.25], [39.5, 10.25], [39.5, 10.5], [39.5, 10.75], [39.5, 11.0], [39.25, 11.0], [39.25, 10.75], [39.0, 10.75], [39.0, 10.5], [39.0, 10.25], [38.75, 10.25], [38.5, 10.25], [38.5, 10.5], [38.25, 10.5], [38.0, 10.5], [37.75, 10.5], [37.75, 10.75], [38.0, 10.75], [38.25, 10.75], [38.5, 10.75], [38.5, 11.0], [38.75, 11.0], [38.75, 11.25], [39.0, 11.25], [39.0, 11.5], [39.25, 11.5], [39.25, 11.75], [39.25, 12.0], [39.25, 12.25], [39.5, 12.25], [39.5, 12.5], [39.5, 12.75], [39.5, 13.0], [39.75, 13.0], [39.75, 13.25], [39.75, 13.5], [39.75, 13.75], [39.5, 13.75], [39.25, 13.75], [39.25, 14.0], [39.25, 14.25], [39.0, 14.25], [39.0, 14.5], [39.21961770454278, 14.5], [39.21760728500004, 14.497286051000003], [39.216707959000075, 14.496072012000184], [39.21186189500003, 14.494292123000093], [39.208486129000164, 14.49305225300003], [39.21154648300006, 14.487516619000132], [39.214479966000056, 14.482848699000044], [39.21913150100005, 14.47818563900006], [39.218892850000145, 14.470759147000024], [39.21934185100008, 14.46855598400009], [39.220875143000114, 14.46103241000003], [39.22100254800006, 14.453800363000028], [39.22311181800012, 14.448807679000083], [39.22418321200013, 14.443325086000073], [39.22738951200006, 14.436938432999966], [39.23179212200017, 14.430761323000127], [39.23445161300003, 14.423301962000153], [39.23552415300014, 14.42054658700016], [39.2397550070001, 14.41159840299997], [39.24664974600006, 14.405436267000141], [39.246763843, 14.40533429300001], [39.24690451900011, 14.404719690000093], [39.248121663999996, 14.399418756000046], [39.249747945000024, 14.39226004600016], [39.2554306940001, 14.392346763000148], [39.26072509400012, 14.393100468000057], [39.26790386100015, 14.397342639000158], [39.26820871600006, 14.397522779000099], [39.26845772500013, 14.39767383100019], [39.27584525200007, 14.402154977000066], [39.27597166200002, 14.402184833000035], [39.28323934600007, 14.40390136800005], [39.29024481699997, 14.404734747000134], [39.2928942800001, 14.410583641000017], [39.30083248300008, 14.41138907400017], [39.30087197800009, 14.412589061000062], [39.30105748900007, 14.41822519100009], [39.29788537400009, 14.424202780000087], [39.29735304600007, 14.43010549800016], [39.29771405500003, 14.436182551000172], [39.30750468700006, 14.4361808700001], [39.31481294600019, 14.437557153], [39.31991736500004, 14.44193865699998], [39.320196808000105, 14.44260911800012], [39.32329159200003, 14.450034359000142], [39.31915974800012, 14.452157505000116], [39.317828947000066, 14.452841337000052], [39.318375674000094, 14.453589399000123], [39.31889641300012, 14.45430189800004], [39.321948389, 14.458477784000024], [39.322358639000015, 14.459039095000037], [39.31680461600013, 14.459774659000118], [39.3163074150001, 14.45984050700008], [39.314345168000045, 14.465759974000036], [39.31433437200019, 14.473304121000126], [39.31433431200003, 14.47334610300004], [39.31410771900016, 14.47592503400017], [39.31384799400007, 14.478881045000037], [39.31424750600013, 14.478912999000045], [39.31450812500009, 14.47893384400004], [39.315792318000035, 14.479036555000107], [39.32198434900016, 14.479531802000167], [39.329423257000144, 14.480372719000002], [39.32992836300019, 14.480429818000005], [39.32998226900003, 14.480435911000086], [39.32997287900014, 14.480452585000023], [39.32655491300011, 14.486521983000046], [39.32351797400014, 14.492404129000022], [39.323574646, 14.493034089000105], [39.32365521200012, 14.493929697000112], [39.32404566700018, 14.498269948000143], [39.32619951363795, 14.5], [39.358849800683146, 14.5], [39.3647156670001, 14.49626209000013], [39.37114900600011, 14.494614944999967], [39.369377376000045, 14.499794964000046], [39.36921647329989, 14.5], [39.472182103269496, 14.5], [39.472642061000045, 14.498251100000004], [39.47887689700008, 14.498950951000097], [39.481514122615586, 14.5], [39.5, 14.5], [39.75, 14.5], [39.794278635036164, 14.5], [39.79784599200008, 14.499589475000164], [39.799472810000054, 14.499402264000025], [39.80100967700008, 14.499225404000185], [39.80671807300007, 14.49337277800015], [39.81010288900018, 14.487477216000116], [39.81318087400007, 14.48237148600009], [39.8199807260001, 14.478950498000188], [39.825682792000066, 14.48014325500003], [39.83131514100006, 14.484855217000188], [39.84141007400018, 14.4794003720001], [39.84684096700005, 14.474487311000132], [39.85661611400013, 14.472026032000144], [39.861917960000085, 14.465819361000058], [39.866738838000174, 14.463496205000013], [39.87255345300014, 14.461897605000104], [39.87982183000014, 14.452104808000115], [39.89041900400014, 14.443637146000128], [39.89050024200009, 14.443572233000168], [39.89523720300008, 14.43585016600008], [39.90029778100012, 14.43182750800014], [39.911406325000144, 14.422928815000091], [39.92375602400011, 14.414994940999975], [39.93203969500013, 14.41205119600005], [39.93846445600013, 14.40874957699998], [39.94465840000015, 14.409453125000141], [39.94986367500013, 14.410645311000167], [39.954459174000135, 14.41402314100003], [39.95633320500002, 14.416079448999994], [39.95798398200009, 14.41789078800008], [39.95871524400002, 14.418309519000161], [39.96464540200009, 14.421705210000027], [39.97000771100011, 14.425401455000042], [39.97135219000006, 14.42632820600005], [39.97149884500004, 14.431584838000163], [39.97238320500003, 14.432454415000052], [39.97459895000014, 14.434633119000011], [39.978061055000126, 14.438037349000126], [39.98085004700016, 14.440779718000101], [39.98425632200019, 14.432340698000132], [39.98568332100018, 14.432741424000085], [40.01021790500016, 14.439631002000112], [40.02819810100016, 14.45798088500004], [40.04320826500009, 14.473740792000115], [40.05525840200016, 14.486900711000146], [40.07530855800013, 14.493950612000162], [40.08904863200013, 14.490250559000174], [40.139918990000126, 14.498050334000084], [40.17298916200002, 14.490280210000037], [40.22258942100018, 14.478630022000175], [40.25, 14.463482834370486], [40.25, 14.25], [40.25, 14.0], [40.25, 13.75], [40.5, 13.75], [40.75, 13.75], [40.75, 13.5], [40.75, 13.25], [41.0, 13.25], [41.0, 13.0], [41.0, 12.75], [41.0, 12.5], [41.0, 12.25], [40.75, 12.25], [40.75, 12.0], [40.75, 11.75], [40.75, 11.5], [40.75, 11.25], [40.75, 11.0], [41.0, 11.0], [41.25, 11.0], [41.25, 10.75], [41.5, 10.75], [41.5, 10.5], [41.5, 10.25], [41.5, 10.0], [41.75, 10.0], [42.0, 10.0], [42.0, 10.25], [42.25, 10.25], [42.25, 10.5], [42.5, 10.5], [42.74192152046804, 10.5], [42.74666000000008, 10.495690000000138], [42.75, 10.492291581749274], [42.75, 10.25], [42.839769936582826, 10.25], [42.85069000000004, 10.21944000000019], [42.86416000000003, 10.200550000000078], [42.87997980200015, 10.183750681000163], [42.89096999999998, 10.17208000000005], [42.9227800000001, 10.147780000000125], [42.95326000000017, 10.132500000000107], [42.97288353900012, 10.121814555000128], [42.98055000000005, 10.117640000000165], [42.98332908600014, 10.114516307000088], [42.99969964600018, 10.096115798000028], [43.0, 10.095778200101892], [43.0, 10.0], [43.041020876643806, 10.0], [43.042770000000075, 9.993060000000014], [43.05166000000008, 9.968189999999993], [43.06305000000009, 9.948750000000018], [43.0843000000001, 9.92486000000008], [43.11028000000016, 9.908890000000156], [43.147840000000144, 9.902780000000178], [43.161924820000024, 9.902780000000178], [43.18041000000005, 9.902780000000178], [43.19466512700012, 9.896465122999984], [43.204090000000065, 9.892290000000173], [43.21592794100013, 9.875704344000098], [43.22044942200006, 9.869369481000035], [43.22486000000009, 9.863190000000088], [43.22504856800009, 9.86225680200016], [43.23777000000018, 9.799300000000073], [43.246380000000045, 9.750830000000121], [43.25, 9.733940924488719], [43.25, 9.5], [43.41932541201479, 9.5], [43.42735680200019, 9.486000258000047], [43.427770000000066, 9.48528000000016], [43.42707571300008, 9.478825506000078], [43.426689409999994, 9.475234208000131], [43.425140000000056, 9.4608300000001], [43.42583000000013, 9.434580000000096], [43.427130520000105, 9.433188287000121], [43.44166000000001, 9.417640000000006], [43.49311627700007, 9.386311502000126], [43.5, 9.382120573143485], [43.5, 9.25], [43.741920712725744, 9.25], [43.74924187200014, 9.243383331000189], [43.8607174120001, 9.142634705000148], [43.97640554600014, 9.038078848999987], [44.0, 9.016754809282855], [44.0, 9.0], [44.03233836356475, 9.0], [44.06447894600018, 8.989349590000188], [44.115113215000065, 8.972570935000022], [44.18576915200009, 8.949157709000133], [44.1874427570001, 8.94860312700007], [44.5, 8.845031175489737], [44.5, 8.75], [44.75, 8.75], [44.785313976129245, 8.75], [45.25, 8.593452590890449], [45.25, 8.5], [45.5, 8.5], [45.52786586632827, 8.5], [45.93556637100011, 8.365377519999981], [46.0, 8.343735178472784], [46.0, 8.25], [46.25, 8.25], [46.25, 8.0], [46.25, 7.75], [46.0, 7.75], [46.0, 7.5], [45.75, 7.5], [45.75, 7.25], [45.75, 7.0], [46.0, 7.0], [46.0, 6.75], [46.25, 6.75], [46.5, 6.75], [46.5, 6.556727714143791], [46.44446838727465, 6.5], [46.25, 6.5], [46.25, 6.301223129810476], [46.19996452067116, 6.25], [46.0, 6.25], [46.0, 6.0454978644582615], [45.99648800099999, 6.041907228000184], [45.990270000000066, 6.035550000000171], [45.98922750000014, 6.0344487759999765], [45.95661573942022, 6.0], [45.75, 6.0], [45.75, 5.774931739313275], [45.72711496738812, 5.75], [45.5, 5.75], [45.5, 5.501367014005429], [45.4894000000001, 5.489760000000047], [45.37922693899998, 5.369128503000184], [45.374470000000144, 5.363920000000064], [45.37179705200015, 5.3610043010001505], [45.27003457919605, 5.25], [45.25, 5.25], [45.25, 5.228145927489684], [45.09611000000007, 5.0602799999999775], [45.07551455100014, 5.037481979000063], [45.04165379690871, 5.0], [45.0, 5.0], [44.75, 5.0], [44.5, 5.0], [44.25, 5.0], [44.0, 5.0], [43.75, 5.0], [43.75, 4.854289720224859], [43.53971904400015, 4.789742177999983], [43.51273194200013, 4.82118015500015], [43.50854576000012, 4.829276613000047], [43.505815417000065, 4.828205973000081], [43.4905500000001, 4.822220000000129], [43.41666782400006, 4.790267614000129], [43.38969655500017, 4.778603145000034], [43.37536834100018, 4.772406513000135], [43.35889000000003, 4.765280000000132], [43.358204501000046, 4.76497306300007], [43.32476436110832, 4.75], [43.25, 4.75], [43.0, 4.75], [43.0, 4.537264963058291], [42.98569000000009, 4.525420000000054], [42.96888000000007, 4.504310000000089], [42.95722000000006, 4.481110000000058], [42.94652000000008, 4.44611000000009], [42.933610000000044, 4.3887500000001864], [42.930016069000146, 4.382227095000076], [42.91999000000004, 4.3640300000001275], [42.87666000000013, 4.31833000000006], [42.85569000000004, 4.304720000000032], [42.831670000000145, 4.295279999999991], [42.82252735800006, 4.292822535000141], [42.80404961100004, 4.28785587100009], [42.773574040000085, 4.279664293000167], [42.76861000000008, 4.278330000000153], [42.74083000000013, 4.272780000000125], [42.726530000000025, 4.271190000000047], [42.65611000000007, 4.264720000000125], [42.62229000000008, 4.260420000000124], [42.5771798678384, 4.25], [42.5, 4.25], [42.25, 4.25], [42.0, 4.25], [42.0, 4.093367100000152], [41.97904968300003, 4.095186233999982], [41.97422027599998, 4.080558777000022], [41.972679138000046, 4.079374790000031], [41.96691131600011, 4.080088138000065], [41.94622039800004, 4.055664063000108], [41.945991516000106, 4.044589996000184], [41.94609069800009, 4.044024944000114], [41.946910366000054, 4.039404215000161], [41.94895553600003, 4.027874947000157], [41.94345855700004, 4.016658783000082], [41.93146298500011, 4.0067792680000025], [41.926399231000005, 4.002608776000102], [41.924871042300786, 4.0], [41.75, 4.0], [41.5, 4.0], [41.25, 4.0], [41.09676218986191, 4.0], [41.091869354000096, 4.013317108000081], [41.07265091000016, 4.022595882000076], [41.06536865200013, 4.036427975000095], [41.060699463000105, 4.0430397990000415], [41.05738830600012, 4.047733784000059], [41.05285543800005, 4.0515943940000625], [41.04436111500007, 4.058828831000142], [41.04071044900019, 4.064825057999997], [41.035228729000096, 4.070367813000075], [41.031799316000104, 4.0715317730001175], [41.026065826000035, 4.07086420100012], [41.02310943600003, 4.076626777000115], [41.00986099200003, 4.089333058000136], [41.001422882000156, 4.10270977100015], [41.0, 4.103615094914752], [41.0, 4.25], [40.826752832709055, 4.25], [40.81384277400008, 4.255150794999963], [40.80250930800008, 4.262080193000088], [40.78464126600011, 4.273006916000099], [40.77838897700019, 4.280996800000025], [40.774921417000144, 4.281918049000126], [40.77434162900016, 4.281498134000117], [40.773384137000164, 4.282452356000022], [40.77110422300018, 4.281238923000046], [40.71240956488161, 4.25], [40.5, 4.25], [40.5, 4.16210496625176], [40.398890000000165, 4.1230600000000095], [40.39354322600008, 4.110488839000027], [40.388610000000085, 4.09889000000004], [40.18250000000006, 4.022500000000093], [40.138779280238325, 4.0], [40.0, 4.0], [40.0, 3.9285800000001814], [39.982768864000036, 3.920937512000023], [39.97099224900006, 3.91571465800007], [39.961042841000165, 3.911301963000085], [39.93345827500008, 3.8990668940000432], [39.88622861500005, 3.8781192250000913], [39.866660000000024, 3.869440000000054], [39.824364661000175, 3.7730754050000996], [39.81423664581325, 3.75], [39.75, 3.75], [39.75, 3.64734618804538], [39.71641582600006, 3.6156022670000993], [39.594990000000166, 3.5008300000001213], [39.594683950715684, 3.5], [39.5, 3.5], [39.25, 3.5], [39.15250031657392, 3.5], [39.13000000000011, 3.5108300000001122], [39.10323938700003, 3.5247835790000863], [39.09192439500015, 3.530683468000177], [39.091117958000154, 3.531103962000145], [39.09058702500016, 3.5313808020001147], [39.08472000000012, 3.5344400000001315], [39.04611000000011, 3.5288900000001036], [39.045760263000034, 3.5288499320001847], [39.03875318800016, 3.5280471600000283], [39.03334472200015, 3.5274275340000827], [39.02177182100013, 3.526101674000131], [39.00969978200004, 3.524718630000109], [38.96070974600008, 3.519106041000157], [38.95638000000014, 3.5186100000000806], [38.913610000000176, 3.513890000000117], [38.90742454600013, 3.5156475500000965], [38.810000000000116, 3.5433300000000827], [38.77509426400019, 3.553681266000183], [38.76167255200011, 3.5576614639999775], [38.756302198000185, 3.5592540380001196], [38.74775306300006, 3.561789276000127], [38.72944000000018, 3.5672200000000203], [38.621940000000166, 3.6016700000001265], [38.59335821900004, 3.608548682000105], [38.580228120000186, 3.6117086590001577], [38.516940000000034, 3.6269399999999905], [38.448050000000194, 3.599440000000129], [38.43657600200015, 3.6003132320001328], [38.33230789600003, 3.608248592000166], [38.32388000000009, 3.6088900000000876], [38.32234968300003, 3.608910981000122], [38.29803837100002, 3.609244292000085], [38.297984919000044, 3.609245025000064], [38.280926186000045, 3.6094789020001485], [38.12111000000016, 3.6116700000000606], [38.0561100000001, 3.6519400000001383], [38.04007713000016, 3.6848038210001164], [38.03361000000007, 3.698060000000112], [38.026023561000045, 3.7045775960000924], [38.0, 3.726934732850568], [38.0, 3.75], [37.96510380672079, 3.75], [37.943628453000144, 3.763942668000027], [37.75, 3.8896540858237394], [37.75, 4.0], [37.58003843973502, 4.0], [37.550953291000155, 4.018883254000173], [37.546837040000185, 4.02155569100006], [37.54370412200012, 4.023589708000031], [37.52323828800019, 4.036876954000036], [37.50920328700005, 4.045989044000123], [37.5, 4.0519641899139405], [37.5, 4.25], [37.25, 4.25], [37.189744597063786, 4.25], [37.13027000000011, 4.28639000000004], [37.1222587530001, 4.298050214000057], [37.099160000000154, 4.331669999999974], [37.09514145500009, 4.334636584000123], [37.08446514800005, 4.342518084000176], [37.047235413000124, 4.370001946000116], [37.0397200000001, 4.375550000000146], [37.03694532300011, 4.376630471000112], [37.0, 4.391017142957394], [37.0, 4.5], [36.75, 4.5], [36.5, 4.5], [36.25, 4.5], [36.0, 4.5], [36.0, 4.75], [35.82057697517942, 4.75], [35.79319552600015, 4.7788491440000485], [35.77444000000014, 4.79861000000011], [35.77801413300017, 4.981521910000083], [35.77824540800003, 4.993357784000068], [35.77837669400009, 5.000076512000021], [35.77999000000017, 5.082639999999969], [35.802770000000066, 5.10528000000005], [35.82361000000009, 5.136670000000095], [35.83069000000006, 5.168400000000133], [35.80513000000013, 5.206810000000132], [35.79624000000018, 5.235140000000058], [35.798740000000066, 5.265550000000189], [35.82166000000001, 5.328610000000083], [35.79694000000018, 5.331110000000024], [35.77499000000017, 5.337220000000173], [35.76366570500011, 5.342402304000132], [35.757041116000096, 5.3454338959999745], [35.75375000000008, 5.346940000000075], [35.75, 5.3493254960480945], [35.75, 5.5], [35.5, 5.5], [35.5, 5.430936759016427], [35.44371000000018, 5.425520000000176], [35.41909000000004, 5.3984000000001515], [35.352840000000185, 5.350690000000043], [35.32625000000013, 5.35708000000011], [35.3030500000001, 5.377360000000124], [35.295558285000084, 5.39135417500006], [35.27041000000003, 5.438330000000121], [35.27708000000018, 5.458050000000185], [35.29270000000008, 5.487640000000113], [35.289990000000046, 5.507780000000082], [35.10388000000012, 5.632500000000107], [35.10541000000006, 5.6883300000000645], [35.028330000000096, 5.81416999999999], [35.0, 5.857309938021671], [35.0, 6.0], [35.0, 6.25], [34.86581833781978, 6.25], [34.859300000000076, 6.267220000000123], [34.85638000000006, 6.29111000000006], [34.85462998000003, 6.31183320100007], [34.85292277500008, 6.33204939899997], [34.850000000000136, 6.366660000000138], [34.759675713000036, 6.606644279000136], [34.756990000000144, 6.613780000000133], [34.75, 6.622338638079675], [34.75, 6.75], [34.527926908728105, 6.75]], [[45.75, 6.25], [45.5, 6.25], [45.25, 6.25], [45.25, 6.0], [45.5, 6.0], [45.75, 6.0], [45.75, 6.25]]], [[[36.75, 10.0], [36.75, 9.75], [36.75, 9.5], [36.5, 9.5], [36.25, 9.5], [36.25, 9.75], [36.25, 10.0], [36.5, 10.0], [36.75, 10.0]]], [[[41.25, 13.25], [41.0, 13.25], [41.0, 13.5], [41.0, 13.75], [41.212918155553474, 13.75], [41.21587205100013, 13.747537406999982], [41.25, 13.713092879571198], [41.25, 13.5], [41.460736917521736, 13.5], [41.5, 13.462754619507361], [41.5, 13.25], [41.25, 13.25]]]]}, "properties": {"domain_id": "belg_emi_view", "label": "Previous FMAM site view (FMAM_belg_emi_domain, used until 2026-10-10): >= 20% and >= 100 mm from the 365-day cycle, patches < 3 cells removed", "cells": 1069, "included_area_km2": 804940.0, "reference_years": "1993-2025", "assessment_id": "fmam_chirps_domain_review_v1", "note": "0.25-degree cells dissolved and clipped to the Ethiopia boundary"}}]}