{"type": "FeatureCollection", "features": [{"type": "Feature", "geometry": {"type": "MultiPolygon", "coordinates": [[[[33.0, 7.94061573534574], [33.00083513400017, 7.942100209999978], [33.004497197000035, 7.948609632000171], [33.03194000000002, 7.997390000000053], [33.038042073000156, 8.004456779000066], [33.047555050000085, 8.015473709000162], [33.07981023299999, 8.052828269000031], [33.08409050200004, 8.057785226000078], [33.08759349900009, 8.061842028000058], [33.099889554000015, 8.076082026000165], [33.11869150100006, 8.097856464000017], [33.121380000000045, 8.100970000000075], [33.15402873099998, 8.11203696500013], [33.162770000000194, 8.115000000000066], [33.164586566000025, 8.11698449100004], [33.175452968000116, 8.128855389000137], [33.18592000000018, 8.14029000000005], [33.18591604200003, 8.140331342000081], [33.18427580800005, 8.157465227000102], [33.1839158140001, 8.161225717000036], [33.18291382400014, 8.171692500000006], [33.179597846000036, 8.20633120000008], [33.17805000000004, 8.222500000000082], [33.165830000000085, 8.278330000000096], [33.16083000000009, 8.35653000000002], [33.17125000000016, 8.399790000000166], [33.21603216000017, 8.42974829000002], [33.22135287700013, 8.433307733999982], [33.26354000000009, 8.461530000000096], [33.26928050700013, 8.46081686499997], [33.27678563200004, 8.459884515000113], [33.30391724900005, 8.456513994000034], [33.32064972700016, 8.454435343000114], [33.32673000000011, 8.45368000000002], [33.343195241000046, 8.448883471000102], [33.37019740300008, 8.441017407000118], [33.38083000000012, 8.437920000000076], [33.403566695999984, 8.442952038000044], [33.43003976000017, 8.448811000000035], [33.45495370800006, 8.454324902999986], [33.47044969700016, 8.45775444200018], [33.47151578600017, 8.456608566000057], [33.47327267600019, 8.45584073800012], [33.475632740000094, 8.456191290000163], [33.47668777100006, 8.456970924000188], [33.47905601999997, 8.458720984000024], [33.480993390000094, 8.460087950000172], [33.484972616000164, 8.460968624000031], [33.50861000000015, 8.466200000000129], [33.56455081500013, 8.466627599000105], [33.564721618000135, 8.466628877000005], [33.61463858500019, 8.467002366000088], [33.62412526900016, 8.467073346999996], [33.63437000000005, 8.46715000000006], [33.64094083500004, 8.461602976000108], [33.6699900000001, 8.437080000000037], [33.67583744300015, 8.425208179000151], [33.677052997000146, 8.42274029000015], [33.68028425700015, 8.41617999600004], [33.68847192300012, 8.399556915000176], [33.69048000000009, 8.395480000000077], [33.691453427000056, 8.394678562000024], [33.71527000000009, 8.375070000000107], [33.73544344800018, 8.372435864000124], [33.76583246700005, 8.368467836999969], [33.77133000000009, 8.367750000000001], [33.77373616600005, 8.369933736000064], [33.77869253800014, 8.374431932999983], [33.789720000000045, 8.38444000000004], [33.791562247000115, 8.386159726000187], [33.792937422000136, 8.387443445000088], [33.81874000000005, 8.411530000000027], [33.82403200500016, 8.413772242000107], [33.8524900000001, 8.42583000000019], [33.88152000000008, 8.430830000000185], [33.91528000000005, 8.430550000000096], [33.97076000000004, 8.43757000000005], [34.002220000000136, 8.460280000000068], [34.048365011000044, 8.502685523000139], [34.04987434100019, 8.504072541000141], [34.070830000000115, 8.523330000000044], [34.09723750800015, 8.549532150000175], [34.10555000000011, 8.557780000000093], [34.12166000000008, 8.579580000000135], [34.1228000000001, 8.584650000000067], [34.12360000000018, 8.634160000000065], [34.12424570300004, 8.651479982000126], [34.124368289000074, 8.654768148000073], [34.12513534700014, 8.675343279999993], [34.13000000000005, 8.805830000000185], [34.13499000000007, 8.95528000000013], [34.13440686100006, 8.9625607750001], [34.13335735400017, 8.97566437100005], [34.12990603800006, 9.018755721000105], [34.10055000000011, 9.385280000000023], [34.09777000000014, 9.419720000000154], [34.094990000000166, 9.453890000000172], [34.094160000000045, 9.454720000000066], [34.085830000000044, 9.553050000000042], [34.12150892600005, 9.688072703000103], [34.12474290900019, 9.700311332000126], [34.12882786600005, 9.715770372000065], [34.13069699700003, 9.722843877000116], [34.139999999999986, 9.758050000000082], [34.20722000000006, 9.904999999999973], [34.21972000000011, 9.973610000000122], [34.22237469600003, 9.98685406300018], [34.230550000000164, 10.02764000000019], [34.29914931900004, 10.094073805000107], [34.32305000000008, 10.117220000000032], [34.33994784900011, 10.198266841000077], [34.34833000000009, 10.238470000000177], [34.34194000000019, 10.280830000000094], [34.339198050000164, 10.294484478000129], [34.33652860100017, 10.30777791200012], [34.32805000000002, 10.350000000000023], [34.3101780340001, 10.43699906200004], [34.295141994000005, 10.510193099000105], [34.28611000000001, 10.554160000000024], [34.31472000000008, 10.586390000000108], [34.35278000000005, 10.631670000000042], [34.36373253700003, 10.650915676000125], [34.439720000000136, 10.784440000000131], [34.444824353000115, 10.787849281000035], [34.50242570400019, 10.826322158000153], [34.520528976000094, 10.83841362700008], [34.59444000000002, 10.88778000000002], [34.673880000000054, 10.834720000000061], [34.710830000000044, 10.802220000000034], [34.75615492500009, 10.761694004000162], [34.762208496000085, 10.756281375000015], [34.76986000000011, 10.749439999999993], [34.788774710000155, 10.733348013000011], [34.8005500000001, 10.72333000000009], [34.80709528300014, 10.724275781000074], [34.86062000000004, 10.73201000000006], [34.97527000000014, 10.864440000000116], [34.97754439400006, 10.899059818000183], [34.978134713000145, 10.900837973000137], [34.97845149500006, 10.904768039000032], [34.978474968000114, 10.905965287000186], [34.978182982000135, 10.907940540000084], [34.97814479600015, 10.908198867000067], [34.97861000000012, 10.915280000000052], [34.963594430000114, 10.929002267000044], [34.933330000000126, 10.956660000000056], [34.980682876000174, 11.101365566000084], [34.98360000000014, 11.110280000000103], [35.00555000000014, 11.174440000000061], [35.00750000000005, 11.198329999999999], [34.98828624000009, 11.215489459000025], [34.97888000000006, 11.223890000000097], [34.97478452300004, 11.227695579000113], [34.97111000000001, 11.231110000000115], [34.964311165199604, 11.25], [35.0, 11.25], [35.0, 11.341376910140896], [35.00444000000016, 11.348889999999983], [35.00656572999998, 11.353406877000054], [35.01333000000011, 11.367780000000153], [35.055221761000155, 11.462708674000055], [35.07167832006187, 11.5], [35.25, 11.5], [35.25, 11.75], [35.5, 11.75], [35.75, 11.75], [36.0, 11.75], [36.0, 12.0], [36.0, 12.25], [36.0, 12.5], [36.25, 12.5], [36.5, 12.5], [36.5, 12.75], [36.75, 12.75], [36.75, 13.0], [37.0, 13.0], [37.0, 13.25], [37.25, 13.25], [37.25, 13.5], [37.5, 13.5], [37.5, 13.25], [37.75, 13.25], [38.0, 13.25], [38.0, 13.5], [38.25, 13.5], [38.25, 13.75], [38.5, 13.75], [38.5, 14.0], [38.5, 14.25], [38.5, 14.412191460722575], [38.506036510000115, 14.413252574000182], [38.51023185200012, 14.409897705000105], [38.51585853800009, 14.405079012000158], [38.51709716900018, 14.406484314000068], [38.518326663000096, 14.407879250000178], [38.52053518300005, 14.410384949000104], [38.52095747300018, 14.410864062000087], [38.52202747200016, 14.411571946000038], [38.526865611000176, 14.414772732000188], [38.53182952000009, 14.417272792000063], [38.537352056000145, 14.420139784000128], [38.54363851200003, 14.42252444200011], [38.549105916000144, 14.422264471000176], [38.55205559700005, 14.424086769000155], [38.55359036700003, 14.425034941999968], [38.554654030000165, 14.425692067000114], [38.56105924499997, 14.426037035000036], [38.56609889200013, 14.42834968600016], [38.56698286800008, 14.428755335000062], [38.56752534700013, 14.42920248200005], [38.56852667700019, 14.430027844000108], [38.569635782000034, 14.43094204100015], [38.572081835000176, 14.432958239000186], [38.57897721200004, 14.433635157000083], [38.58645834599997, 14.436027910000064], [38.59437508300016, 14.43857619300013], [38.6012928400001, 14.439298343000019], [38.60831913099997, 14.43863998900008], [38.61489967200009, 14.43412875600012], [38.61577435800018, 14.433529122000095], [38.61922094400006, 14.434895316000166], [38.62083338499997, 14.435534473000189], [38.623899513000026, 14.436749856999995], [38.631275002000166, 14.440539415000046], [38.63912398100007, 14.439488159999996], [38.64676857600011, 14.441177681999989], [38.65421781000009, 14.444993122000028], [38.66164275300008, 14.44547458500017], [38.662636819000056, 14.44697885000005], [38.66319683900002, 14.447826297000063], [38.66490894700013, 14.45041713500001], [38.66663064000005, 14.451191738000091], [38.66742374700004, 14.451548563000017], [38.669930627000156, 14.452676428000188], [38.67509824000007, 14.45299092099998], [38.68025072100011, 14.456757921000133], [38.687220089000164, 14.460192908000181], [38.69541494700019, 14.462306622000085], [38.70294283800018, 14.465288096000052], [38.70996440699997, 14.463716784000098], [38.71576706900015, 14.460991964000073], [38.72323446700017, 14.460665593000158], [38.730547686000136, 14.458896300000049], [38.736339066000085, 14.460357602000158], [38.743191269000135, 14.462087614000097], [38.75018031600007, 14.465081069000064], [38.75892438400007, 14.46462683700014], [38.76801297900005, 14.466069264000055], [38.77484981600003, 14.466887417000123], [38.78097383900007, 14.465621214000066], [38.786638575000154, 14.463962601000105], [38.79404033700007, 14.463219068000114], [38.798755471000106, 14.46636028100005], [38.80009341700014, 14.467251617999977], [38.80169099400007, 14.468315921000055], [38.80898552800005, 14.471929113000044], [38.81516246100017, 14.474335912000129], [38.81520563900017, 14.474541558999988], [38.81554676400009, 14.47616624900013], [38.81658608000009, 14.481116249000081], [38.8167149840001, 14.481730188000142], [38.81672192600013, 14.481763252000064], [38.816749173000176, 14.481893022000122], [38.81678858500004, 14.481893408000133], [38.82446323700003, 14.481968548000168], [38.83021761300006, 14.483691333000138], [38.835186656000076, 14.485279862000027], [38.83575465600018, 14.485819050999964], [38.83606358200012, 14.484715844000107], [38.83616236200015, 14.485257279000052], [38.83623739800015, 14.48575235800007], [38.83633915400003, 14.486373901000036], [38.83725681400011, 14.48724501400011], [38.839217342000154, 14.48910609700016], [38.84125449100003, 14.491039915000101], [38.841263285000025, 14.491045640000152], [38.84160765500013, 14.491269818000035], [38.84839416800003, 14.495687701000122], [38.856624824000164, 14.494514440000103], [38.86423141800003, 14.494046852000167], [38.87024994600006, 14.495046252000066], [38.87730540100006, 14.49660865200019], [38.88344403000019, 14.497590140000057], [38.89019121900003, 14.49921618400009], [38.8967734580001, 14.499652296000136], [38.904877260000035, 14.501192779000121], [38.91393423400018, 14.506016134000163], [38.920090924000135, 14.510649547000128], [38.92096889200013, 14.511310290000154], [38.92206401100003, 14.512503503000005], [38.92456481400012, 14.51522831300008], [38.92768838400008, 14.51863167300013], [38.928085195000165, 14.51906402800006], [38.929796484000065, 14.521249326000088], [38.93255554100017, 14.524772612999982], [38.93342402100012, 14.525881653999988], [38.93351781100006, 14.526001423000082], [38.9357298110001, 14.529591826000058], [38.937267095000095, 14.532087065000155], [38.94356445200003, 14.531187963000036], [38.94577298600018, 14.53117019800004], [38.94963745000018, 14.531139113000052], [38.95104298600012, 14.532654470000125], [38.95255168299997, 14.534281050000061], [38.95321299400007, 14.5349940320001], [38.953490929000054, 14.53496024600014], [38.953554295000174, 14.535362000000134], [38.95414195100011, 14.535995573000093], [38.96037192800003, 14.538173672000084], [38.967306254000164, 14.538468307000016], [38.97176346399999, 14.540345867000156], [38.97326246500012, 14.540977308000095], [38.97473321600006, 14.541596849000086], [38.974974177000036, 14.54202807300004], [38.97545475100014, 14.54288810900016], [38.978006362000144, 14.547454472000084], [38.98093269200018, 14.552697284999965], [38.98121765200011, 14.552999596000063], [38.982464800000116, 14.554322682000077], [38.984294288000115, 14.556263566000098], [38.98766856100019, 14.559843295000064], [38.98925463400002, 14.56131469100012], [38.991841707000106, 14.563714714000014], [38.99386226300015, 14.565589180000075], [38.993876022000165, 14.565640366000025], [38.99553646800001, 14.571817316000022], [38.99902194900005, 14.577208327000164], [39.00116954600003, 14.585778537000124], [39.00185797300003, 14.586130592000018], [39.003895331000194, 14.58717247800007], [39.00996374400006, 14.590275806000022], [39.010155201000146, 14.591126603000134], [39.01061773200013, 14.593182005000017], [39.01143606200003, 14.596818513000187], [39.01267403300005, 14.603448957000069], [39.01061611900013, 14.609183573999985], [39.00846860800016, 14.616238802000055], [39.01063328800018, 14.61907796500003], [39.01303879300019, 14.622232990000043], [39.013190122000026, 14.622431471000027], [39.013206402000094, 14.622530951000101], [39.01333039800005, 14.62261545500013], [39.01428657400015, 14.623869562000095], [39.01754098800012, 14.626518820000115], [39.01941561700005, 14.628044862000081], [39.02005351600019, 14.628564144000052], [39.02193529699997, 14.630630668000151], [39.023111046, 14.631921845000136], [39.02351901500009, 14.632369865000044], [39.02461171600004, 14.632814854000003], [39.026884086999985, 14.633740250000017], [39.02866851400012, 14.634466937000013], [39.034291095000185, 14.633311108000044], [39.04139446300013, 14.63163259900017], [39.04841822200012, 14.635490076000053], [39.05519289400007, 14.636187313000107], [39.06147022600004, 14.636277005000068], [39.06749792900007, 14.633722919000093], [39.07532885800009, 14.633416390000036], [39.08073694700016, 14.63651403300014], [39.08684172400018, 14.633338327000104], [39.09173624500005, 14.632802619000188], [39.09759636400008, 14.63337326200002], [39.10438230400001, 14.630032119000077], [39.10959903100007, 14.622569573000078], [39.11282808100009, 14.618901404000098], [39.11395285200018, 14.617623675000118], [39.12466441900017, 14.613430921000145], [39.131879930000025, 14.61516266000018], [39.133428855000034, 14.615534405999995], [39.15745043300018, 14.620278210000151], [39.16947027600003, 14.61975087500008], [39.17767757800004, 14.618530823000071], [39.1870593270001, 14.61597121200009], [39.19417282800009, 14.613412967999977], [39.20032289200003, 14.611037689], [39.20372349100006, 14.60763896300017], [39.20805241700015, 14.603312423000148], [39.21233452400014, 14.597535343000175], [39.21587038700005, 14.591470591000189], [39.21865262100005, 14.584996107000052], [39.22098471400017, 14.579569139000057], [39.22103383000018, 14.578936453000154], [39.22153671300009, 14.572458615000073], [39.22646718300001, 14.568218709999996], [39.230554387000154, 14.568184557000109], [39.233182164000084, 14.568162599000061], [39.23863151300003, 14.565882257000055], [39.23815993700009, 14.5606821880001], [39.24012713900015, 14.555666364000047], [39.23956062900015, 14.55280051200009], [39.23854180700005, 14.547646510000163], [39.236256862999994, 14.544956485000057], [39.23364699900009, 14.541883939000058], [39.233157091000066, 14.541307179000114], [39.23231393700007, 14.54031454800014], [39.23202440800003, 14.530971578000162], [39.23145288300009, 14.51916675800004], [39.22790438000004, 14.51164943100008], [39.22305240000003, 14.504908607999994], [39.219880047000174, 14.500354147000053], [39.21760728500004, 14.497286051000003], [39.216707959000075, 14.496072012000184], [39.21186189500003, 14.494292123000093], [39.208486129000164, 14.49305225300003], [39.21154648300006, 14.487516619000132], [39.214479966000056, 14.482848699000044], [39.21913150100005, 14.47818563900006], [39.218892850000145, 14.470759147000024], [39.21934185100008, 14.46855598400009], [39.220875143000114, 14.46103241000003], [39.22100254800006, 14.453800363000028], [39.22311181800012, 14.448807679000083], [39.22418321200013, 14.443325086000073], [39.22738951200006, 14.436938432999966], [39.23179212200017, 14.430761323000127], [39.23445161300003, 14.423301962000153], [39.23552415300014, 14.42054658700016], [39.2397550070001, 14.41159840299997], [39.24664974600006, 14.405436267000141], [39.246763843, 14.40533429300001], [39.24690451900011, 14.404719690000093], [39.248121663999996, 14.399418756000046], [39.249747945000024, 14.39226004600016], [39.2554306940001, 14.392346763000148], [39.26072509400012, 14.393100468000057], [39.26790386100015, 14.397342639000158], [39.26820871600006, 14.397522779000099], [39.26845772500013, 14.39767383100019], [39.27584525200007, 14.402154977000066], [39.27597166200002, 14.402184833000035], [39.28323934600007, 14.40390136800005], [39.29024481699997, 14.404734747000134], [39.2928942800001, 14.410583641000017], [39.30083248300008, 14.41138907400017], [39.30087197800009, 14.412589061000062], [39.30105748900007, 14.41822519100009], [39.29788537400009, 14.424202780000087], [39.29735304600007, 14.43010549800016], [39.29771405500003, 14.436182551000172], [39.30750468700006, 14.4361808700001], [39.31481294600019, 14.437557153], [39.31991736500004, 14.44193865699998], [39.320196808000105, 14.44260911800012], [39.32329159200003, 14.450034359000142], [39.31915974800012, 14.452157505000116], [39.317828947000066, 14.452841337000052], [39.318375674000094, 14.453589399000123], [39.31889641300012, 14.45430189800004], [39.321948389, 14.458477784000024], [39.322358639000015, 14.459039095000037], [39.31680461600013, 14.459774659000118], [39.3163074150001, 14.45984050700008], [39.314345168000045, 14.465759974000036], [39.31433437200019, 14.473304121000126], [39.31433431200003, 14.47334610300004], [39.31410771900016, 14.47592503400017], [39.31384799400007, 14.478881045000037], [39.31424750600013, 14.478912999000045], [39.31450812500009, 14.47893384400004], [39.315792318000035, 14.479036555000107], [39.32198434900016, 14.479531802000167], [39.329423257000144, 14.480372719000002], [39.32992836300019, 14.480429818000005], [39.32998226900003, 14.480435911000086], [39.32997287900014, 14.480452585000023], [39.32655491300011, 14.486521983000046], [39.32351797400014, 14.492404129000022], [39.323574646, 14.493034089000105], [39.32365521200012, 14.493929697000112], [39.32404566700018, 14.498269948000143], [39.33024704500008, 14.503251132000173], [39.335834758000146, 14.507164739000075], [39.340012122000076, 14.511309453000024], [39.34003720100009, 14.511298623000187], [39.3469886470001, 14.508296846000064], [39.35338979400012, 14.50501248500018], [39.35803436599997, 14.500519620000148], [39.3647156670001, 14.49626209000013], [39.37114900600011, 14.494614944999967], [39.369377376000045, 14.499794964000046], [39.36464812000008, 14.50582138700014], [39.36478373900002, 14.51183899800003], [39.36857718800013, 14.518689579000124], [39.367652725000085, 14.526647714000148], [39.364601430000164, 14.533988573000101], [39.368698579000124, 14.53831389700008], [39.374734359, 14.536772422000126], [39.37894591400004, 14.536310471000036], [39.38363392500008, 14.535796259000108], [39.38470119800019, 14.535965615000066], [39.38562336100017, 14.536111942000048], [39.39123198300007, 14.537001917000055], [39.39221672400009, 14.537165231000074], [39.398463254000035, 14.53820118200008], [39.40427817500006, 14.535543463000181], [39.405459977000135, 14.535003319000054], [39.41218552800018, 14.531004735000124], [39.41999606600018, 14.530680573000154], [39.425312954000105, 14.530673701000126], [39.42821942900014, 14.53066994500017], [39.42872564800018, 14.527034432000164], [39.42909890300007, 14.524353825000162], [39.429432810000094, 14.524087699000177], [39.432944690000056, 14.521288703000039], [39.43547703300004, 14.51927040600009], [39.43733764700016, 14.520213643999966], [39.43811430400001, 14.520607363000124], [39.44553828800019, 14.524370930999964], [39.44580036000002, 14.524455656000157], [39.453263403000165, 14.526868381000043], [39.452340831000015, 14.51980909000008], [39.452093179000144, 14.510938678000116], [39.45708247500016, 14.507242945000144], [39.461865075000105, 14.513045958000077], [39.46932027900016, 14.515609184000027], [39.46776922900011, 14.508399233000091], [39.47102136000012, 14.504413501000158], [39.472642061000045, 14.498251100000004], [39.47887689700008, 14.498950951000097], [39.48509653200017, 14.501425029000188], [39.48784743600004, 14.503978873999984], [39.48815579200016, 14.504128898000147], [39.488237601000094, 14.504341089000036], [39.48872396400009, 14.505602582000051], [39.49079847000013, 14.507071990000156], [39.49212093800014, 14.508911391000026], [39.49325313200018, 14.509462223000128], [39.494969999000034, 14.516880439000147], [39.49673462200013, 14.526917309000169], [39.49917396000018, 14.536829990000115], [39.50038652500007, 14.543799707000119], [39.49876629700009, 14.550771170000019], [39.49661329400004, 14.55667124200005], [39.494401290000155, 14.564362904000006], [39.493167781000125, 14.574088635000123], [39.49167953, 14.582474713000124], [39.48585447500005, 14.58911930000005], [39.48181512000008, 14.594009435000089], [39.47777239700014, 14.597611129000029], [39.477534216000095, 14.60362931900005], [39.482085784000105, 14.61012995800013], [39.48577646900003, 14.617767449000155], [39.490078848999985, 14.625035714000148], [39.487615183000116, 14.632748171000117], [39.486579559000006, 14.64023854200019], [39.48668225600011, 14.640527434000091], [39.48836923100015, 14.645272977000104], [39.490311444000156, 14.647006157000135], [39.492207275000055, 14.64869794700013], [39.492749487000026, 14.649322638000058], [39.494604179000135, 14.651459456000111], [39.496561759000144, 14.653714812000032], [39.497110921000115, 14.65434751000015], [39.49974630500003, 14.664130593000039], [39.50049272900014, 14.670714334000024], [39.50267493900003, 14.67701014100004], [39.502946064000184, 14.676816245000168], [39.509986414000025, 14.67178131300011], [39.51173321100009, 14.673371788000168], [39.51211672500017, 14.673720982000134], [39.51466732800009, 14.676043332000063], [39.51578644400013, 14.67706229800018], [39.516531680000185, 14.676742893000153], [39.52283713200018, 14.67404040200006], [39.5303008460001, 14.671040517000108], [39.53744321500011, 14.669518097000093], [39.54411879300005, 14.670351952999965], [39.549275001000126, 14.669644719000075], [39.55551308300011, 14.668780316000039], [39.563476795000156, 14.669849908999993], [39.56963081800012, 14.669904329000076], [39.57518228700019, 14.669890578000093], [39.580042941000045, 14.667793331000041], [39.58556284300005, 14.664767611000116], [39.591224960000034, 14.662146833000179], [39.595582580000155, 14.657483938000098], [39.60082321100003, 14.651987372000065], [39.60582939300019, 14.64710910700012], [39.611016262000135, 14.643678247000139], [39.618086970000036, 14.638273008000056], [39.62268647900015, 14.635943927000028], [39.624466158000075, 14.628467578000027], [39.62579911100016, 14.619719051000118], [39.62880859900008, 14.608764478000126], [39.63369243700009, 14.602901373000066], [39.637687754000126, 14.598433770000156], [39.64299966200019, 14.595809658999997], [39.65007620500012, 14.593067764000068], [39.65742630600016, 14.589822925000078], [39.662942036000175, 14.591232005000165], [39.6665445110001, 14.592152314000032], [39.66676894000011, 14.592030397000144], [39.67383329100011, 14.58819281500007], [39.67683170000009, 14.588453064000191], [39.67794776300019, 14.588549933000081], [39.68028972600007, 14.588753205000046], [39.68479826100014, 14.583218762000172], [39.68958133500013, 14.577259067000057], [39.6967570700001, 14.569013244000018], [39.69904877500011, 14.562009805000116], [39.7048608770001, 14.555783412000153], [39.70933267900011, 14.551368027000137], [39.71519684000009, 14.551658998000164], [39.722192330000155, 14.549011790000122], [39.72879554300005, 14.546790339000097], [39.73452188500005, 14.547004037000022], [39.74195591600011, 14.546169638000151], [39.750274881000166, 14.54521633000013], [39.758059969000044, 14.543492206000167], [39.76678566700008, 14.540761419000034], [39.76849076700012, 14.533188418000066], [39.77452876000012, 14.527145002999987], [39.77687347800014, 14.522542392000105], [39.779959254000175, 14.518912237000052], [39.78544922800006, 14.51108458300007], [39.791543556000136, 14.506339999000033], [39.792610100000104, 14.500192012000014], [39.79784599200008, 14.499589475000164], [39.799472810000054, 14.499402264000025], [39.80100967700008, 14.499225404000185], [39.80671807300007, 14.49337277800015], [39.81010288900018, 14.487477216000116], [39.81318087400007, 14.48237148600009], [39.8199807260001, 14.478950498000188], [39.825682792000066, 14.48014325500003], [39.83131514100006, 14.484855217000188], [39.84141007400018, 14.4794003720001], [39.84684096700005, 14.474487311000132], [39.85661611400013, 14.472026032000144], [39.861917960000085, 14.465819361000058], [39.866738838000174, 14.463496205000013], [39.87255345300014, 14.461897605000104], [39.87982183000014, 14.452104808000115], [39.89041900400014, 14.443637146000128], [39.89050024200009, 14.443572233000168], [39.89523720300008, 14.43585016600008], [39.90029778100012, 14.43182750800014], [39.911406325000144, 14.422928815000091], [39.92375602400011, 14.414994940999975], [39.93203969500013, 14.41205119600005], [39.93846445600013, 14.40874957699998], [39.94465840000015, 14.409453125000141], [39.94986367500013, 14.410645311000167], [39.954459174000135, 14.41402314100003], [39.95633320500002, 14.416079448999994], [39.95798398200009, 14.41789078800008], [39.95871524400002, 14.418309519000161], [39.96464540200009, 14.421705210000027], [39.97000771100011, 14.425401455000042], [39.97135219000006, 14.42632820600005], [39.97149884500004, 14.431584838000163], [39.97238320500003, 14.432454415000052], [39.97459895000014, 14.434633119000011], [39.978061055000126, 14.438037349000126], [39.98085004700016, 14.440779718000101], [39.98425632200019, 14.432340698000132], [39.98568332100018, 14.432741424000085], [40.01021790500016, 14.439631002000112], [40.02819810100016, 14.45798088500004], [40.04320826500009, 14.473740792000115], [40.05525840200016, 14.486900711000146], [40.07530855800013, 14.493950612000162], [40.08904863200013, 14.490250559000174], [40.139918990000126, 14.498050334000084], [40.17298916200002, 14.490280210000037], [40.22258942100018, 14.478630022000175], [40.25, 14.463482834370486], [40.25, 14.25], [40.25, 14.0], [40.25, 13.75], [40.5, 13.75], [40.75, 13.75], [40.75, 13.5], [40.75, 13.25], [41.0, 13.25], [41.0, 13.0], [41.0, 12.75], [41.0, 12.5], [41.0, 12.25], [40.75, 12.25], [40.75, 12.0], [40.75, 11.75], [40.75, 11.5], [40.75, 11.25], [40.75, 11.0], [41.0, 11.0], [41.25, 11.0], [41.25, 10.75], [41.5, 10.75], [41.5, 10.5], [41.5, 10.25], [41.5, 10.0], [41.75, 10.0], [42.0, 10.0], [42.0, 10.25], [42.25, 10.25], [42.25, 10.5], [42.5, 10.5], [42.74192152046804, 10.5], [42.74666000000008, 10.495690000000138], [42.78611000000012, 10.455550000000187], [42.79708000000005, 10.422780000000046], [42.80099573000001, 10.396322197000188], [42.803330000000074, 10.380549999999971], [42.80611000000005, 10.350000000000023], [42.80695883900006, 10.347169754000163], [42.81694000000016, 10.313890000000129], [42.821024679000175, 10.30245895100012], [42.85069000000004, 10.21944000000019], [42.86416000000003, 10.200550000000078], [42.87997980200015, 10.183750681000163], [42.89096999999998, 10.17208000000005], [42.9227800000001, 10.147780000000125], [42.95326000000017, 10.132500000000107], [42.97288353900012, 10.121814555000128], [42.98055000000005, 10.117640000000165], [42.98332908600014, 10.114516307000088], [42.99969964600018, 10.096115798000028], [43.01305000000008, 10.081110000000137], [43.0251181700001, 10.049861961000033], [43.03472000000016, 10.025000000000091], [43.042770000000075, 9.993060000000014], [43.05166000000008, 9.968189999999993], [43.06305000000009, 9.948750000000018], [43.0843000000001, 9.92486000000008], [43.11028000000016, 9.908890000000156], [43.147840000000144, 9.902780000000178], [43.161924820000024, 9.902780000000178], [43.18041000000005, 9.902780000000178], [43.19466512700012, 9.896465122999984], [43.204090000000065, 9.892290000000173], [43.21592794100013, 9.875704344000098], [43.22044942200006, 9.869369481000035], [43.22486000000009, 9.863190000000088], [43.22504856800009, 9.86225680200016], [43.23777000000018, 9.799300000000073], [43.246380000000045, 9.750830000000121], [43.26055000000008, 9.684720000000084], [43.267220000000066, 9.66444000000007], [43.27528000000012, 9.645560000000046], [43.283330000000035, 9.634720000000186], [43.30527000000012, 9.628330000000119], [43.32847000000015, 9.619580000000042], [43.33290629000004, 9.614804451000055], [43.33307274500004, 9.61488305500012], [43.33380989900007, 9.615231159000189], [43.33384289300017, 9.615246739000042], [43.33904849000004, 9.608239352000112], [43.348308656000086, 9.598760170000105], [43.349318824000136, 9.597136791000139], [43.38288656300017, 9.561002006000024], [43.38666000000018, 9.556940000000054], [43.40060914900016, 9.532624844999987], [43.42735680200019, 9.486000258000047], [43.427770000000066, 9.48528000000016], [43.42707571300008, 9.478825506000078], [43.426689409999994, 9.475234208000131], [43.425140000000056, 9.4608300000001], [43.42583000000013, 9.434580000000096], [43.427130520000105, 9.433188287000121], [43.44166000000001, 9.417640000000006], [43.49311627700007, 9.386311502000126], [43.54484945700017, 9.354815453000128], [43.555270000000064, 9.348470000000134], [43.5830600000001, 9.336110000000076], [43.623429761000125, 9.352866742000117], [43.627220000000136, 9.354440000000068], [43.65483813200012, 9.329266194000127], [43.65669559300011, 9.327573126000004], [43.66318181300011, 9.321660964000046], [43.72778000000005, 9.262780000000078], [43.74924187200014, 9.243383331000189], [43.8607174120001, 9.142634705000148], [43.97640554600014, 9.038078848999987], [44.01055000000014, 9.007220000000132], [44.06447894600018, 8.989349590000188], [44.115113215000065, 8.972570935000022], [44.18576915200009, 8.949157709000133], [44.1874427570001, 8.94860312700007], [44.650469999999984, 8.795170000000155], [44.661457855000094, 8.791528936000134], [44.685211176000166, 8.783657757000185], [44.69712590200015, 8.779709554000078], [45.50435861900013, 8.507762079999964], [45.93556637100011, 8.365377519999981], [46.09444239600009, 8.31201331800014], [46.10032650500011, 8.310035792999997], [46.278824560208406, 8.25], [46.25, 8.25], [46.25, 8.0], [46.25, 7.75], [46.0, 7.75], [46.0, 7.5], [45.75, 7.5], [45.75, 7.25], [45.75, 7.0], [46.0, 7.0], [46.0, 6.75], [46.25, 6.75], [46.5, 6.75], [46.689711828657884, 6.75], [46.561390000000074, 6.619440000000054], [46.304530759000045, 6.357048240000097], [46.15401740800013, 6.202962279000133], [46.11398000000014, 6.162030000000129], [45.99648800099999, 6.041907228000184], [45.990270000000066, 6.035550000000171], [45.98922750000014, 6.0344487759999765], [45.955830000000105, 5.999170000000106], [45.896050316000185, 5.934043962000146], [45.71666000000005, 5.738610000000051], [45.63371927700001, 5.6477897990001225], [45.4894000000001, 5.489760000000047], [45.37922693899998, 5.369128503000184], [45.374470000000144, 5.363920000000064], [45.37179705200015, 5.3610043010001505], [45.09611000000007, 5.0602799999999775], [45.07551455100014, 5.037481979000063], [45.007840000000044, 4.962569999999971], [45.000000000000114, 4.954310000000078], [44.990061245000106, 4.943837621], [44.95083000000017, 4.902500000000032], [44.76681662800013, 4.914169387000186], [44.512770000000046, 4.930280000000096], [44.46690000000012, 4.933530000000076], [44.32596500900007, 4.942019771000048], [44.290270000000135, 4.944170000000099], [44.22167000000013, 4.948329999999999], [44.05903000000018, 4.958610000000078], [43.98194000000012, 4.963050000000067], [43.95986000000016, 4.95139000000006], [43.92222000000015, 4.934440000000052], [43.887210000000096, 4.922780000000046], [43.855830000000026, 4.9138900000000945], [43.83305000000007, 4.910280000000171], [43.82708475800018, 4.909497701000021], [43.823424633000116, 4.909017784000184], [43.79863191999999, 4.86921770500004], [43.53971904400015, 4.789742177999983], [43.51273194200013, 4.82118015500015], [43.50854576000012, 4.829276613000047], [43.505815417000065, 4.828205973000081], [43.4905500000001, 4.822220000000129], [43.41666782400006, 4.790267614000129], [43.38969655500017, 4.778603145000034], [43.37536834100018, 4.772406513000135], [43.35889000000003, 4.765280000000132], [43.358204501000046, 4.76497306300007], [43.32166000000012, 4.748610000000042], [43.1936, 4.687780000000089], [43.158190000000104, 4.666390000000035], [43.08083000000005, 4.604170000000181], [43.07580097200014, 4.600008478999996], [42.98569000000009, 4.525420000000054], [42.96888000000007, 4.504310000000089], [42.95722000000006, 4.481110000000058], [42.94652000000008, 4.44611000000009], [42.933610000000044, 4.3887500000001864], [42.930016069000146, 4.382227095000076], [42.91999000000004, 4.3640300000001275], [42.87666000000013, 4.31833000000006], [42.85569000000004, 4.304720000000032], [42.831670000000145, 4.295279999999991], [42.82252735800006, 4.292822535000141], [42.80404961100004, 4.28785587100009], [42.773574040000085, 4.279664293000167], [42.76861000000008, 4.278330000000153], [42.74083000000013, 4.272780000000125], [42.726530000000025, 4.271190000000047], [42.65611000000007, 4.264720000000125], [42.62229000000008, 4.260420000000124], [42.56378938400013, 4.246906928999977], [42.566458657000055, 4.244940942000142], [42.58508733100007, 4.214725170999998], [42.57394027700002, 4.212010860000078], [42.56571579000018, 4.20983886700003], [42.55453109700011, 4.206250191000095], [42.54262924200009, 4.204951763000167], [42.52734819200015, 4.203004767000152], [42.51674795500014, 4.202878518000091], [42.494118612000136, 4.202609002000031], [42.485828399000184, 4.2033200260000285], [42.47552108800005, 4.2027311330001], [42.47209939200013, 4.202346753000086], [42.45686223300015, 4.200635069000043], [42.445549011000026, 4.199364185000036], [42.41903606400007, 4.19525145800003], [42.37097930900012, 4.189451217000169], [42.326998249000155, 4.186269788000061], [42.266151204000096, 4.182680943000037], [42.19344320300013, 4.178970202000073], [42.138561303000074, 4.179476101000091], [42.11717987100002, 4.179673195000078], [42.09774017300009, 4.179727077999985], [42.0876693730001, 4.179365158000053], [42.084546373000194, 4.177797709000117], [42.08440662600009, 4.177624005000155], [42.08015823400012, 4.175356864999969], [42.069023132000154, 4.168312073000095], [42.06108856200001, 4.1615390780000325], [42.05113983200005, 4.151518822000185], [42.0431594850001, 4.141767979000122], [42.0353469850001, 4.132223129000124], [42.0087089540001, 4.101514816000133], [42.00000000000017, 4.093367100000137], [41.97904968300003, 4.095186233999982], [41.97422027599998, 4.080558777000022], [41.972679138000046, 4.079374790000031], [41.96691131600011, 4.080088138000065], [41.94622039800004, 4.055664063000108], [41.945991516000106, 4.044589996000184], [41.94609069800009, 4.044024944000114], [41.946910366000054, 4.039404215000161], [41.94895553600003, 4.027874947000157], [41.94345855700004, 4.016658783000082], [41.93146298500011, 4.0067792680000025], [41.926399231000005, 4.002608776000102], [41.92142486600011, 3.994117021000136], [41.91370127500011, 3.9910006380001164], [41.91308975200002, 3.9907538890000183], [41.91244657800013, 3.989429833000088], [41.90689849900019, 3.9780080320001616], [41.89907836900005, 3.9754939080001463], [41.899071336000134, 3.9754982839999684], [41.89382934600019, 3.978760004000037], [41.89009094200014, 3.9784390920001442], [41.88243744700003, 3.971598934000099], [41.88144118200012, 3.9707085420001818], [41.87815094000001, 3.96776795400001], [41.87042480700018, 3.965598267000189], [41.863864897999974, 3.9637560840000674], [41.86045837400002, 3.9612181180000903], [41.86009491300007, 3.960564049000027], [41.857317666000085, 3.95556624600016], [41.85668182400019, 3.954421997000054], [41.85206985500008, 3.9501869680000254], [41.84545135500014, 3.9500520230001257], [41.84502069600012, 3.9504891670000575], [41.84055709900019, 3.9550199510001676], [41.83811569200003, 3.952358007000157], [41.836748808000095, 3.9495101790000717], [41.83555603000019, 3.9470250609999766], [41.83348846400003, 3.9458808890000228], [41.82936096200007, 3.9468140600000083], [41.82431030300006, 3.9445290560001354], [41.820648193000125, 3.9461500650000403], [41.819969177000075, 3.9482231140000863], [41.82250976600005, 3.9537370210000518], [41.822324390000176, 3.953947623999966], [41.822153271000104, 3.954142030000071], [41.82068252600004, 3.9558129310000254], [41.815881264000154, 3.955929728000001], [41.80990982000009, 3.9560749530000408], [41.80577850300011, 3.957468032999998], [41.80210876500007, 3.955409050000128], [41.79821395800013, 3.9568009380001854], [41.79478836100009, 3.960262059999991], [41.792980194000165, 3.9690101140001275], [41.79298930800019, 3.9690607100000648], [41.79413986200018, 3.9754478929999664], [41.79254913300008, 3.9793639180001037], [41.78726959200014, 3.9770789140000034], [41.785459667000055, 3.9772241910000616], [41.78429031400003, 3.977318049000189], [41.78223419200009, 3.979393959000163], [41.778087616000164, 3.973886013000083], [41.77257919300013, 3.9722909930000583], [41.75402450600012, 3.97671794900009], [41.75376892000014, 3.978400945999965], [41.75357055700016, 3.9797101020001264], [41.755420685000104, 3.984766006000143], [41.7515258790001, 3.985466957000142], [41.74693298300019, 3.9834098819999895], [41.74419021599999, 3.9859490390000474], [41.740749359000176, 3.9845790860001102], [41.73571014400005, 3.9868938920001256], [41.73411941500012, 3.991499901000111], [41.73020553600003, 3.9866800310001054], [41.72356033300008, 3.987159967000025], [41.72058868500005, 3.9924600120000946], [41.71369171200007, 3.983278036000115], [41.692581177000136, 3.978048086000115], [41.687511444000165, 3.9697799680000685], [41.68407058700012, 3.970710039000039], [41.68062973000008, 3.969340086000102], [41.67441177400019, 3.959924935999993], [41.66387939400005, 3.965707064000071], [41.65516662599998, 3.965502024000159], [41.63159942600015, 3.982362031999969], [41.62770080600012, 3.9832940100001792], [41.61782074000013, 3.973889113000155], [41.60818481400008, 3.9729959970001687], [41.60223007200017, 3.974852085000066], [41.59327316300005, 3.9700460430001385], [41.58800125100015, 3.969369888000074], [41.582038879000095, 3.97122693100016], [41.57630920400004, 3.970782996000082], [41.569774627000186, 3.967925070999968], [41.56689834600013, 3.9666669370001273], [41.56026077200005, 3.97082710300009], [41.557064057000105, 3.975897074000102], [41.554450987999985, 3.9782528880001564], [41.55332961900001, 3.979262292000044], [41.550659179000036, 3.981666088000111], [41.54515838600014, 3.9821400640000775], [41.53152771800012, 3.9750518020001664], [41.524032593000186, 3.9711539750001634], [41.518268585000044, 3.959666967999965], [41.509769440000184, 3.954627991000052], [41.50519180300006, 3.9548709390001022], [41.506809235000105, 3.9619979860000853], [41.505668640000124, 3.96476197200019], [41.49971008299997, 3.9636271000000534], [41.48937988200015, 3.957902908000051], [41.484329223000145, 3.958606958000189], [41.48204040600018, 3.9574620730000447], [41.480358356000124, 3.9536102130000472], [41.4797325130001, 3.95217704800001], [41.47717580400007, 3.9525255120000793], [41.47629165700016, 3.9526460170000064], [41.47536687200011, 3.9533301670001606], [41.472858429000155, 3.955185891000042], [41.46930268400018, 3.9535905349999894], [41.46826934800015, 3.9531269070001827], [41.46643863999998, 3.9539199999999823], [41.460254668999994, 3.9565989970000714], [41.45895767200011, 3.9563429360001123], [41.446718719000046, 3.9539199999999823], [41.44533920300012, 3.9536468990000344], [41.443417491000105, 3.9539199999999823], [41.43709182700019, 3.9548189640001397], [41.43556463200008, 3.9479040220001593], [41.435466766000104, 3.947460890000059], [41.4301872260001, 3.944943905000116], [41.427660130000106, 3.9452888910000183], [41.426750183000024, 3.945413113000029], [41.42591477299999, 3.9460639560001596], [41.42416790800013, 3.9474248940001075], [41.42171478300014, 3.949336052000149], [41.41918945300006, 3.94796299900014], [41.41368866000016, 3.9488968850001243], [41.40544891300004, 3.9532890320000433], [41.39469528200016, 3.9622879030000036], [41.39125442500011, 3.962757110000041], [41.378616333000025, 3.9517459870001517], [41.37540011400006, 3.9516077239999845], [41.37356948800016, 3.9515290260000597], [41.36992078500015, 3.9528318150001382], [41.36578369100016, 3.954308987000104], [41.35960388200016, 3.958925009000154], [41.35938263000014, 3.9609959130000902], [41.354564667000034, 3.9603180890001113], [41.35419082699997, 3.9597589970000513], [41.348350525000114, 3.9509010310000576], [41.3389396660001, 3.946552992000079], [41.33535907700008, 3.9436931049999657], [41.333093903000076, 3.941883843000028], [41.33293131400018, 3.941790365000145], [41.332953257000156, 3.941771506000066], [41.32975006100014, 3.9392130370000586], [41.32806399500009, 3.9389919980001196], [41.32630920500003, 3.938761950000128], [41.322647095000036, 3.9406108860001154], [41.320725042000106, 3.943078165000088], [41.32013320900006, 3.9438378810000927], [41.31493377700008, 3.944274903000178], [41.30982971200012, 3.947866916000123], [41.28655242900015, 3.9484291080000844], [41.281738281000116, 3.9485449790001326], [41.27806854300002, 3.9497940540000513], [41.2772750850001, 3.951736927000127], [41.27577590900006, 3.9554150110001274], [41.25218963600014, 3.954701901000135], [41.23530197100018, 3.958884954000098], [41.23270416200012, 3.957459927000059], [41.23011016900017, 3.9560348990000875], [41.22707748400012, 3.949891091000154], [41.214550019, 3.9535059930001353], [41.20887756400009, 3.95072698600012], [41.203208924000194, 3.947947979000162], [41.20287851200004, 3.9414310350000505], [41.202806425000176, 3.9400091180000913], [41.20275116000016, 3.938919068000132], [41.20098114000007, 3.9381060599999955], [41.194887694000045, 3.9394401070001663], [41.194898483000145, 3.9395355119999635], [41.194547838000176, 3.939514512000187], [41.18587112400007, 3.941414118000182], [41.181571960000156, 3.939517975000058], [41.169265747000054, 3.942579985000066], [41.168042495000066, 3.9442522670000812], [41.16286087100019, 3.951335907000157], [41.14889144900002, 3.9573490620000484], [41.13587951700009, 3.9647419450000143], [41.132629395000095, 3.966588021000007], [41.13562011700009, 3.9714119440000673], [41.133338928000114, 3.9741780760001575], [41.12485504200015, 3.97419595700012], [41.12258148200016, 3.9824829100000443], [41.11800384500003, 3.987095117000024], [41.111816406000116, 3.987567902000137], [41.10538864100005, 3.9852819450001107], [41.10401916500007, 3.9891951080001036], [41.10013198900015, 3.993438005000087], [41.098529816000166, 3.995188952000092], [41.091869354000096, 4.013317108000081], [41.07265091000016, 4.022595882000076], [41.06536865200013, 4.036427975000095], [41.060699463000105, 4.0430397990000415], [41.05738830600012, 4.047733784000059], [41.05285543800005, 4.0515943940000625], [41.04436111500007, 4.058828831000142], [41.04071044900019, 4.064825057999997], [41.035228729000096, 4.070367813000075], [41.031799316000104, 4.0715317730001175], [41.026065826000035, 4.07086420100012], [41.02310943600003, 4.076626777000115], [41.00986099200003, 4.089333058000136], [41.001422882000156, 4.10270977100015], [40.99341964700011, 4.1078019150000955], [40.982192994000116, 4.110606192999967], [40.97716903700001, 4.116376877000164], [40.97215652500006, 4.125369072000126], [40.96508026100008, 4.132068157000106], [40.947910308000075, 4.140876769999977], [40.929805756000064, 4.144166947000031], [40.91378021200018, 4.151128769000138], [40.90821708900006, 4.152197181000076], [40.90644836400014, 4.15253686900013], [40.90415954600013, 4.1546158790001755], [40.90355549800006, 4.156334378000167], [40.89849090500019, 4.170742989000132], [40.88320541400009, 4.192656994000117], [40.88140106200001, 4.198857784000154], [40.88378143300008, 4.206212998000126], [40.88401031500018, 4.206934929000113], [40.88259718000006, 4.212056303000168], [40.88238144000013, 4.212838173000023], [40.87321853700007, 4.220889092000107], [40.87017554900018, 4.221903534000035], [40.85576629700006, 4.226706981000007], [40.84879373800004, 4.2383928820001415], [40.844100952000076, 4.246257782000043], [40.836965142999986, 4.247413371000164], [40.83068847700008, 4.248429775000034], [40.81384277400008, 4.255150794999963], [40.80250930800008, 4.262080193000088], [40.78464126600011, 4.273006916000099], [40.77838897700019, 4.280996800000025], [40.774921417000144, 4.281918049000126], [40.77434162900016, 4.281498134000117], [40.773384137000164, 4.282452356000022], [40.77110422300018, 4.281238923000046], [40.682561763000194, 4.234114173000023], [40.672220000000095, 4.228610000000174], [40.513807683000095, 4.167436986000098], [40.398890000000165, 4.1230600000000095], [40.39354322600008, 4.110488839000027], [40.388610000000085, 4.09889000000004], [40.18250000000006, 4.022500000000093], [40.0, 3.9285800000001814], [39.982768864000036, 3.920937512000023], [39.97099224900006, 3.91571465800007], [39.961042841000165, 3.911301963000085], [39.93345827500008, 3.8990668940000432], [39.88622861500005, 3.8781192250000913], [39.866660000000024, 3.869440000000054], [39.824364661000175, 3.7730754050000996], [39.81304742000003, 3.74729049900003], [39.80539066700004, 3.729845553000075], [39.78278000000017, 3.6783300000001304], [39.71641582600006, 3.6156022670000993], [39.594990000000166, 3.5008300000001213], [39.58952508700014, 3.4860092570001484], [39.560270000000116, 3.40667000000019], [39.55022959700011, 3.407312586000103], [39.51902000000018, 3.4093100000001186], [39.517783494000184, 3.4102829999999926], [39.5177823520001, 3.410283898999978], [39.50208000000009, 3.422640000000115], [39.49975289800011, 3.4482381190001092], [39.49958000000004, 3.4501400000001468], [39.499320577000105, 3.4502057740000964], [39.45865826000005, 3.460515235000173], [39.45083000000017, 3.4624999999999773], [39.43013704200007, 3.460674580000159], [39.422490000000096, 3.4600000000000932], [39.33138000000014, 3.4691700000001333], [39.328640000000064, 3.499649999999974], [39.29613000000012, 3.4764999999999873], [39.29500000000007, 3.4752800000001116], [39.24889000000019, 3.471390000000156], [39.19694000000004, 3.478610000000174], [39.13000000000011, 3.5108300000001122], [39.10323938700003, 3.5247835790000863], [39.09192439500015, 3.530683468000177], [39.091117958000154, 3.531103962000145], [39.09058702500016, 3.5313808020001147], [39.08472000000012, 3.5344400000001315], [39.04611000000011, 3.5288900000001036], [39.045760263000034, 3.5288499320001847], [39.03875318800016, 3.5280471600000283], [39.03334472200015, 3.5274275340000827], [39.02177182100013, 3.526101674000131], [39.00969978200004, 3.524718630000109], [38.96070974600008, 3.519106041000157], [38.95638000000014, 3.5186100000000806], [38.913610000000176, 3.513890000000117], [38.90742454600013, 3.5156475500000965], [38.810000000000116, 3.5433300000000827], [38.77509426400019, 3.553681266000183], [38.76167255200011, 3.5576614639999775], [38.756302198000185, 3.5592540380001196], [38.74775306300006, 3.561789276000127], [38.72944000000018, 3.5672200000000203], [38.621940000000166, 3.6016700000001265], [38.59335821900004, 3.608548682000105], [38.580228120000186, 3.6117086590001577], [38.516940000000034, 3.6269399999999905], [38.448050000000194, 3.599440000000129], [38.43657600200015, 3.6003132320001328], [38.33230789600003, 3.608248592000166], [38.32388000000009, 3.6088900000000876], [38.32234968300003, 3.608910981000122], [38.29803837100002, 3.609244292000085], [38.297984919000044, 3.609245025000064], [38.280926186000045, 3.6094789020001485], [38.12111000000016, 3.6116700000000606], [38.0561100000001, 3.6519400000001383], [38.04007713000016, 3.6848038210001164], [38.03361000000007, 3.698060000000112], [38.026023561000045, 3.7045775960000924], [37.998050000000035, 3.728610000000117], [37.989384206000125, 3.734236183000121], [37.943628453000144, 3.763942668000027], [37.64826015400013, 3.955707706000112], [37.550953291000155, 4.018883254000173], [37.546837040000185, 4.02155569100006], [37.54370412200012, 4.023589708000031], [37.52323828800019, 4.036876954000036], [37.50920328700005, 4.045989044000123], [37.280550000000176, 4.194439999999986], [37.13027000000011, 4.28639000000004], [37.1222587530001, 4.298050214000057], [37.099160000000154, 4.331669999999974], [37.09514145500009, 4.334636584000123], [37.08446514800005, 4.342518084000176], [37.047235413000124, 4.370001946000116], [37.0397200000001, 4.375550000000146], [37.03694532300011, 4.376630471000112], [36.95148169300012, 4.4099103860000355], [36.94853076900006, 4.411059489000024], [36.887770000000046, 4.434720000000084], [36.88650268400016, 4.434713650000049], [36.714253964000136, 4.433850543000176], [36.64750000000009, 4.446670000000097], [36.51177495500019, 4.4434972230000085], [36.447710734000054, 4.44199962600004], [36.4336100000001, 4.4416700000001015], [36.396669843000154, 4.4410997600001565], [36.36411012900015, 4.440597140000136], [36.271660000000054, 4.43916999999999], [36.26365000000004, 4.440339999999992], [36.21117000000015, 4.447999999999979], [36.068684569000084, 4.4472097030000555], [36.04530000000011, 4.447080000000085], [36.031047173000104, 4.458281953000096], [35.965180000000146, 4.510050000000035], [35.95111000000003, 4.521110000000135], [35.95031824900019, 4.546232119000138], [35.94826000000012, 4.611540000000161], [35.94770000000017, 4.629330000000039], [35.924720000000036, 4.640280000000075], [35.92144999999999, 4.643720000000144], [35.79319552600015, 4.7788491440000485], [35.77444000000014, 4.79861000000011], [35.77801413300017, 4.981521910000083], [35.77824540800003, 4.993357784000068], [35.77837669400009, 5.000076512000021], [35.77999000000017, 5.082639999999969], [35.802770000000066, 5.10528000000005], [35.82361000000009, 5.136670000000095], [35.83069000000006, 5.168400000000133], [35.80513000000013, 5.206810000000132], [35.79624000000018, 5.235140000000058], [35.798740000000066, 5.265550000000189], [35.82166000000001, 5.328610000000083], [35.79694000000018, 5.331110000000024], [35.77499000000017, 5.337220000000173], [35.76366570500011, 5.342402304000132], [35.757041116000096, 5.3454338959999745], [35.75375000000008, 5.346940000000075], [35.74436701600018, 5.352908819000049], [35.73432951500007, 5.359293998000112], [35.72624000000013, 5.364440000000116], [35.663946064000186, 5.384030928000186], [35.66006869800003, 5.385250327000051], [35.651489583000114, 5.387948388000098], [35.61859064300012, 5.398294832000147], [35.616086267000185, 5.399082438000107], [35.59455234700016, 5.405854678000026], [35.57760105800014, 5.41118571800007], [35.572938427000054, 5.412652077000132], [35.57000388900008, 5.413574965000123], [35.527920000000165, 5.42681000000016], [35.50470999999999, 5.431390000000022], [35.44371000000018, 5.425520000000176], [35.41909000000004, 5.3984000000001515], [35.352840000000185, 5.350690000000043], [35.32625000000013, 5.35708000000011], [35.3030500000001, 5.377360000000124], [35.295558285000084, 5.39135417500006], [35.27041000000003, 5.438330000000121], [35.27708000000018, 5.458050000000185], [35.29270000000008, 5.487640000000113], [35.289990000000046, 5.507780000000082], [35.10388000000012, 5.632500000000107], [35.10541000000006, 5.6883300000000645], [35.028330000000096, 5.81416999999999], [34.98638000000011, 5.878050000000087], [34.975830000000144, 5.964720000000057], [34.987820000000056, 6.013940000000048], [34.981380000000115, 6.061110000000099], [34.96972000000011, 6.0865300000001525], [34.95222000000007, 6.103470000000016], [34.92243000000013, 6.132290000000012], [34.870550000000094, 6.237500000000125], [34.859300000000076, 6.267220000000123], [34.85638000000006, 6.29111000000006], [34.85462998000003, 6.31183320100007], [34.85292277500008, 6.33204939899997], [34.850000000000136, 6.366660000000138], [34.759675713000036, 6.606644279000136], [34.756990000000144, 6.613780000000133], [34.739280539000106, 6.635463672000128], [34.73826379900015, 6.636708580000118], [34.70702908400011, 6.674952730000086], [34.70472000000001, 6.677780000000041], [34.68152864200016, 6.697940875000086], [34.67916000000014, 6.699999999999989], [34.66696396100008, 6.7083186570000635], [34.65472000000017, 6.716670000000136], [34.63208000000009, 6.729030000000137], [34.623499456000104, 6.730695756000102], [34.60277000000002, 6.7347200000000385], [34.55361000000005, 6.735689999999977], [34.54362580700018, 6.7403337170000555], [34.536689387000024, 6.7435598940001], [34.530005597000184, 6.746668571000043], [34.52882000000005, 6.747220000000084], [34.48697000000004, 6.87749000000008], [34.47180000000003, 6.914310000000171], [34.470093883000175, 6.915191250000078], [34.47001740000013, 6.915230756000142], [34.447943620000046, 6.926632390000066], [34.43095000000011, 6.935410000000161], [34.36097000000018, 6.959030000000155], [34.32875000000007, 6.958750000000066], [34.29957000000013, 6.964320000000157], [34.29916186700018, 6.964566983000054], [34.28055000000006, 6.97583000000003], [34.272671419000005, 6.983538224000085], [34.2699422660001, 6.9862083650000955], [34.248797217000174, 7.0068961980000495], [34.235690000000034, 7.0197200000000635], [34.223610000000065, 7.042500000000189], [34.19389000000007, 7.089999999999975], [34.19129983000016, 7.096922095000139], [34.17694454700012, 7.135285836999969], [34.163330000000144, 7.17167000000012], [34.09916000000004, 7.199720000000184], [34.02708000000007, 7.2481200000000285], [34.02862250900006, 7.266560782000113], [34.02974999999998, 7.280039999999985], [34.03278000000006, 7.304440000000056], [34.031287758000076, 7.32629089400001], [34.03059155600016, 7.336485380999989], [34.02995617200003, 7.34578930400005], [34.02946739000009, 7.352946539000072], [34.02912253600016, 7.357996237000123], [34.02771000000013, 7.378680000000031], [34.00540917700016, 7.401699294000082], [33.96179849300012, 7.446714993000114], [33.95485945399997, 7.453877589000172], [33.93059898400014, 7.478919664000102], [33.92877065900012, 7.480806892000089], [33.926267308000035, 7.483390894000024], [33.89687238000005, 7.513732845000106], [33.88555000000008, 7.525420000000167], [33.850232331000086, 7.552572524000027], [33.780475743000125, 7.606201983000119], [33.71249000000006, 7.658470000000136], [33.688881771000126, 7.668065930000068], [33.685187874000064, 7.669567371000028], [33.68145116900007, 7.671086213000137], [33.64722000000012, 7.685000000000002], [33.59459974500004, 7.701994056000103], [33.51380577400016, 7.72808699899997], [33.5115357680001, 7.728820113000097], [33.47921589300017, 7.739258028000165], [33.464440000000025, 7.744030000000066], [33.463938035000126, 7.744038141000146], [33.46360172800013, 7.744043595000051], [33.453941863000125, 7.744200262000163], [33.454388352000024, 7.7449721500000805], [33.45465483100014, 7.74556846400003], [33.45387855000013, 7.744201289000159], [33.449281319000136, 7.744275849000076], [33.439160000000186, 7.744440000000111], [33.423315709000065, 7.746111997000128], [33.25814697900017, 7.763541726000142], [33.25749999999999, 7.763610000000085], [33.10808516600014, 7.779866899000069], [33.10283424000016, 7.780438219000075], [33.096660000000156, 7.781110000000183], [33.054243773999985, 7.790253732000167], [33.05238928000006, 7.790653508000048], [33.05222000000009, 7.7906900000000405], [33.05215208400011, 7.790790954000045], [33.04650785900003, 7.79918077200017], [33.01497000000012, 7.846060000000136], [33.0127192380001, 7.851167022000084], [33.00185945100009, 7.875808081999992], [33.0, 7.880027210954269], [33.0, 7.94061573534574]], [[38.75, 13.5], [38.75, 13.25], [38.75, 13.0], [39.0, 13.0], [39.25, 13.0], [39.5, 13.0], [39.75, 13.0], [39.75, 13.25], [39.75, 13.5], [39.5, 13.5], [39.25, 13.5], [39.0, 13.5], [38.75, 13.5]], [[39.0, 14.25], [38.75, 14.25], [38.75, 14.0], [39.0, 14.0], [39.0, 14.25]], [[37.25, 11.5], [37.5, 11.5], [37.5, 11.75], [37.75, 11.75], [38.0, 11.75], [38.0, 12.0], [38.0, 12.25], [38.0, 12.5], [37.75, 12.5], [37.5, 12.5], [37.5, 12.25], [37.25, 12.25], [37.25, 12.0], [37.0, 12.0], [37.0, 11.75], [37.25, 11.75], [37.25, 11.5]], [[45.25, 6.0], [45.5, 6.0], [45.75, 6.0], [45.75, 6.25], [45.5, 6.25], [45.25, 6.25], [45.25, 6.0]]], [[[40.5, 14.329395809586916], [40.54559062700008, 14.301409044000138], [40.62798780700018, 14.244860054000128], [40.65053094300009, 14.229388753000023], [40.67129652900013, 14.213192006000043], [40.667984655, 14.211366589000079], [40.67135013600006, 14.21315019400015], [40.836741396000036, 14.084148277000168], [40.970851659999994, 13.970047955000098], [41.015591746999974, 13.932477847000143], [41.07730185700012, 13.878547704000084], [41.09920527700018, 13.85717662500008], [41.16864197700011, 13.789427512000088], [41.19152200300016, 13.767837467999982], [41.21587205100013, 13.747537406999982], [41.25037208800018, 13.712717340000154], [41.269264600000156, 13.689142551999964], [41.29080207800013, 13.662267277000069], [41.31370206000008, 13.630287251000084], [41.350412115000154, 13.59739716900009], [41.3784621420001, 13.569927111000084], [41.41867221700011, 13.537497010000095], [41.439702252000075, 13.51949696100013], [41.45948300800001, 13.501189471999965], [41.53122235100017, 13.43313676300005], [41.57809238800013, 13.385726673000079], [41.611682396000106, 13.347506613000178], [41.650982445000125, 13.311666529000036], [41.69545248700001, 13.269956428000114], [41.71700972410887, 13.25], [41.5, 13.25], [41.25, 13.25], [41.0, 13.25], [41.0, 13.5], [41.0, 13.75], [40.75, 13.75], [40.75, 14.0], [40.5, 14.0], [40.5, 14.25], [40.5, 14.329395809586916]]], [[[46.75, 7.0], [46.935426115433295, 7.0], [46.773369975000094, 6.8351173000001495], [46.75, 6.811339709173047], [46.75, 7.0]]], [[[47.0, 7.25], [47.19448829176374, 7.25], [47.0, 7.065124444022508], [47.0, 7.25]]]]}, "properties": {"domain_id": "mm100_share10", "label": "FMAM >= 100 mm and >= 10% of annual", "cells": 1398, "included_area_km2": 1004330.2, "reference_years": "1993-2025", "assessment_id": "fmam_chirps_domain_review_v1", "note": "0.25-degree cells dissolved and clipped to the Ethiopia boundary"}}]}