{"type": "FeatureCollection", "features": [{"type": "Feature", "geometry": {"type": "MultiPolygon", "coordinates": [[[[35.0, 6.25], [35.0, 6.5], [35.25, 6.5], [35.25, 6.75], [35.5, 6.75], [35.5, 7.0], [35.5, 7.25], [35.25, 7.25], [35.25, 7.5], [35.5, 7.5], [35.75, 7.5], [35.75, 7.75], [36.0, 7.75], [36.25, 7.75], [36.5, 7.75], [36.75, 7.75], [36.75, 7.5], [37.0, 7.5], [37.25, 7.5], [37.5, 7.5], [37.5, 7.75], [37.75, 7.75], [37.75, 8.0], [38.0, 8.0], [38.25, 8.0], [38.25, 8.25], [38.5, 8.25], [38.75, 8.25], [38.75, 8.0], [39.0, 8.0], [39.0, 7.75], [39.25, 7.75], [39.5, 7.75], [39.5, 8.0], [39.75, 8.0], [39.75, 8.25], [40.0, 8.25], [40.0, 8.5], [39.75, 8.5], [39.75, 8.75], [39.75, 9.0], [39.75, 9.25], [40.0, 9.25], [40.0, 9.5], [40.0, 9.75], [40.25, 9.75], [40.25, 10.0], [40.5, 10.0], [40.75, 10.0], [40.75, 10.25], [41.0, 10.25], [41.0, 10.0], [41.0, 9.75], [41.25, 9.75], [41.5, 9.75], [41.75, 9.75], [42.0, 9.75], [42.0, 10.0], [42.25, 10.0], [42.5, 10.0], [42.75, 10.0], [42.75, 10.25], [42.839769936582826, 10.25], [42.85069000000004, 10.21944000000019], [42.86416000000003, 10.200550000000078], [42.87997980200015, 10.183750681000163], [42.89096999999998, 10.17208000000005], [42.9227800000001, 10.147780000000125], [42.95326000000017, 10.132500000000107], [42.97288353900012, 10.121814555000128], [42.98055000000005, 10.117640000000165], [42.98332908600014, 10.114516307000088], [42.99969964600018, 10.096115798000028], [43.01305000000008, 10.081110000000137], [43.0251181700001, 10.049861961000033], [43.03472000000016, 10.025000000000091], [43.042770000000075, 9.993060000000014], [43.05166000000008, 9.968189999999993], [43.06305000000009, 9.948750000000018], [43.0843000000001, 9.92486000000008], [43.11028000000016, 9.908890000000156], [43.147840000000144, 9.902780000000178], [43.161924820000024, 9.902780000000178], [43.18041000000005, 9.902780000000178], [43.19466512700012, 9.896465122999984], [43.204090000000065, 9.892290000000173], [43.21592794100013, 9.875704344000098], [43.22044942200006, 9.869369481000035], [43.22486000000009, 9.863190000000088], [43.22504856800009, 9.86225680200016], [43.23777000000018, 9.799300000000073], [43.246380000000045, 9.750830000000121], [43.26055000000008, 9.684720000000084], [43.267220000000066, 9.66444000000007], [43.27528000000012, 9.645560000000046], [43.283330000000035, 9.634720000000186], [43.30527000000012, 9.628330000000119], [43.32847000000015, 9.619580000000042], [43.33290629000004, 9.614804451000055], [43.33307274500004, 9.61488305500012], [43.33380989900007, 9.615231159000189], [43.33384289300017, 9.615246739000042], [43.33904849000004, 9.608239352000112], [43.348308656000086, 9.598760170000105], [43.349318824000136, 9.597136791000139], [43.38288656300017, 9.561002006000024], [43.38666000000018, 9.556940000000054], [43.40060914900016, 9.532624844999987], [43.42735680200019, 9.486000258000047], [43.427770000000066, 9.48528000000016], [43.42707571300008, 9.478825506000078], [43.426689409999994, 9.475234208000131], [43.425140000000056, 9.4608300000001], [43.42583000000013, 9.434580000000096], [43.427130520000105, 9.433188287000121], [43.44166000000001, 9.417640000000006], [43.49311627700007, 9.386311502000126], [43.5, 9.382120573143485], [43.5, 9.25], [43.741920712725744, 9.25], [43.74924187200014, 9.243383331000189], [43.75, 9.24269815509238], [43.75, 9.0], [43.75, 8.75], [44.0, 8.75], [44.25, 8.75], [44.25, 8.5], [44.5, 8.5], [44.75, 8.5], [44.75, 8.25], [44.75, 8.0], [45.0, 8.0], [45.0, 7.75], [45.0, 7.5], [45.0, 7.25], [44.75, 7.25], [44.75, 7.0], [45.0, 7.0], [45.0, 6.75], [45.0, 6.5], [44.75, 6.5], [44.75, 6.25], [44.5, 6.25], [44.25, 6.25], [44.25, 6.0], [44.25, 5.75], [44.0, 5.75], [43.75, 5.75], [43.75, 6.0], [43.5, 6.0], [43.25, 6.0], [43.25, 5.75], [43.25, 5.5], [43.5, 5.5], [43.75, 5.5], [43.75, 5.25], [43.5, 5.25], [43.5, 5.0], [43.75, 5.0], [44.0, 5.0], [44.25, 5.0], [44.25, 4.946612029154567], [44.22167000000013, 4.948329999999999], [44.05903000000018, 4.958610000000078], [43.98194000000012, 4.963050000000067], [43.95986000000016, 4.95139000000006], [43.92222000000015, 4.934440000000052], [43.887210000000096, 4.922780000000046], [43.855830000000026, 4.9138900000000945], [43.83305000000007, 4.910280000000171], [43.82708475800018, 4.909497701000021], [43.823424633000116, 4.909017784000184], [43.79863191999999, 4.86921770500004], [43.53971904400015, 4.789742177999983], [43.51273194200013, 4.82118015500015], [43.50854576000012, 4.829276613000047], [43.505815417000065, 4.828205973000081], [43.4905500000001, 4.822220000000129], [43.41666782400006, 4.790267614000129], [43.38969655500017, 4.778603145000034], [43.37536834100018, 4.772406513000135], [43.35889000000003, 4.765280000000132], [43.358204501000046, 4.76497306300007], [43.32166000000012, 4.748610000000042], [43.1936, 4.687780000000089], [43.158190000000104, 4.666390000000035], [43.08083000000005, 4.604170000000181], [43.07580097200014, 4.600008478999996], [42.98569000000009, 4.525420000000054], [42.96888000000007, 4.504310000000089], [42.95722000000006, 4.481110000000058], [42.94652000000008, 4.44611000000009], [42.933610000000044, 4.3887500000001864], [42.930016069000146, 4.382227095000076], [42.91999000000004, 4.3640300000001275], [42.87666000000013, 4.31833000000006], [42.85569000000004, 4.304720000000032], [42.831670000000145, 4.295279999999991], [42.82252735800006, 4.292822535000141], [42.80404961100004, 4.28785587100009], [42.773574040000085, 4.279664293000167], [42.76861000000008, 4.278330000000153], [42.74083000000013, 4.272780000000125], [42.726530000000025, 4.271190000000047], [42.65611000000007, 4.264720000000125], [42.62229000000008, 4.260420000000124], [42.56378938400013, 4.246906928999977], [42.566458657000055, 4.244940942000142], [42.58508733100007, 4.214725170999998], [42.57394027700002, 4.212010860000078], [42.56571579000018, 4.20983886700003], [42.55453109700011, 4.206250191000095], [42.54262924200009, 4.204951763000167], [42.52734819200015, 4.203004767000152], [42.51674795500014, 4.202878518000091], [42.494118612000136, 4.202609002000031], [42.485828399000184, 4.2033200260000285], [42.47552108800005, 4.2027311330001], [42.47209939200013, 4.202346753000086], [42.45686223300015, 4.200635069000043], [42.445549011000026, 4.199364185000036], [42.41903606400007, 4.19525145800003], [42.37097930900012, 4.189451217000169], [42.326998249000155, 4.186269788000061], [42.266151204000096, 4.182680943000037], [42.25, 4.181856646718229], [42.25, 4.25], [42.25, 4.5], [42.25, 4.75], [42.0, 4.75], [41.75, 4.75], [41.75, 4.5], [41.5, 4.5], [41.5, 4.25], [41.25, 4.25], [41.25, 4.0], [41.25, 3.955244271034076], [41.23530197100018, 3.958884954000098], [41.23270416200012, 3.957459927000059], [41.23011016900017, 3.9560348990000875], [41.22707748400012, 3.949891091000154], [41.214550019, 3.9535059930001353], [41.20887756400009, 3.95072698600012], [41.203208924000194, 3.947947979000162], [41.20287851200004, 3.9414310350000505], [41.202806425000176, 3.9400091180000913], [41.20275116000016, 3.938919068000132], [41.20098114000007, 3.9381060599999955], [41.194887694000045, 3.9394401070001663], [41.194898483000145, 3.9395355119999635], [41.194547838000176, 3.939514512000187], [41.18587112400007, 3.941414118000182], [41.181571960000156, 3.939517975000058], [41.169265747000054, 3.942579985000066], [41.168042495000066, 3.9442522670000812], [41.16286087100019, 3.951335907000157], [41.14889144900002, 3.9573490620000484], [41.13587951700009, 3.9647419450000143], [41.132629395000095, 3.966588021000007], [41.13562011700009, 3.9714119440000673], [41.133338928000114, 3.9741780760001575], [41.12485504200015, 3.97419595700012], [41.12258148200016, 3.9824829100000443], [41.11800384500003, 3.987095117000024], [41.111816406000116, 3.987567902000137], [41.10538864100005, 3.9852819450001107], [41.10401916500007, 3.9891951080001036], [41.10013198900015, 3.993438005000087], [41.098529816000166, 3.995188952000092], [41.091869354000096, 4.013317108000081], [41.07265091000016, 4.022595882000076], [41.06536865200013, 4.036427975000095], [41.060699463000105, 4.0430397990000415], [41.05738830600012, 4.047733784000059], [41.05285543800005, 4.0515943940000625], [41.04436111500007, 4.058828831000142], [41.04071044900019, 4.064825057999997], [41.035228729000096, 4.070367813000075], [41.031799316000104, 4.0715317730001175], [41.026065826000035, 4.07086420100012], [41.02310943600003, 4.076626777000115], [41.00986099200003, 4.089333058000136], [41.001422882000156, 4.10270977100015], [40.99341964700011, 4.1078019150000955], [40.982192994000116, 4.110606192999967], [40.97716903700001, 4.116376877000164], [40.97215652500006, 4.125369072000126], [40.96508026100008, 4.132068157000106], [40.947910308000075, 4.140876769999977], [40.929805756000064, 4.144166947000031], [40.91378021200018, 4.151128769000138], [40.90821708900006, 4.152197181000076], [40.90644836400014, 4.15253686900013], [40.90415954600013, 4.1546158790001755], [40.90355549800006, 4.156334378000167], [40.89849090500019, 4.170742989000132], [40.88320541400009, 4.192656994000117], [40.88140106200001, 4.198857784000154], [40.88378143300008, 4.206212998000126], [40.88401031500018, 4.206934929000113], [40.88259718000006, 4.212056303000168], [40.88238144000013, 4.212838173000023], [40.87321853700007, 4.220889092000107], [40.87017554900018, 4.221903534000035], [40.85576629700006, 4.226706981000007], [40.84879373800004, 4.2383928820001415], [40.844100952000076, 4.246257782000043], [40.836965142999986, 4.247413371000164], [40.83068847700008, 4.248429775000034], [40.81384277400008, 4.255150794999963], [40.80250930800008, 4.262080193000088], [40.78464126600011, 4.273006916000099], [40.77838897700019, 4.280996800000025], [40.774921417000144, 4.281918049000126], [40.77434162900016, 4.281498134000117], [40.773384137000164, 4.282452356000022], [40.77110422300018, 4.281238923000046], [40.682561763000194, 4.234114173000023], [40.672220000000095, 4.228610000000174], [40.513807683000095, 4.167436986000098], [40.398890000000165, 4.1230600000000095], [40.39354322600008, 4.110488839000027], [40.388610000000085, 4.09889000000004], [40.18250000000006, 4.022500000000093], [40.0, 3.9285800000001814], [39.982768864000036, 3.920937512000023], [39.97099224900006, 3.91571465800007], [39.961042841000165, 3.911301963000085], [39.93345827500008, 3.8990668940000432], [39.88622861500005, 3.8781192250000913], [39.866660000000024, 3.869440000000054], [39.824364661000175, 3.7730754050000996], [39.81304742000003, 3.74729049900003], [39.80539066700004, 3.729845553000075], [39.78278000000017, 3.6783300000001304], [39.71641582600006, 3.6156022670000993], [39.594990000000166, 3.5008300000001213], [39.58952508700014, 3.4860092570001484], [39.560270000000116, 3.40667000000019], [39.55022959700011, 3.407312586000103], [39.51902000000018, 3.4093100000001186], [39.517783494000184, 3.4102829999999926], [39.5177823520001, 3.410283898999978], [39.50208000000009, 3.422640000000115], [39.49975289800011, 3.4482381190001092], [39.49958000000004, 3.4501400000001468], [39.499320577000105, 3.4502057740000964], [39.45865826000005, 3.460515235000173], [39.45083000000017, 3.4624999999999773], [39.43013704200007, 3.460674580000159], [39.422490000000096, 3.4600000000000932], [39.33138000000014, 3.4691700000001333], [39.328640000000064, 3.499649999999974], [39.29613000000012, 3.4764999999999873], [39.29500000000007, 3.4752800000001116], [39.24889000000019, 3.471390000000156], [39.19694000000004, 3.478610000000174], [39.13000000000011, 3.5108300000001122], [39.10323938700003, 3.5247835790000863], [39.09192439500015, 3.530683468000177], [39.091117958000154, 3.531103962000145], [39.09058702500016, 3.5313808020001147], [39.08472000000012, 3.5344400000001315], [39.04611000000011, 3.5288900000001036], [39.045760263000034, 3.5288499320001847], [39.03875318800016, 3.5280471600000283], [39.03334472200015, 3.5274275340000827], [39.02177182100013, 3.526101674000131], [39.00969978200004, 3.524718630000109], [38.96070974600008, 3.519106041000157], [38.95638000000014, 3.5186100000000806], [38.913610000000176, 3.513890000000117], [38.90742454600013, 3.5156475500000965], [38.810000000000116, 3.5433300000000827], [38.77509426400019, 3.553681266000183], [38.76167255200011, 3.5576614639999775], [38.756302198000185, 3.5592540380001196], [38.74775306300006, 3.561789276000127], [38.72944000000018, 3.5672200000000203], [38.621940000000166, 3.6016700000001265], [38.59335821900004, 3.608548682000105], [38.580228120000186, 3.6117086590001577], [38.516940000000034, 3.6269399999999905], [38.448050000000194, 3.599440000000129], [38.43657600200015, 3.6003132320001328], [38.33230789600003, 3.608248592000166], [38.32388000000009, 3.6088900000000876], [38.32234968300003, 3.608910981000122], [38.29803837100002, 3.609244292000085], [38.297984919000044, 3.609245025000064], [38.280926186000045, 3.6094789020001485], [38.12111000000016, 3.6116700000000606], [38.0561100000001, 3.6519400000001383], [38.04007713000016, 3.6848038210001164], [38.03361000000007, 3.698060000000112], [38.026023561000045, 3.7045775960000924], [37.998050000000035, 3.728610000000117], [37.989384206000125, 3.734236183000121], [37.943628453000144, 3.763942668000027], [37.64826015400013, 3.955707706000112], [37.550953291000155, 4.018883254000173], [37.546837040000185, 4.02155569100006], [37.54370412200012, 4.023589708000031], [37.52323828800019, 4.036876954000036], [37.50920328700005, 4.045989044000123], [37.280550000000176, 4.194439999999986], [37.13027000000011, 4.28639000000004], [37.1222587530001, 4.298050214000057], [37.099160000000154, 4.331669999999974], [37.09514145500009, 4.334636584000123], [37.08446514800005, 4.342518084000176], [37.047235413000124, 4.370001946000116], [37.0397200000001, 4.375550000000146], [37.03694532300011, 4.376630471000112], [36.95148169300012, 4.4099103860000355], [36.94853076900006, 4.411059489000024], [36.887770000000046, 4.434720000000084], [36.88650268400016, 4.434713650000049], [36.714253964000136, 4.433850543000176], [36.64750000000009, 4.446670000000097], [36.51177495500019, 4.4434972230000085], [36.447710734000054, 4.44199962600004], [36.4336100000001, 4.4416700000001015], [36.396669843000154, 4.4410997600001565], [36.36411012900015, 4.440597140000136], [36.271660000000054, 4.43916999999999], [36.26365000000004, 4.440339999999992], [36.21117000000015, 4.447999999999979], [36.068684569000084, 4.4472097030000555], [36.04530000000011, 4.447080000000085], [36.031047173000104, 4.458281953000096], [35.965180000000146, 4.510050000000035], [35.95111000000003, 4.521110000000135], [35.95031824900019, 4.546232119000138], [35.94826000000012, 4.611540000000161], [35.94770000000017, 4.629330000000039], [35.924720000000036, 4.640280000000075], [35.92144999999999, 4.643720000000144], [35.79319552600015, 4.7788491440000485], [35.77444000000014, 4.79861000000011], [35.77801413300017, 4.981521910000083], [35.77824540800003, 4.993357784000068], [35.77837669400009, 5.000076512000021], [35.77999000000017, 5.082639999999969], [35.802770000000066, 5.10528000000005], [35.82361000000009, 5.136670000000095], [35.83069000000006, 5.168400000000133], [35.80513000000013, 5.206810000000132], [35.79624000000018, 5.235140000000058], [35.798740000000066, 5.265550000000189], [35.82166000000001, 5.328610000000083], [35.79694000000018, 5.331110000000024], [35.77499000000017, 5.337220000000173], [35.76366570500011, 5.342402304000132], [35.757041116000096, 5.3454338959999745], [35.75375000000008, 5.346940000000075], [35.74436701600018, 5.352908819000049], [35.73432951500007, 5.359293998000112], [35.72624000000013, 5.364440000000116], [35.663946064000186, 5.384030928000186], [35.66006869800003, 5.385250327000051], [35.651489583000114, 5.387948388000098], [35.61859064300012, 5.398294832000147], [35.616086267000185, 5.399082438000107], [35.59455234700016, 5.405854678000026], [35.57760105800014, 5.41118571800007], [35.572938427000054, 5.412652077000132], [35.57000388900008, 5.413574965000123], [35.527920000000165, 5.42681000000016], [35.50470999999999, 5.431390000000022], [35.44371000000018, 5.425520000000176], [35.41909000000004, 5.3984000000001515], [35.352840000000185, 5.350690000000043], [35.32625000000013, 5.35708000000011], [35.3030500000001, 5.377360000000124], [35.295558285000084, 5.39135417500006], [35.27041000000003, 5.438330000000121], [35.27708000000018, 5.458050000000185], [35.29270000000008, 5.487640000000113], [35.289990000000046, 5.507780000000082], [35.10388000000012, 5.632500000000107], [35.10541000000006, 5.6883300000000645], [35.028330000000096, 5.81416999999999], [34.98638000000011, 5.878050000000087], [34.975830000000144, 5.964720000000057], [34.987820000000056, 6.013940000000048], [34.981380000000115, 6.061110000000099], [34.96972000000011, 6.0865300000001525], [34.95222000000007, 6.103470000000016], [34.92243000000013, 6.132290000000012], [34.870550000000094, 6.237500000000125], [34.86581833781978, 6.25], [35.0, 6.25]], [[39.5, 7.0], [39.5, 7.25], [39.5, 7.5], [39.25, 7.5], [39.0, 7.5], [39.0, 7.25], [39.0, 7.0], [39.25, 7.0], [39.5, 7.0]]], [[[39.0, 8.25], [39.25, 8.25], [39.25, 8.0], [39.0, 8.0], [39.0, 8.25]]], [[[39.75, 12.0], [39.75, 12.25], [39.75, 12.5], [39.75, 12.75], [40.0, 12.75], [40.25, 12.75], [40.25, 12.5], [40.25, 12.25], [40.25, 12.0], [40.25, 11.75], [40.5, 11.75], [40.5, 11.5], [40.25, 11.5], [40.25, 11.25], [40.0, 11.25], [40.0, 11.5], [40.0, 11.75], [39.75, 11.75], [39.75, 12.0]]], [[[40.25, 14.25], [40.25, 14.0], [40.25, 13.75], [40.5, 13.75], [40.5, 13.5], [40.25, 13.5], [40.0, 13.5], [40.0, 13.75], [39.75, 13.75], [39.75, 14.0], [39.5, 14.0], [39.5, 14.25], [39.5, 14.5], [39.5, 14.541577995286405], [39.50038652500007, 14.543799707000119], [39.5, 14.545462833878892], [39.5, 14.666368278514623], [39.50049272900014, 14.670714334000024], [39.50267493900003, 14.67701014100004], [39.502946064000184, 14.676816245000168], [39.509986414000025, 14.67178131300011], [39.51173321100009, 14.673371788000168], [39.51211672500017, 14.673720982000134], [39.51466732800009, 14.676043332000063], [39.51578644400013, 14.67706229800018], [39.516531680000185, 14.676742893000153], [39.52283713200018, 14.67404040200006], [39.5303008460001, 14.671040517000108], [39.53744321500011, 14.669518097000093], [39.54411879300005, 14.670351952999965], [39.549275001000126, 14.669644719000075], [39.55551308300011, 14.668780316000039], [39.563476795000156, 14.669849908999993], [39.56963081800012, 14.669904329000076], [39.57518228700019, 14.669890578000093], [39.580042941000045, 14.667793331000041], [39.58556284300005, 14.664767611000116], [39.591224960000034, 14.662146833000179], [39.595582580000155, 14.657483938000098], [39.60082321100003, 14.651987372000065], [39.60582939300019, 14.64710910700012], [39.611016262000135, 14.643678247000139], [39.618086970000036, 14.638273008000056], [39.62268647900015, 14.635943927000028], [39.624466158000075, 14.628467578000027], [39.62579911100016, 14.619719051000118], [39.62880859900008, 14.608764478000126], [39.63369243700009, 14.602901373000066], [39.637687754000126, 14.598433770000156], [39.64299966200019, 14.595809658999997], [39.65007620500012, 14.593067764000068], [39.65742630600016, 14.589822925000078], [39.662942036000175, 14.591232005000165], [39.6665445110001, 14.592152314000032], [39.66676894000011, 14.592030397000144], [39.67383329100011, 14.58819281500007], [39.67683170000009, 14.588453064000191], [39.67794776300019, 14.588549933000081], [39.68028972600007, 14.588753205000046], [39.68479826100014, 14.583218762000172], [39.68958133500013, 14.577259067000057], [39.6967570700001, 14.569013244000018], [39.69904877500011, 14.562009805000116], [39.7048608770001, 14.555783412000153], [39.70933267900011, 14.551368027000137], [39.71519684000009, 14.551658998000164], [39.722192330000155, 14.549011790000122], [39.72879554300005, 14.546790339000097], [39.73452188500005, 14.547004037000022], [39.74195591600011, 14.546169638000151], [39.750274881000166, 14.54521633000013], [39.758059969000044, 14.543492206000167], [39.76678566700008, 14.540761419000034], [39.76849076700012, 14.533188418000066], [39.77452876000012, 14.527145002999987], [39.77687347800014, 14.522542392000105], [39.779959254000175, 14.518912237000052], [39.78544922800006, 14.51108458300007], [39.791543556000136, 14.506339999000033], [39.792610100000104, 14.500192012000014], [39.79784599200008, 14.499589475000164], [39.799472810000054, 14.499402264000025], [39.80100967700008, 14.499225404000185], [39.80671807300007, 14.49337277800015], [39.81010288900018, 14.487477216000116], [39.81318087400007, 14.48237148600009], [39.8199807260001, 14.478950498000188], [39.825682792000066, 14.48014325500003], [39.83131514100006, 14.484855217000188], [39.84141007400018, 14.4794003720001], [39.84684096700005, 14.474487311000132], [39.85661611400013, 14.472026032000144], [39.861917960000085, 14.465819361000058], [39.866738838000174, 14.463496205000013], [39.87255345300014, 14.461897605000104], [39.87982183000014, 14.452104808000115], [39.89041900400014, 14.443637146000128], [39.89050024200009, 14.443572233000168], [39.89523720300008, 14.43585016600008], [39.90029778100012, 14.43182750800014], [39.911406325000144, 14.422928815000091], [39.92375602400011, 14.414994940999975], [39.93203969500013, 14.41205119600005], [39.93846445600013, 14.40874957699998], [39.94465840000015, 14.409453125000141], [39.94986367500013, 14.410645311000167], [39.954459174000135, 14.41402314100003], [39.95633320500002, 14.416079448999994], [39.95798398200009, 14.41789078800008], [39.95871524400002, 14.418309519000161], [39.96464540200009, 14.421705210000027], [39.97000771100011, 14.425401455000042], [39.97135219000006, 14.42632820600005], [39.97149884500004, 14.431584838000163], [39.97238320500003, 14.432454415000052], [39.97459895000014, 14.434633119000011], [39.978061055000126, 14.438037349000126], [39.98085004700016, 14.440779718000101], [39.98425632200019, 14.432340698000132], [39.98568332100018, 14.432741424000085], [40.01021790500016, 14.439631002000112], [40.02819810100016, 14.45798088500004], [40.04320826500009, 14.473740792000115], [40.05525840200016, 14.486900711000146], [40.07530855800013, 14.493950612000162], [40.08904863200013, 14.490250559000174], [40.139918990000126, 14.498050334000084], [40.17298916200002, 14.490280210000037], [40.22258942100018, 14.478630022000175], [40.25, 14.463482834370486], [40.25, 14.25]]], [[[40.5, 11.0], [40.5, 10.75], [40.25, 10.75], [40.0, 10.75], [40.0, 11.0], [40.25, 11.0], [40.5, 11.0]]]]}, "properties": {"domain_id": "mm150_share30", "label": "FMAM >= 150 mm and >= 30% of annual", "cells": 709, "included_area_km2": 516956.8, "reference_years": "1993-2025", "assessment_id": "fmam_chirps_domain_review_v1", "note": "0.25-degree cells dissolved and clipped to the Ethiopia boundary"}}]}