{"type": "FeatureCollection", "features": [{"type": "Feature", "geometry": {"type": "MultiPolygon", "coordinates": [[[[38.75, 7.25], [38.75, 7.5], [39.0, 7.5], [39.25, 7.5], [39.25, 7.75], [39.0, 7.75], [39.0, 8.0], [38.75, 8.0], [38.75, 8.25], [38.5, 8.25], [38.25, 8.25], [38.25, 8.5], [38.0, 8.5], [38.0, 8.75], [38.0, 9.0], [38.0, 9.25], [38.0, 9.5], [38.0, 9.75], [38.0, 10.0], [37.75, 10.0], [37.75, 10.25], [37.5, 10.25], [37.5, 10.5], [37.5, 10.75], [37.5, 11.0], [37.5, 11.25], [37.5, 11.5], [37.5, 11.75], [37.75, 11.75], [38.0, 11.75], [38.0, 12.0], [38.0, 12.25], [38.0, 12.5], [37.75, 12.5], [37.5, 12.5], [37.5, 12.75], [37.5, 13.0], [37.5, 13.25], [37.75, 13.25], [38.0, 13.25], [38.0, 13.5], [38.25, 13.5], [38.25, 13.75], [38.25, 14.0], [38.25, 14.25], [38.25, 14.5], [38.35611965775479, 14.5], [38.35614163900016, 14.499258772000076], [38.36021015400007, 14.492326400000081], [38.36082020200013, 14.490649974000121], [38.362233507999974, 14.486766175000184], [38.36891703900011, 14.484397709000177], [38.37344312300013, 14.480230984000116], [38.380417513000054, 14.480797048000056], [38.38839285900019, 14.479635451000092], [38.39480763600011, 14.481472588000145], [38.39814610000013, 14.476507214000037], [38.39889129800014, 14.47013855900019], [38.40151764000018, 14.46495725900013], [38.408207211000104, 14.463737006000144], [38.41390565100011, 14.46388850500017], [38.420781839000085, 14.463747722000164], [38.422165316000076, 14.456867151999973], [38.42503369899998, 14.450354458000106], [38.42809532900003, 14.441256769000063], [38.429125667000164, 14.434670249000078], [38.43217395800008, 14.427998714000069], [38.432667426000194, 14.427906378999978], [38.435684801000036, 14.427341781000166], [38.438729429000034, 14.426772085000096], [38.442660481000075, 14.422215952000158], [38.44273906300015, 14.416140246000168], [38.44741137800014, 14.410416756000188], [38.45618417200018, 14.40944492900013], [38.46481972000004, 14.411815328999978], [38.47229136800007, 14.413054747000047], [38.47495661400018, 14.414826125000047], [38.47655207400004, 14.415886500000113], [38.477594430000124, 14.416579272000092], [38.48369845900004, 14.418195981000167], [38.491493631000026, 14.414591182000095], [38.498562379000134, 14.411938751999969], [38.506036510000115, 14.413252574000182], [38.51023185200012, 14.409897705000105], [38.51585853800009, 14.405079012000158], [38.51709716900018, 14.406484314000068], [38.518326663000096, 14.407879250000178], [38.52053518300005, 14.410384949000104], [38.52095747300018, 14.410864062000087], [38.52202747200016, 14.411571946000038], [38.526865611000176, 14.414772732000188], [38.53182952000009, 14.417272792000063], [38.537352056000145, 14.420139784000128], [38.54363851200003, 14.42252444200011], [38.549105916000144, 14.422264471000176], [38.55205559700005, 14.424086769000155], [38.55359036700003, 14.425034941999968], [38.554654030000165, 14.425692067000114], [38.56105924499997, 14.426037035000036], [38.56609889200013, 14.42834968600016], [38.56698286800008, 14.428755335000062], [38.56752534700013, 14.42920248200005], [38.56852667700019, 14.430027844000108], [38.569635782000034, 14.43094204100015], [38.572081835000176, 14.432958239000186], [38.57897721200004, 14.433635157000083], [38.58645834599997, 14.436027910000064], [38.59437508300016, 14.43857619300013], [38.6012928400001, 14.439298343000019], [38.60831913099997, 14.43863998900008], [38.61489967200009, 14.43412875600012], [38.61577435800018, 14.433529122000095], [38.61922094400006, 14.434895316000166], [38.62083338499997, 14.435534473000189], [38.623899513000026, 14.436749856999995], [38.631275002000166, 14.440539415000046], [38.63912398100007, 14.439488159999996], [38.64676857600011, 14.441177681999989], [38.65421781000009, 14.444993122000028], [38.66164275300008, 14.44547458500017], [38.662636819000056, 14.44697885000005], [38.66319683900002, 14.447826297000063], [38.66490894700013, 14.45041713500001], [38.66663064000005, 14.451191738000091], [38.66742374700004, 14.451548563000017], [38.669930627000156, 14.452676428000188], [38.67509824000007, 14.45299092099998], [38.68025072100011, 14.456757921000133], [38.687220089000164, 14.460192908000181], [38.69541494700019, 14.462306622000085], [38.70294283800018, 14.465288096000052], [38.70996440699997, 14.463716784000098], [38.71576706900015, 14.460991964000073], [38.72323446700017, 14.460665593000158], [38.730547686000136, 14.458896300000049], [38.736339066000085, 14.460357602000158], [38.743191269000135, 14.462087614000097], [38.75018031600007, 14.465081069000064], [38.75892438400007, 14.46462683700014], [38.76801297900005, 14.466069264000055], [38.77484981600003, 14.466887417000123], [38.78097383900007, 14.465621214000066], [38.786638575000154, 14.463962601000105], [38.79404033700007, 14.463219068000114], [38.798755471000106, 14.46636028100005], [38.80009341700014, 14.467251617999977], [38.80169099400007, 14.468315921000055], [38.80898552800005, 14.471929113000044], [38.81516246100017, 14.474335912000129], [38.81520563900017, 14.474541558999988], [38.81554676400009, 14.47616624900013], [38.81658608000009, 14.481116249000081], [38.8167149840001, 14.481730188000142], [38.81672192600013, 14.481763252000064], [38.816749173000176, 14.481893022000122], [38.81678858500004, 14.481893408000133], [38.82446323700003, 14.481968548000168], [38.83021761300006, 14.483691333000138], [38.835186656000076, 14.485279862000027], [38.83575465600018, 14.485819050999964], [38.83606358200012, 14.484715844000107], [38.83616236200015, 14.485257279000052], [38.83623739800015, 14.48575235800007], [38.83633915400003, 14.486373901000036], [38.83725681400011, 14.48724501400011], [38.839217342000154, 14.48910609700016], [38.84125449100003, 14.491039915000101], [38.841263285000025, 14.491045640000152], [38.84160765500013, 14.491269818000035], [38.84839416800003, 14.495687701000122], [38.856624824000164, 14.494514440000103], [38.86423141800003, 14.494046852000167], [38.87024994600006, 14.495046252000066], [38.87730540100006, 14.49660865200019], [38.88344403000019, 14.497590140000057], [38.89019121900003, 14.49921618400009], [38.8967734580001, 14.499652296000136], [38.89860257547138, 14.5], [39.0, 14.5], [39.21961770454278, 14.5], [39.21760728500004, 14.497286051000003], [39.216707959000075, 14.496072012000184], [39.21186189500003, 14.494292123000093], [39.208486129000164, 14.49305225300003], [39.21154648300006, 14.487516619000132], [39.214479966000056, 14.482848699000044], [39.21913150100005, 14.47818563900006], [39.218892850000145, 14.470759147000024], [39.21934185100008, 14.46855598400009], [39.220875143000114, 14.46103241000003], [39.22100254800006, 14.453800363000028], [39.22311181800012, 14.448807679000083], [39.22418321200013, 14.443325086000073], [39.22738951200006, 14.436938432999966], [39.23179212200017, 14.430761323000127], [39.23445161300003, 14.423301962000153], [39.23552415300014, 14.42054658700016], [39.2397550070001, 14.41159840299997], [39.24664974600006, 14.405436267000141], [39.246763843, 14.40533429300001], [39.24690451900011, 14.404719690000093], [39.248121663999996, 14.399418756000046], [39.249747945000024, 14.39226004600016], [39.2554306940001, 14.392346763000148], [39.26072509400012, 14.393100468000057], [39.26790386100015, 14.397342639000158], [39.26820871600006, 14.397522779000099], [39.26845772500013, 14.39767383100019], [39.27584525200007, 14.402154977000066], [39.27597166200002, 14.402184833000035], [39.28323934600007, 14.40390136800005], [39.29024481699997, 14.404734747000134], [39.2928942800001, 14.410583641000017], [39.30083248300008, 14.41138907400017], [39.30087197800009, 14.412589061000062], [39.30105748900007, 14.41822519100009], [39.29788537400009, 14.424202780000087], [39.29735304600007, 14.43010549800016], [39.29771405500003, 14.436182551000172], [39.30750468700006, 14.4361808700001], [39.31481294600019, 14.437557153], [39.31991736500004, 14.44193865699998], [39.320196808000105, 14.44260911800012], [39.32329159200003, 14.450034359000142], [39.31915974800012, 14.452157505000116], [39.317828947000066, 14.452841337000052], [39.318375674000094, 14.453589399000123], [39.31889641300012, 14.45430189800004], [39.321948389, 14.458477784000024], [39.322358639000015, 14.459039095000037], [39.31680461600013, 14.459774659000118], [39.3163074150001, 14.45984050700008], [39.314345168000045, 14.465759974000036], [39.31433437200019, 14.473304121000126], [39.31433431200003, 14.47334610300004], [39.31410771900016, 14.47592503400017], [39.31384799400007, 14.478881045000037], [39.31424750600013, 14.478912999000045], [39.31450812500009, 14.47893384400004], [39.315792318000035, 14.479036555000107], [39.32198434900016, 14.479531802000167], [39.329423257000144, 14.480372719000002], [39.32992836300019, 14.480429818000005], [39.32998226900003, 14.480435911000086], [39.32997287900014, 14.480452585000023], [39.32655491300011, 14.486521983000046], [39.32351797400014, 14.492404129000022], [39.323574646, 14.493034089000105], [39.32365521200012, 14.493929697000112], [39.32404566700018, 14.498269948000143], [39.32619951363795, 14.5], [39.358849800683146, 14.5], [39.3647156670001, 14.49626209000013], [39.37114900600011, 14.494614944999967], [39.369377376000045, 14.499794964000046], [39.36921647329989, 14.5], [39.472182103269496, 14.5], [39.472642061000045, 14.498251100000004], [39.47887689700008, 14.498950951000097], [39.481514122615586, 14.5], [39.5, 14.5], [39.75, 14.5], [39.794278635036164, 14.5], [39.79784599200008, 14.499589475000164], [39.799472810000054, 14.499402264000025], [39.80100967700008, 14.499225404000185], [39.80671807300007, 14.49337277800015], [39.81010288900018, 14.487477216000116], [39.81318087400007, 14.48237148600009], [39.8199807260001, 14.478950498000188], [39.825682792000066, 14.48014325500003], [39.83131514100006, 14.484855217000188], [39.84141007400018, 14.4794003720001], [39.84684096700005, 14.474487311000132], [39.85661611400013, 14.472026032000144], [39.861917960000085, 14.465819361000058], [39.866738838000174, 14.463496205000013], [39.87255345300014, 14.461897605000104], [39.87982183000014, 14.452104808000115], [39.89041900400014, 14.443637146000128], [39.89050024200009, 14.443572233000168], [39.89523720300008, 14.43585016600008], [39.90029778100012, 14.43182750800014], [39.911406325000144, 14.422928815000091], [39.92375602400011, 14.414994940999975], [39.93203969500013, 14.41205119600005], [39.93846445600013, 14.40874957699998], [39.94465840000015, 14.409453125000141], [39.94986367500013, 14.410645311000167], [39.954459174000135, 14.41402314100003], [39.95633320500002, 14.416079448999994], [39.95798398200009, 14.41789078800008], [39.95871524400002, 14.418309519000161], [39.96464540200009, 14.421705210000027], [39.97000771100011, 14.425401455000042], [39.97135219000006, 14.42632820600005], [39.97149884500004, 14.431584838000163], [39.97238320500003, 14.432454415000052], [39.97459895000014, 14.434633119000011], [39.978061055000126, 14.438037349000126], [39.98085004700016, 14.440779718000101], [39.98425632200019, 14.432340698000132], [39.98568332100018, 14.432741424000085], [40.0, 14.43676170315667], [40.0, 14.25], [40.0, 14.0], [40.25, 14.0], [40.25, 13.75], [40.5, 13.75], [40.5, 13.5], [40.5, 13.25], [40.5, 13.0], [40.75, 13.0], [40.75, 12.75], [40.75, 12.5], [41.0, 12.5], [41.0, 12.25], [40.75, 12.25], [40.75, 12.0], [40.75, 11.75], [40.75, 11.5], [40.75, 11.25], [41.0, 11.25], [41.0, 11.0], [41.25, 11.0], [41.5, 11.0], [41.5, 10.75], [41.5, 10.5], [41.5, 10.25], [41.5, 10.0], [41.75, 10.0], [42.0, 10.0], [42.25, 10.0], [42.25, 10.25], [42.25, 10.5], [42.5, 10.5], [42.74192152046804, 10.5], [42.74666000000008, 10.495690000000138], [42.75, 10.492291581749274], [42.75, 10.25], [42.839769936582826, 10.25], [42.85069000000004, 10.21944000000019], [42.86416000000003, 10.200550000000078], [42.87997980200015, 10.183750681000163], [42.89096999999998, 10.17208000000005], [42.9227800000001, 10.147780000000125], [42.95326000000017, 10.132500000000107], [42.97288353900012, 10.121814555000128], [42.98055000000005, 10.117640000000165], [42.98332908600014, 10.114516307000088], [42.99969964600018, 10.096115798000028], [43.0, 10.095778200101892], [43.0, 10.0], [43.041020876643806, 10.0], [43.042770000000075, 9.993060000000014], [43.05166000000008, 9.968189999999993], [43.06305000000009, 9.948750000000018], [43.0843000000001, 9.92486000000008], [43.11028000000016, 9.908890000000156], [43.147840000000144, 9.902780000000178], [43.161924820000024, 9.902780000000178], [43.18041000000005, 9.902780000000178], [43.19466512700012, 9.896465122999984], [43.204090000000065, 9.892290000000173], [43.21592794100013, 9.875704344000098], [43.22044942200006, 9.869369481000035], [43.22486000000009, 9.863190000000088], [43.22504856800009, 9.86225680200016], [43.23777000000018, 9.799300000000073], [43.246380000000045, 9.750830000000121], [43.25, 9.733940924488719], [43.25, 9.5], [43.41932541201479, 9.5], [43.42735680200019, 9.486000258000047], [43.427770000000066, 9.48528000000016], [43.42707571300008, 9.478825506000078], [43.426689409999994, 9.475234208000131], [43.425140000000056, 9.4608300000001], [43.42583000000013, 9.434580000000096], [43.427130520000105, 9.433188287000121], [43.44166000000001, 9.417640000000006], [43.49311627700007, 9.386311502000126], [43.5, 9.382120573143485], [43.5, 9.25], [43.741920712725744, 9.25], [43.74924187200014, 9.243383331000189], [43.8607174120001, 9.142634705000148], [43.97640554600014, 9.038078848999987], [44.0, 9.016754809282855], [44.0, 9.0], [43.75, 9.0], [43.75, 8.75], [43.5, 8.75], [43.25, 8.75], [43.0, 8.75], [42.75, 8.75], [42.5, 8.75], [42.5, 8.5], [42.25, 8.5], [42.0, 8.5], [41.75, 8.5], [41.5, 8.5], [41.5, 8.25], [41.25, 8.25], [41.25, 8.0], [41.0, 8.0], [41.0, 7.75], [40.75, 7.75], [40.75, 7.5], [40.5, 7.5], [40.5, 7.25], [40.25, 7.25], [40.25, 7.0], [40.0, 7.0], [39.75, 7.0], [39.75, 6.75], [39.5, 6.75], [39.25, 6.75], [39.25, 6.5], [39.0, 6.5], [39.0, 6.25], [38.75, 6.25], [38.5, 6.25], [38.5, 6.5], [38.25, 6.5], [38.0, 6.5], [38.0, 6.75], [38.0, 7.0], [38.0, 7.25], [38.0, 7.5], [38.25, 7.5], [38.25, 7.25], [38.5, 7.25], [38.75, 7.25]]]]}, "properties": {"domain_id": "r2_regime_rule", "label": "Existing R2 (Belg) regime rule: R2 membership, FMAM >= 80 mm, patches < 3 cells removed", "cells": 418, "included_area_km2": 314826.2, "reference_years": "1993-2025", "assessment_id": "fmam_chirps_domain_review_v1", "note": "0.25-degree cells dissolved and clipped to the Ethiopia boundary"}}]}