{"type": "FeatureCollection", "features": [{"type": "Feature", "properties": {"name": "FMAM main-season rainfall domain (Belg / Gu / Ganna, >=40% of annual)", "season": "FMAM", "method": "share", "cells": 573, "area_km2": 430887, "pct_eth": 38.1, "ref_years": "1993-2025"}, "geometry": {"type": "MultiPolygon", "coordinates": [[[[37.722584521039224, 3.9099686847599164], [37.727144960818535, 3.9044925010225424], [37.943628453000144, 3.763942668000027], [37.989384206000125, 3.734236183000121], [37.998050000000035, 3.728610000000117], [38.026023561000045, 3.7045775960000924], [38.03361000000007, 3.698060000000112], [38.04007713000016, 3.6848038210001164], [38.0561100000001, 3.6519400000001383], [38.12111000000016, 3.6116700000000606], [38.280926186000045, 3.6094789020001485], [38.297984919000044, 3.609245025000064], [38.29803837100002, 3.609244292000085], [38.32234968300003, 3.608910981000122], [38.32388000000009, 3.6088900000000876], [38.33230789600003, 3.608248592000166], [38.43657600200015, 3.6003132320001328], [38.448050000000194, 3.599440000000129], [38.516940000000034, 3.6269399999999905], [38.580228120000186, 3.6117086590001577], [38.59335821900004, 3.608548682000105], [38.621940000000166, 3.6016700000001265], [38.72944000000018, 3.5672200000000203], [38.74775306300006, 3.561789276000127], [38.756302198000185, 3.5592540380001196], [38.76167255200011, 3.5576614639999775], [38.77509426400019, 3.553681266000183], [38.810000000000116, 3.5433300000000827], [38.90742454600013, 3.5156475500000965], [38.913610000000176, 3.513890000000117], [38.95638000000014, 3.5186100000000806], [38.96070974600008, 3.519106041000157], [39.00969978200004, 3.524718630000109], [39.02177182100013, 3.526101674000131], [39.03334472200015, 3.5274275340000827], [39.03875318800016, 3.5280471600000283], [39.045760263000034, 3.5288499320001847], [39.04611000000011, 3.5288900000001036], [39.08472000000012, 3.5344400000001315], [39.09058702500016, 3.5313808020001147], [39.091117958000154, 3.531103962000145], [39.09192439500015, 3.530683468000177], [39.10323938700003, 3.5247835790000863], [39.13000000000011, 3.5108300000001122], [39.152409007240756, 3.500043949607329], [39.15797161936561, 3.500052869796726], [39.1825959933222, 3.5000923723661606], [39.2072203672788, 3.500131889935693], [39.23184474123539, 3.5001714225138683], [39.25646911519199, 3.500210970109239], [39.28109348914858, 3.500250532730364], [39.30571786310517, 3.5002901103858077], [39.33034223706177, 3.5003297030841414], [39.35496661101836, 3.500369310833943], [39.37959098497496, 3.5008806839001814], [39.40421535893155, 3.5034887444616283], [39.42883973288815, 3.506162869569281], [39.45346410684474, 3.5089056016365294], [39.47808848080133, 3.51171961522755], [39.50271285475793, 3.514607725756596], [39.52661120528299, 3.517484342379958], [39.52733722871452, 3.517572898883651], [39.55196160267113, 3.5206182606723533], [39.57658597662771, 3.5237471085833385], [39.60121035058431, 3.5269629233842634], [39.6258347245409, 3.530635341651945], [39.62774118903304, 3.531786579305174], [39.71641582600006, 3.6156022670000993], [39.78278000000017, 3.6783300000001304], [39.80539066700004, 3.729845553000075], [39.81304742000003, 3.74729049900003], [39.824364661000175, 3.7730754050000996], [39.866660000000024, 3.869440000000054], [39.88622861500005, 3.8781192250000913], [39.93345827500008, 3.8990668940000432], [39.961042841000165, 3.911301963000085], [39.97099224900006, 3.91571465800007], [39.982768864000036, 3.920937512000023], [40.0, 3.9285800000001814], [40.18250000000006, 4.022500000000093], [40.388610000000085, 4.09889000000004], [40.39354322600008, 4.110488839000027], [40.398890000000165, 4.1230600000000095], [40.513807683000095, 4.167436986000098], [40.583315825379394, 4.194278475648206], [40.58618530884807, 4.1962749586345645], [40.598885420352545, 4.204331941544885], [40.61080968280467, 4.211457794455566], [40.63543405676127, 4.219432897142607], [40.64845517247316, 4.219432897142607], [40.672220000000095, 4.228610000000174], [40.682561763000194, 4.234114173000023], [40.77110422300018, 4.281238923000046], [40.773384137000164, 4.282452356000022], [40.77434162900016, 4.281498134000117], [40.774921417000144, 4.281918049000126], [40.77838897700019, 4.280996800000025], [40.78464126600011, 4.273006916000099], [40.80250930800008, 4.262080193000088], [40.81384277400008, 4.255150794999963], [40.83068847700008, 4.248429775000034], [40.836965142999986, 4.247413371000164], [40.844100952000076, 4.246257782000043], [40.84879373800004, 4.2383928820001415], [40.85576629700006, 4.226706981000007], [40.87017554900018, 4.221903534000035], [40.87321853700007, 4.220889092000107], [40.87853387841127, 4.216218805393445], [40.88167779632721, 4.215748385183811], [40.9011373894749, 4.204331941544885], [40.90630217028381, 4.201118949116517], [40.9309265442404, 4.184609402207772], [40.9375480043395, 4.179801670146138], [40.95555091819699, 4.165832420494492], [40.96805876353132, 4.155271398747391], [40.98017529215359, 4.144286444637324], [40.99399618446745, 4.130741127348643], [41.00479966611018, 4.119601745599052], [41.018325990838704, 4.106210855949896], [41.029424040066786, 4.096088068560764], [41.04655694993945, 4.081680584551148], [41.05404841402337, 4.075801049325482], [41.07867278797997, 4.058051248401618], [41.08001056036694, 4.057150313152401], [41.10329716193656, 4.042390698559243], [41.1219421892604, 4.0326200417536535], [41.12792153589315, 4.029646108421502], [41.15254590984975, 4.026368454302858], [41.17717028380635, 4.023179965155921], [41.20179465776294, 4.020077051354276], [41.22641903171953, 4.017056313402865], [41.25104340567613, 4.014114529514161], [41.27566777963272, 4.011248644145963], [41.30029215358931, 4.008455757415064], [41.30356615597891, 4.008089770354906], [41.32491652754591, 4.005733115309698], [41.34954090150251, 4.003078100631333], [41.3741652754591, 4.000488224603155], [41.39878964941569, 4.000401545197714], [41.42341402337229, 4.000401545197714], [41.44803839732888, 4.000401545197714], [41.47266277128548, 4.000401545197714], [41.49728714524207, 4.000401545197714], [41.52191151919867, 4.000401545197714], [41.54653589315526, 4.000401545197714], [41.57116026711185, 4.000401545197714], [41.59578464106845, 4.000401545197714], [41.62040901502505, 4.000401545197714], [41.64503338898164, 4.0025019394731505], [41.66965776293823, 4.005142392126604], [41.69428213689483, 4.0078499130827385], [41.69643384402109, 4.008089770354906], [41.71890651085142, 4.010627090545148], [41.74353088480801, 4.0134766476264785], [41.76815525876461, 4.016401451254586], [41.7927796327212, 4.019404521793668], [41.8174040066778, 4.022489043448253], [41.84202838063439, 4.0256583755253725], [41.86665275459099, 4.028916064638661], [41.87574594570472, 4.0326200417536535], [41.89127712854758, 4.039221575982758], [41.91590150250416, 4.054539082023598], [41.919815514052324, 4.057150313152401], [41.94052587646077, 4.071879664156154], [41.95313979549351, 4.081680584551148], [41.96515025041736, 4.091672461835472], [41.98126161596092, 4.106210855949896], [41.98977462437396, 4.114601312930525], [42.00549736524374, 4.130741127348643], [42.01439899833055, 4.13962912859327], [42.03133451418191, 4.155271398747391], [42.03902337228715, 4.161876915784256], [42.061727321215294, 4.179801670146138], [42.06364774624374, 4.181218827679885], [42.08827212020033, 4.198189285355231], [42.0979971755506, 4.204331941544885], [42.11289649415693, 4.2131992319624], [42.137520868113526, 4.221642463114557], [42.162145242070125, 4.2248849184025845], [42.1867696160267, 4.228039631513277], [42.19330176993265, 4.228862212943633], [42.21139398998331, 4.2311101164112275], [42.2360183639399, 4.234099701893086], [42.26064273789649, 4.237011543625728], [42.28526711185309, 4.23984863525732], [42.309891485809686, 4.242613818683533], [42.33451585976628, 4.24530979354291], [42.35914023372287, 4.247939126008081], [42.38376460767947, 4.249629454921751], [42.40838898163606, 4.249716557838297], [42.43301335559266, 4.249803671587083], [42.45763772954925, 4.24989079617013], [42.482262103505846, 4.249977931589459], [42.50688647746244, 4.2500650778470925], [42.53151085141903, 4.250152234945052], [42.55613522537562, 4.25023940288536], [42.57855998803076, 4.25031879428668], [42.62229000000008, 4.260420000000124], [42.65611000000007, 4.264720000000125], [42.726530000000025, 4.271190000000047], [42.74083000000013, 4.272780000000125], [42.76861000000008, 4.278330000000153], [42.773574040000085, 4.279664293000167], [42.80404961100004, 4.28785587100009], [42.82252735800006, 4.292822535000141], [42.831670000000145, 4.295279999999991], [42.85569000000004, 4.304720000000032], [42.87666000000013, 4.31833000000006], [42.91999000000004, 4.3640300000001275], [42.930016069000146, 4.382227095000076], [42.933610000000044, 4.3887500000001864], [42.94652000000008, 4.44611000000009], [42.95722000000006, 4.481110000000058], [42.96888000000007, 4.504310000000089], [42.98569000000009, 4.525420000000054], [43.01491642960916, 4.549611892316321], [43.021733684550824, 4.572286012526096], [43.02399833055092, 4.579818201959838], [43.029109014326195, 4.596816283924843], [43.03648434410157, 4.621346555323591], [43.04862270450751, 4.638891744644434], [43.05379993321644, 4.645876826722338], [43.07324707846411, 4.667517040229361], [43.07608184594067, 4.6704070981210855], [43.097871452420705, 4.690719927296231], [43.10285105383563, 4.694937369519833], [43.122495826377296, 4.710263344685167], [43.14712020033389, 4.716014695215791], [43.16717054293465, 4.71946764091858], [43.171744574290486, 4.72024070204286], [43.196368948247084, 4.7243123848108315], [43.22099332220367, 4.728238045279181], [43.24561769616027, 4.732025400246449], [43.270242070116865, 4.735681632180469], [43.294866444073456, 4.739213434679423], [43.30476788645881, 4.740586048206224], [43.32166000000012, 4.748610000000042], [43.358204501000046, 4.76497306300007], [43.35889000000003, 4.765280000000132], [43.37536834100018, 4.772406513000135], [43.38969655500017, 4.778603145000034], [43.41666782400006, 4.790267614000129], [43.4905500000001, 4.822220000000129], [43.505815417000065, 4.828205973000081], [43.50854576000012, 4.829276613000047], [43.51273194200013, 4.82118015500015], [43.53971904400015, 4.789742177999983], [43.71831920907286, 4.844565029844011], [43.738105175292155, 4.862822038024874], [43.74193956643285, 4.866649269311065], [43.762729549248746, 4.8879123766857635], [43.76600294140357, 4.891179540709812], [43.787353923205345, 4.9104673006931945], [43.79364419152397, 4.91570981210856], [43.811978297161936, 4.929987698877397], [43.82634916988495, 4.940240083507307], [43.83660267111853, 4.947104770534786], [43.861227045075125, 4.962236619221978], [43.86783578654567, 4.9647703549060545], [43.88585141903172, 4.971419368264469], [43.910475792988315, 4.974667904233609], [43.935100166944906, 4.977828452768616], [43.959724540901504, 4.980904540848427], [43.984348914858096, 4.983899509432105], [44.00897328881469, 4.986816525563065], [44.03046092558532, 4.989300626304802], [44.033597662771285, 4.989658593540297], [44.058222036727884, 4.99242856523943], [44.08284641068447, 4.995129149658175], [44.107470784641066, 4.99776292175331], [44.132095158597664, 4.999609872279741], [44.156719532554256, 4.999649487941381], [44.18134390651085, 4.9996890885470435], [44.205968280467445, 4.9997286741053095], [44.23059265442404, 4.999768244624754], [44.255217028380635, 4.9998078001139445], [44.279841402337226, 4.999847340581445], [44.304465776293824, 4.9998868660358085], [44.329090150250416, 4.999926376485584], [44.35371452420701, 4.999965871939317], [44.378338898163605, 5.0], [44.4029632721202, 5.0], [44.427587646076795, 5.0], [44.452212020033386, 5.0], [44.476836393989984, 5.0], [44.501460767946575, 5.0], [44.526085141903174, 5.0], [44.550709515859765, 5.0], [44.57533388981636, 5.0], [44.599958263772955, 5.0], [44.624582637729546, 5.0], [44.649207011686144, 5.000038813178202], [44.673831385642735, 5.0000783104106805], [44.698455759599334, 5.000117822640215], [44.723080133555925, 5.0001573498753515], [44.74770450751252, 5.000196892124638], [44.772328881469114, 5.000236449396632], [44.796953255425706, 5.000276021699895], [44.821577629382304, 5.000315609042997], [44.846202003338895, 5.000355211434513], [44.870826377295494, 5.000394828883025], [44.895450751252085, 5.002553111893802], [44.92007512520868, 5.005203571627027], [44.944699499165274, 5.007921727669241], [44.969323873121866, 5.010710207152963], [44.993948247078464, 5.013571774929235], [44.99614663176023, 5.013830897703549], [45.018572621035055, 5.016509342711732], [45.043196994991646, 5.019525978959268], [45.06135805400828, 5.021811521055425], [45.07551455100014, 5.037481979000063], [45.09611000000007, 5.0602799999999775], [45.37179705200015, 5.3610043010001505], [45.374470000000144, 5.363920000000064], [45.37922693899998, 5.369128503000184], [45.4894000000001, 5.489760000000047], [45.50043932752894, 5.50184807823009], [45.50105560710543, 5.504436325678498], [45.50689642093356, 5.528966597077245], [45.511060100166944, 5.546453265901677], [45.512737221709884, 5.553496868475992], [45.51857800943442, 5.57802713987474], [45.52441878410723, 5.602557411273486], [45.53096954393243, 5.627087682672234], [45.53568447412354, 5.635040418274745], [45.54614891977085, 5.651617954070981], [45.56030884808013, 5.6719563661805985], [45.563429256709824, 5.676148225469729], [45.583279172867314, 5.700678496868476], [45.584933222036724, 5.702570183314433], [45.60631784718335, 5.7252087682672235], [45.60955759599332, 5.728368760599896], [45.63404233256193, 5.749739039665971], [45.634181969949914, 5.749857492621024], [45.658806343906505, 5.770896965338812], [45.662511546328275, 5.774269311064718], [45.683430717863104, 5.794443693923595], [45.687685538652914, 5.798799582463465], [45.7080550918197, 5.820974256357087], [45.71010034952781, 5.823329853862212], [45.73018603855687, 5.8478601252609606], [45.73267946577629, 5.851094184749957], [45.74828770453786, 5.872390396659708], [45.757303839732884, 5.8846494242826], [45.766741147321355, 5.8969206680584545], [45.78192821368948, 5.915151894918274], [45.78749416079711, 5.921450939457202], [45.806552587646074, 5.941627459350419], [45.810930990563065, 5.94598121085595], [45.83117696160267, 5.964892586445037], [45.83760824092565, 5.970511482254698], [45.85580133555926, 5.985497843534661], [45.86833225160608, 5.995041753653445], [45.88042570951586, 6.003966942092232], [45.90055073280611, 6.0195720250521925], [45.90505008347245, 6.023265104864941], [45.928752312504976, 6.044102296450939], [45.929674457429044, 6.044963388192106], [45.95344490464383, 6.068632567849686], [45.95429883138564, 6.0695392381494155], [45.97524506167429, 6.093162839248434], [45.978923205342234, 6.0976057293220745], [45.99463288469629, 6.117693110647181], [46.00354757929883, 6.129776447101403], [46.0129406261035, 6.142223382045929], [46.02817195325542, 6.160881491292469], [46.03325319969185, 6.166753653444676], [46.05279632721202, 6.187869215849128], [46.056158445710786, 6.1912839248434235], [46.07742070116861, 6.211559508442448], [46.08218659131832, 6.215814196242172], [46.102045075125204, 6.232521908652862], [46.11206213501406, 6.240344467640918], [46.1266694490818, 6.2512108719633614], [46.14468515290569, 6.264874739039666], [46.1512938230384, 6.270177880861862], [46.17364425858103, 6.289405010438413], [46.17591819699499, 6.291481686371192], [46.19895657712962, 6.313935281837161], [46.20054257095158, 6.315582488884962], [46.2212701580931, 6.338465553235908], [46.22516694490818, 6.343069819042414], [46.24108808956454, 6.362995824634655], [46.24979131886477, 6.374758443327442], [46.25924901432198, 6.387526096033403], [46.274415692821364, 6.406627264322141], [46.278981741775695, 6.41205636743215], [46.29904006677796, 6.434331795019393], [46.30119826941724, 6.4365866388308985], [46.32366444073456, 6.458605429527424], [46.326399055927, 6.461116910229645], [46.34828881469115, 6.48004832371707], [46.35522868945439, 6.485647181628392], [46.37291318864774, 6.499128367889294], [46.38766988290748, 6.51017745302714], [46.39753756260434, 6.517920809840783], [46.41737227418653, 6.534707724425887], [46.42216193656094, 6.539010232961049], [46.44324485828681, 6.559237995824635], [46.44678631051753, 6.562858005360984], [46.46601716451918, 6.583768267223382], [46.47141068447412, 6.590043152522399], [46.48621494607998, 6.60829853862213], [46.49603505843072, 6.623651001919944], [46.50178796444082, 6.632828810020877], [46.512183584871224, 6.657359081419624], [46.520659432387305, 6.675435003592648], [46.52387443251497, 6.681889352818372], [46.53711865453454, 6.706419624217119], [46.5452838063439, 6.720076087069208], [46.552247880462204, 6.730949895615867], [46.56969537162826, 6.755480167014614], [46.5699081803005, 6.755757832103135], [46.59003818434827, 6.7800104384133615], [46.59453255425709, 6.784931435212834], [46.61406222260035, 6.804540709812109], [46.61915692821369, 6.8092286553670975], [46.635783323162, 6.829070981210856], [46.64378130217028, 6.8389894377017555], [46.653975126452934, 6.853601252609604], [46.66519308863025, 6.878131524008351], [46.64378130217028, 6.902046415592017], [46.643098672072234, 6.902661795407099], [46.61915692821369, 6.922730847230849], [46.608153954092586, 6.927192066805846], [46.59453255425709, 6.932492938404498], [46.5699081803005, 6.941500541391203], [46.5452838063439, 6.949837870650183], [46.53945199359575, 6.951722338204593], [46.52065943238731, 6.957577057089059], [46.49603505843072, 6.964780240280839], [46.47141068447412, 6.971501240520234], [46.45294782403016, 6.976252609603341], [46.44678631051753, 6.97778690597109], [46.42216193656093, 6.9836782062520975], [46.39753756260434, 6.989211126447202], [46.37291318864774, 6.99426453189314], [46.348288814691145, 6.997555628235122], [46.32453712581958, 7.000782881002088], [46.32366444073456, 7.0009024608644355], [46.29904006677796, 7.004306457753721], [46.274415692821364, 7.0077690960756405], [46.24979131886477, 7.0112919043402435], [46.22516694490818, 7.014876464644715], [46.20054257095158, 7.018524415042501], [46.17591819699499, 7.022237452039227], [46.155847916111355, 7.025313152400836], [46.1512938230384, 7.026017333223421], [46.1266694490818, 7.029865880040607], [46.102045075125204, 7.0441180617583985], [46.09338406822447, 7.049843423799583], [46.07742070116861, 7.061123767608954], [46.060331524060025, 7.0743736951983305], [46.05279632721202, 7.080648795871241], [46.03265961754687, 7.098903966597078], [46.02817195325542, 7.103297773188723], [46.00915336788412, 7.123434237995826], [46.00354757929883, 7.132336855631587], [45.993480751366405, 7.147964509394573], [45.97892320534223, 7.170107852369173], [45.977305736060245, 7.172494780793319], [45.96010453544129, 7.197025052192067], [45.95429883138564, 7.204967465817751], [45.94177629443065, 7.221555323590814], [45.929674457429044, 7.236916726053561], [45.92220649405582, 7.246085594989562], [45.90505008347245, 7.266305496967188], [45.90126455633959, 7.270615866388309], [45.88042570951586, 7.2934297251393625], [45.878733044921646, 7.295146137787056], [45.856182341175014, 7.319676409185804], [45.85580133555926, 7.320119406429831], [45.83710679639075, 7.34420668058455], [45.83117696160267, 7.352758289776704], [45.820940401351024, 7.368736951983299], [45.829399476505436, 7.393267223382046], [45.83117696160268, 7.395811292536231], [45.84741679958502, 7.417797494780793], [45.85580133555926, 7.428330163909144], [45.867796905651886, 7.442327766179541], [45.88042570951586, 7.456422826576337], [45.88988319838157, 7.466858037578288], [45.90505008347245, 7.4844097286946365], [45.91083729641419, 7.491388308977035], [45.929674457429044, 7.515268961097951], [45.930167018234044, 7.515918580375783], [45.94805419996583, 7.5404488517745305], [45.95429883138564, 7.549466628433795], [45.96465451385159, 7.564979123173279], [45.978923205342234, 7.587575451262057], [45.980102010660374, 7.589509394572025], [45.99451274750543, 7.614039665970773], [46.00354757929883, 7.6278484547755525], [46.01067296428981, 7.63856993736952], [46.02817195325542, 7.660390623984847], [46.03047382226683, 7.663100208768268], [46.05277266549872, 7.687630480167015], [46.05279632721202, 7.687654963686911], [46.07742070116861, 7.711566329175298], [46.07807401982824, 7.712160751565762], [46.102045075125204, 7.732707414725739], [46.107066873584785, 7.736691022964511], [46.1266694490818, 7.751494089957289], [46.140106890221844, 7.761221294363258], [46.1512938230384, 7.769743292725911], [46.17096173607419, 7.785751565762005], [46.17591819699499, 7.790008613576517], [46.19810100457959, 7.810281837160752], [46.20054257095158, 7.812643689035612], [46.22215773165314, 7.8348121085594995], [46.22516694490818, 7.8380899975906395], [46.24362887770442, 7.859342379958247], [46.24979131886477, 7.8679239716271185], [46.26114746164214, 7.883872651356995], [46.274415692821364, 7.905485650323382], [46.27634288671818, 7.908402922755742], [46.29404135755995, 7.932933194154489], [46.29904006677796, 7.939199579152591], [46.31491685029175, 7.957463465553237], [46.32366444073456, 7.96658125901573], [46.33990916875119, 7.981993736951984], [46.34828881469115, 7.989261546163011], [46.37036933983968, 8.00652400835073], [46.37291318864774, 8.008355542863976], [46.39753756260434, 8.017345940856787], [46.42216193656093, 8.025551435312995], [46.43867576152933, 8.03105427974948], [46.44678631051753, 8.0337569297692], [46.47141068447412, 8.041962424225407], [46.49603505843072, 8.050167918681613], [46.51229016458613, 8.055584551148225], [46.52065943238731, 8.05837341313782], [46.5452838063439, 8.066578907594026], [46.5699081803005, 8.074784402050232], [46.58590456764293, 8.080114822546973], [46.59453255425709, 8.08298989650644], [46.61915692821369, 8.091195390962648], [46.635099773009244, 8.10464509394572], [46.64378130217028, 8.11646891069385], [46.648607021398654, 8.124679856749193], [46.552770000000066, 8.157220000000166], [46.45171271400005, 8.191505068000083], [46.432264917000055, 8.198100366999995], [46.40664948200009, 8.206785983000145], [46.40671952600019, 8.206898292000062], [46.38574847775678, 8.213972087377071], [46.37291318864774, 8.216491396473437], [46.34828881469115, 8.222547439420179], [46.328800568272726, 8.227296450939455], [46.32366444073457, 8.228541665085901], [46.29904006677796, 8.234475015167652], [46.274415692821364, 8.240348412331924], [46.24979131886477, 8.24616276069296], [46.2255634207623, 8.251826722338206], [46.22516694490818, 8.251918946276723], [46.20054257095158, 8.257617837470987], [46.17591819699499, 8.263260285462092], [46.1512938230384, 8.26884712465874], [46.1266694490818, 8.274379173103359], [46.123139777320354, 8.276356993736952], [46.102045075125204, 8.288800252098309], [46.084068892397795, 8.3008872651357], [46.07742070116861, 8.305627231218018], [46.05279632721202, 8.324615761476721], [46.05182181768259, 8.325417536534447], [46.05014433885608, 8.326892406708673], [45.93556637100011, 8.365377519999981], [45.50435861900013, 8.507762079999964], [45.477682967516316, 8.51674880202641], [45.461811352253754, 8.518700422008438], [45.438354746350754, 8.521659707724426], [45.43718697829716, 8.521808996389176], [45.412562604340565, 8.525001529492076], [45.38793823038397, 8.528281469310919], [45.36331385642738, 8.536561291727605], [45.34715260231803, 8.546189979123174], [45.338689482470784, 8.551540993048931], [45.314065108514185, 8.568475091655698], [45.31102497338994, 8.570720250521921], [45.30622811820725, 8.57450998067134], [44.74008372241107, 8.765237555401313], [44.7258669643511, 8.7669624217119], [44.723080133555925, 8.767304956883887], [44.698455759599334, 8.770376210125352], [44.67383138564273, 8.773529904607166], [44.649207011686144, 8.776769404925835], [44.624582637729546, 8.780268140660109], [44.60489830412244, 8.791492693110648], [44.599958263772955, 8.794477672786645], [44.57533388981636, 8.810489944581649], [44.56749412267877, 8.816022964509395], [44.55176038368585, 8.827879360680349], [44.1874427570001, 8.94860312700007], [44.18576915200009, 8.949157709000133], [44.115113215000065, 8.972570935000022], [44.06447894600018, 8.989349590000188], [44.01055000000014, 9.007220000000132], [43.97640554600014, 9.038078848999987], [43.8607174120001, 9.142634705000148], [43.758839818656, 9.234708962273203], [43.73810517529216, 9.237157581686715], [43.71348080133556, 9.239990949631425], [43.688856427378965, 9.242752549996215], [43.66423205342237, 9.245445075426769], [43.639607679465776, 9.248071085532173], [43.614983305509185, 9.249614573230453], [43.590358931552586, 9.24965418710534], [43.565734557595995, 9.24969378592527], [43.5411101836394, 9.249733369698822], [43.516485809682806, 9.249772938434567], [43.49186143572621, 9.249812492141075], [43.467237061769616, 9.24985203082691], [43.442612687813025, 9.249891554500621], [43.417988313856426, 9.24993106317076], [43.39336393989983, 9.249970556845867], [43.36873956594324, 9.25], [43.344115191986646, 9.25], [43.31949081803005, 9.25], [43.294866444073456, 9.25], [43.270242070116865, 9.25], [43.24561769616027, 9.25], [43.22099332220367, 9.25], [43.19636894824708, 9.25], [43.171744574290486, 9.25], [43.14712020033389, 9.25], [43.122495826377296, 9.249995985515103], [43.097871452420705, 9.249956501493292], [43.07324707846411, 9.24991700248195], [43.04862270450751, 9.249877488472537], [43.02399833055092, 9.249837959456507], [42.999373956594326, 9.249798415425312], [42.97474958263773, 9.249758856370395], [42.950125208681136, 9.249719282283193], [42.92550083472454, 9.249679693155134], [42.90087646076795, 9.249640088977644], [42.87625208681135, 9.249600469742138], [42.85162771285476, 9.247136003390294], [42.827003338898166, 9.244477779922509], [42.80237896494157, 9.241751564427187], [42.777754590984976, 9.238954714460476], [42.75313021702838, 9.236084448853376], [42.72850584307178, 9.233137838487039], [42.727679349606355, 9.233037578288101], [42.70388146911519, 9.230111796322056], [42.6792570951586, 9.227003066610397], [42.654632721202006, 9.223808213210706], [42.63000834724541, 9.220523606918864], [42.606286962800894, 9.208507306889352], [42.605383973288816, 9.208025232526246], [42.58075959933222, 9.19136949500663], [42.57081067491245, 9.183977035490607], [42.55613522537563, 9.172273885044326], [42.541398671910486, 9.159446764091857], [42.53151085141903, 9.150159912016639], [42.51653625935318, 9.134916492693112], [42.50688647746244, 9.12350006128726], [42.49579404318102, 9.110386221294362], [42.482262103505846, 9.09464035907121], [42.474284259922015, 9.085855949895617], [42.45763772954925, 9.068608647463378], [42.450185398377535, 9.061325678496868], [42.43301335559266, 9.045479474426905], [42.42300006215234, 9.036795407098122], [42.40838898163606, 9.02479302465695], [42.39209472903473, 9.012265135699373], [42.38376460767947, 9.006181735569916], [42.35914023372286, 8.988649969880782], [42.35790527096527, 8.987734864300627], [42.33451585976628, 8.96947399467781], [42.32699993784766, 8.963204592901878], [42.309891485809686, 8.948124989603789], [42.299814601622465, 8.938674321503132], [42.28526711185309, 8.924211395810316], [42.275715740077985, 8.914144050104383], [42.26064273789649, 8.897241569545184], [42.25420595681898, 8.889613778705638], [42.2360183639399, 8.86810656022061], [42.23346374064682, 8.86508350730689], [42.21139398998331, 8.843117763651332], [42.208601328089514, 8.840553235908143], [42.18676961602671, 8.821943038850153], [42.17918932508755, 8.816022964509395], [42.16214524207012, 8.803602741826115], [42.14385316612739, 8.791492693110648], [42.137520868113526, 8.787563453495482], [42.11289649415693, 8.778520555892506], [42.08827212020033, 8.775262194634955], [42.06364774624374, 8.77209251998346], [42.03902337228714, 8.76900795972291], [42.02232065039365, 8.7669624217119], [42.01439899833055, 8.7660051309439], [41.989774624373965, 8.76308082766664], [41.96515025041736, 8.760232009423227], [41.94052587646077, 8.757455790712868], [41.91590150250417, 8.75474943125309], [41.89127712854758, 8.752110326957787], [41.86665275459099, 8.750374730827248], [41.84202838063439, 8.750295628434376], [41.817404006677805, 8.750216526041505], [41.7927796327212, 8.750137423648633], [41.76815525876461, 8.75005832125576], [41.74353088480801, 8.74997921886289], [41.71890651085142, 8.749900116470018], [41.69428213689483, 8.749821014077146], [41.66965776293823, 8.749741911684275], [41.64503338898164, 8.749662809291404], [41.62040901502504, 8.749119316099819], [41.59578464106845, 8.746511255538373], [41.57116026711185, 8.74383713043072], [41.55846788411051, 8.742432150313153], [41.54653589315526, 8.741094398363469], [41.52191151919867, 8.73828038477245], [41.49728714524207, 8.735392274243404], [41.47266277128548, 8.732427101116349], [41.44803839732888, 8.729381739327646], [41.42341402337229, 8.726252891416662], [41.39878964941569, 8.723037076615736], [41.3741652754591, 8.719364652431729], [41.371640357653575, 8.717901878914406], [41.34954090150251, 8.70426835390897], [41.33355246468141, 8.693371607515658], [41.32491652754591, 8.687077582332225], [41.30206188834027, 8.66884133611691], [41.30029215358931, 8.667323962940053], [41.27566777963272, 8.644388219342712], [41.27559113840535, 8.644311064718163], [41.25343620088789, 8.619780793319416], [41.25104340567613, 8.616794647782324], [41.232822721929764, 8.595250521920669], [41.22641903171953, 8.588146434939206], [41.20978860534762, 8.570720250521921], [41.20179465776294, 8.56283103745156], [41.183880871848714, 8.546189979123174], [41.17717028380635, 8.540298836455477], [41.15452600036246, 8.521659707724426], [41.15254590984975, 8.5201147671394], [41.12792153589315, 8.501929951983424], [41.12132279763317, 8.497129436325679], [41.10329716193656, 8.483432500500388], [41.090118555832376, 8.472599164926931], [41.07867278797997, 8.462616837985063], [41.06307773706976, 8.448068893528184], [41.05404841402337, 8.439099141612322], [41.03934173927365, 8.423538622129437], [41.02942404006678, 8.412316776917477], [41.018339599786245, 8.39900835073069], [41.00479966611018, 8.381528235595574], [40.99962406453962, 8.374478079331942], [40.98083237333244, 8.349947807933194], [40.98017529215359, 8.349138353287236], [40.95974204143971, 8.325417536534447], [40.95555091819699, 8.320875798289103], [40.93590383085581, 8.3008872651357], [40.93092654424041, 8.296139365160137], [40.90874328274273, 8.276356993736952], [40.90630217028381, 8.274307907503335], [40.88167779632721, 8.254898078799535], [40.877479713483574, 8.251826722338205], [40.85705342237061, 8.236493471540824], [40.845629473251606, 8.227296450939457], [40.83242904841402, 8.21602799026318], [40.81791551442605, 8.20276617954071], [40.80780467445743, 8.19293406632916], [40.79362279293642, 8.178235908141962], [40.78318030050083, 8.16667058305902], [40.77215462061049, 8.153705636743215], [40.75855592654424, 8.136536947282178], [40.7530454413776, 8.129175365344468], [40.734595392941856, 8.10464509394572], [40.73393155258765, 8.10380917274184], [40.71397735795147, 8.080114822546973], [40.70930717863105, 8.074942022959792], [40.690706120282336, 8.055584551148225], [40.68468280467446, 8.049711082832754], [40.66423432679972, 8.03105427974948], [40.66005843071786, 8.027470014853181], [40.63543405676127, 8.00771709540735], [40.63381683930884, 8.00652400835073], [40.61080968280467, 7.989403760685506], [40.60140517544451, 7.981993736951985], [40.58618530884808, 7.969283435227726], [40.572975322588775, 7.957463465553237], [40.56156093489149, 7.946599491975814], [40.548099819804435, 7.932933194154489], [40.53693656093489, 7.9208286304745705], [40.52615132610602, 7.908402922755743], [40.51231218697829, 7.891294726358484], [40.5066419311815, 7.883872651356994], [40.488895395603464, 7.859342379958247], [40.4876878130217, 7.857714464651399], [40.46979283417358, 7.8348121085595], [40.46306343906511, 7.826751968778392], [40.44853785437328, 7.810281837160753], [40.43843906510851, 7.799521153384896], [40.42474494519249, 7.785751565762004], [40.41381469115192, 7.77538573405095], [40.397930687187284, 7.761221294363257], [40.38919031719533, 7.753846302939294], [40.368940970601216, 7.73669102296451], [40.36456594323873, 7.732977445425881], [40.343830876400524, 7.712160751565762], [40.33994156928214, 7.707926880825314], [40.32263259726801, 7.687630480167016], [40.31531719532554, 7.678262540642036], [40.30426846880835, 7.6631002087682685], [40.29069282136895, 7.642580501141147], [40.2882057284212, 7.638569937369521], [40.278656797049535, 7.614039665970772], [40.275367693581984, 7.589509394572026], [40.272166505348125, 7.564979123173279], [40.26904975397414, 7.5404488517745305], [40.26606844741235, 7.516363094361627], [40.26601414219389, 7.515918580375782], [40.26305654221327, 7.491388308977036], [40.260173984960275, 7.466858037578288], [40.257363650143, 7.442327766179541], [40.25462285704577, 7.417797494780793], [40.25194905600011, 7.393267223382046], [40.24933569356115, 7.368736951983299], [40.24669365586317, 7.344206680584551], [40.243985819827714, 7.319676409185804], [40.24144407345576, 7.297193494475256], [40.24120969646017, 7.295146137787056], [40.238362669625715, 7.270615866388308], [40.23544198782643, 7.2460855949895615], [40.23244475533151, 7.221555323590814], [40.22936792260104, 7.197025052192066], [40.22620827593646, 7.172494780793319], [40.22296242628384, 7.147964509394573], [40.21894053179805, 7.123434237995825], [40.21681969949917, 7.1197997780631965], [40.20383598629536, 7.098903966597078], [40.19219532554257, 7.081945361557171], [40.18663781387372, 7.074373695198331], [40.16757095158598, 7.050645657292268], [40.166878306762534, 7.049843423799583], [40.14393923659998, 7.025313152400836], [40.14294657762938, 7.024333838099838], [40.11832220367279, 7.002583120870028], [40.11599176958689, 7.000782881002088], [40.09369782971619, 6.9827109726942895], [40.08618626263711, 6.976252609603341], [40.0690734557596, 6.960775277034797], [40.05960535968716, 6.951722338204593], [40.044449081803, 6.9364370097203984], [40.03575261916599, 6.927192066805846], [40.01982470784641, 6.909278578646687], [40.014228530904234, 6.902661795407099], [39.99520033388981, 6.87877966416264], [39.99470795958, 6.878131524008351], [39.972232990041995, 6.853601252609604], [39.97057595993322, 6.851962500712324], [39.94595158597663, 6.829528152989178], [39.945408915281945, 6.829070981210856], [39.92132721202003, 6.81017787881459], [39.9134548288016, 6.80454070981211], [39.89670283806344, 6.79331662331359], [39.87256668263754, 6.7800104384133615], [39.87207846410684, 6.779756141923027], [39.84745409015025, 6.776424654096743], [39.82282971619365, 6.773182948016081], [39.79820534223706, 6.770027442583111], [39.77358096828047, 6.766954744651901], [39.74895659432387, 6.763961636857509], [39.72433222036728, 6.761045066378671], [39.69970784641068, 6.758202134551645], [39.67553384924807, 6.755480167014614], [39.67508347245409, 6.755430087260959], [39.65045909849749, 6.752726306040078], [39.6258347245409, 6.7500882998215666], [39.60121035058431, 6.747454715345089], [39.57658597662771, 6.7447556058166445], [39.55196160267112, 6.741988412146674], [39.52733722871452, 6.739150525329742], [39.50271285475793, 6.736239201331764], [39.47808848080133, 6.733251552240024], [39.459548353483235, 6.730949895615867], [39.45346410684474, 6.730184536707889], [39.42883973288815, 6.72703494962777], [39.40421535893155, 6.72379941095861], [39.37959098497496, 6.720474353626042], [39.35496661101836, 6.707760680402042], [39.352864764000785, 6.706419624217119], [39.33034223706177, 6.691067579364793], [39.3180996098272, 6.681889352818372], [39.30571786310517, 6.671926093070729], [39.28912159582393, 6.657359081419624], [39.28109348914858, 6.649754933861339], [39.26459672865967, 6.632828810020877], [39.25646911519199, 6.623054012102463], [39.2440538043945, 6.60829853862213], [39.23184474123539, 6.594171957140988], [39.2223403291482, 6.583768267223382], [39.2072203672788, 6.568193897133047], [39.19799980191307, 6.559237995824635], [39.1825959933222, 6.545109659118339], [39.1705247653861, 6.534707724425887], [39.15797161936561, 6.524461218598289], [39.139268069593875, 6.51017745302714], [39.13334724540901, 6.50588236645147], [39.10872287145242, 6.488341228099859], [39.105111339712785, 6.4856471816283925], [39.08409849749582, 6.469131238604721], [39.07455147568052, 6.461116910229645], [39.05947412353923, 6.447742272159559], [39.04765128040216, 6.436586638830898], [39.034849749582634, 6.423781298195561], [39.02379050225237, 6.41205636743215], [39.01022537562604, 6.39675471613402], [39.00248155743076, 6.387526096033402], [38.98560100166945, 6.367751653911458], [38.98149850749802, 6.362995824634655], [38.96097662771285, 6.342731642850242], [38.95629152876846, 6.338465553235908], [38.93635225375626, 6.3216102933306875], [38.92643570739963, 6.313935281837161], [38.91172787979966, 6.303313023194528], [38.89051434829725, 6.289405010438413], [38.88710350584307, 6.28730892533172], [38.862479131886474, 6.278464570095213], [38.83785475792988, 6.275207742857086], [38.81323038397329, 6.272039540029507], [38.78860601001669, 6.268956392714699], [38.7639816360601, 6.265954921102339], [38.75495716211089, 6.264874739039666], [38.7393572621035, 6.263031922110458], [38.71473288814691, 6.260184357983215], [38.690108514190314, 6.257409345760212], [38.66548414023372, 6.254704147540595], [38.64085976627713, 6.252066161472847], [38.61623539232053, 6.250387441436744], [38.591611018363935, 6.250347826796119], [38.56698664440734, 6.2503082272108905], [38.54236227045075, 6.250268642672477], [38.517737896494154, 6.250229073172304], [38.49311352253756, 6.250189518701803], [38.46848914858097, 6.250149979252413], [38.44386477462437, 6.250110454815579], [38.41924040066778, 6.250070945382754], [38.394616026711184, 6.250031450945394], [38.36999165275459, 6.25], [38.345367278797994, 6.25], [38.320742904841396, 6.249999999999999], [38.29611853088481, 6.249999999999999], [38.27149415692821, 6.25], [38.24686978297162, 6.249999999999999], [38.222245409015024, 6.249999999999999], [38.19762103505843, 6.25], [38.172996661101834, 6.25], [38.14837228714524, 6.25], [38.123747913188645, 6.25], [38.09912353923205, 6.25], [38.074499165275455, 6.25], [38.049874791318864, 6.25], [38.02525041736227, 6.249999999999999], [38.000626043405674, 6.25], [37.97600166944908, 6.25], [37.951377295492485, 6.25], [37.92675292153589, 6.25], [37.902128547579295, 6.25], [37.877504173622704, 6.25], [37.85287979966611, 6.25], [37.828255425709514, 6.25], [37.80363105175292, 6.25], [37.779006677796325, 6.249999999999999], [37.75438230383973, 6.25], [37.729757929883135, 6.25], [37.70513355592654, 6.249999999999999], [37.68050918196995, 6.25], [37.655884808013354, 6.25], [37.63126043405676, 6.249999999999999], [37.606636060100165, 6.2500294431541334], [37.582011686143574, 6.250068936829241], [37.557387312186975, 6.250108445499379], [37.53276293823039, 6.25014796917309], [37.50813856427379, 6.250187507858923], [37.483514190317194, 6.2502270615654325], [37.4588898163606, 6.250266630301178], [37.434265442404005, 6.25030621407473], [37.409641068447414, 6.2503458128946585], [37.385016694490815, 6.250385426769548], [37.36039232053423, 6.25187685294679], [37.33576794657763, 6.25441361385517], [37.311143572621035, 6.257014971302739], [37.28651919866444, 6.259683424456073], [37.261894824707845, 6.262421603085932], [37.24036706476723, 6.264874739039666], [37.237270450751254, 6.265232276211781], [37.212646076794655, 6.268118361442102], [37.188021702838064, 6.271082935076768], [37.163397328881466, 6.27412924304498], [37.138772954924875, 6.277260712760547], [37.11414858096828, 6.282234175768984], [37.09171651647229, 6.289405010438413], [37.08952420701169, 6.290152578283244], [37.064899833055094, 6.299203054904375], [37.040275459098496, 6.3096470708282295], [37.03115534985423, 6.313935281837161], [37.015651085141904, 6.321833324865157], [36.991026711185306, 6.3362374400712715], [36.9875798464845, 6.338465553235908], [36.966402337228715, 6.353525494518639], [36.954722894465235, 6.362995824634655], [36.941777963272116, 6.373150166248772], [36.923836189456246, 6.387526096033403], [36.917153589315525, 6.392049314402191], [36.892529215358934, 6.407698867769051], [36.86791436623539, 6.41205636743215], [36.867904841402336, 6.4120580340021025], [36.86790287923015, 6.41205636743215], [36.843280467445744, 6.389399269070306], [36.841413379855176, 6.387526096033403], [36.824553848843124, 6.362995824634655], [36.818656093489146, 6.348041935861754], [36.81503072761015, 6.338465553235908], [36.80624223580931, 6.313935281837161], [36.79810652461126, 6.289405010438413], [36.794031719532555, 6.276393678787768], [36.79055346872357, 6.264874739039666], [36.78352263994306, 6.240344467640918], [36.776961686995506, 6.215814196242171], [36.77082502970177, 6.1912839248434235], [36.76940734557596, 6.185382043575475], [36.76507279855279, 6.166753653444676], [36.759669967520466, 6.142223382045929], [36.755871588805896, 6.117693110647181], [36.75521408848165, 6.093162839248434], [36.754562019485114, 6.068632567849686], [36.753915314794305, 6.044102296450939], [36.75327390848546, 6.0195720250521925], [36.75263773571062, 5.995041753653444], [36.75200673267576, 5.970511482254698], [36.7513808366195, 5.945981210855949], [36.75075998579225, 5.921450939457203], [36.75014411943596, 5.896920668058455], [36.74926941247785, 5.872390396659708], [36.74612479171799, 5.8478601252609606], [36.744782971619365, 5.837634104946366], [36.74287447875015, 5.823329853862213], [36.739513053947704, 5.798799582463466], [36.73603472070096, 5.774269311064718], [36.73243327205891, 5.749739039665971], [36.7287020537651, 5.7252087682672235], [36.724833923224296, 5.700678496868476], [36.7208212038679, 5.676148225469729], [36.720158597662774, 5.672183953895377], [36.71665563430442, 5.651617954070981], [36.7123283115463, 5.627087682672233], [36.695534223706176, 5.603897464536469], [36.69448716354185, 5.602557411273486], [36.672030554538566, 5.57802713987474], [36.670909849749584, 5.576910890375623], [36.646285475792986, 5.554546720636228], [36.644873247297625, 5.553496868475992], [36.621661101836395, 5.537455410913188], [36.5970367278798, 5.533180983420481], [36.57241235392321, 5.52906556878935], [36.571808662726575, 5.528966597077245], [36.547787979966614, 5.525100455901098], [36.523163606010016, 5.521277558515131], [36.498539232053425, 5.5175893602253], [36.473914858096826, 5.514028865133861], [36.449290484140235, 5.510589553561962], [36.42466611018364, 5.5072653422067095], [36.40304010220045, 5.504436325678498], [36.400041736227045, 5.50405054823257], [36.375417362270454, 5.5009398568511845], [36.350792988313856, 5.503356954822787], [36.34039399304588, 5.504436325678498], [36.32616861435726, 5.5059315608323995], [36.301544240400666, 5.5085722249968265], [36.276919866444075, 5.511281522693443], [36.25229549248748, 5.514062164935605], [36.227671118530886, 5.5169170074211245], [36.20304674457429, 5.5198490603148915], [36.178422370617696, 5.522861498836116], [36.153797996661105, 5.5259576747284465], [36.13050589616421, 5.528966597077245], [36.129173622704506, 5.529141128700084], [36.104549248747915, 5.539557269248315], [36.07992487479132, 5.553459533132093], [36.07986438046242, 5.553496868475992], [36.055300500834726, 5.5702098535576505], [36.045309447032984, 5.57802713987474], [36.03067612687813, 5.590783299394916], [36.018727626181544, 5.602557411273486], [36.006051752921536, 5.616669415951967], [35.99755136525574, 5.627087682672234], [35.98142737896494, 5.64587363715535], [35.97623926769674, 5.651617954070981], [35.95680300500835, 5.671956123933949], [35.95257580202491, 5.676148225469729], [35.932178631051755, 5.695323005006437], [35.92614910750835, 5.700678496868476], [35.90755425709516, 5.716377401902327], [35.896445171628784, 5.7252087682672235], [35.882929883138566, 5.735446408954096], [35.85830550918197, 5.746369703129396], [35.84829378029116, 5.749739039665971], [35.833681135225376, 5.755080663734066], [35.80905676126878, 5.7654350253260995], [35.791173556802896, 5.774269311064718], [35.78443238731219, 5.777946289824678], [35.759808013355595, 5.793366765641374], [35.75231123329707, 5.798799582463467], [35.735183639399, 5.812844653686106], [35.72415914779707, 5.823329853862213], [35.710559265442406, 5.838223914206893], [35.702825989827886, 5.847860125260961], [35.68610189768662, 5.872390396659708], [35.68593489148581, 5.872531868079473], [35.661310517529216, 5.892453443441763], [35.65546940771116, 5.896920668058455], [35.63668614357262, 5.909617594408328], [35.612061769616034, 5.9060095281183], [35.60211797506134, 5.896920668058455], [35.587437395659435, 5.881057577836966], [35.58000438889462, 5.872390396659708], [35.57508379545973, 5.8478601252609606], [35.57038964697595, 5.823329853862213], [35.56590666358894, 5.798799582463466], [35.56281302170284, 5.7812026677948545], [35.56162090992469, 5.774269311064718], [35.55751965039571, 5.749739039665971], [35.5535912228, 5.7252087682672235], [35.54982492757027, 5.700678496868476], [35.546210930458514, 5.676148225469729], [35.54274017679213, 5.651617954070981], [35.53940431572737, 5.627087682672234], [35.55229841217355, 5.602557411273486], [35.56281302170284, 5.58616664036062], [35.568347264558696, 5.57802713987474], [35.58644143380607, 5.553496868475992], [35.587437395659435, 5.552231698791047], [35.6069985227777, 5.528966597077245], [35.61206176961603, 5.523397155628331], [35.633692573682914, 5.504436325678498], [35.63668614357262, 5.501752181876044], [35.661310517529216, 5.480642597274793], [35.66205167416756, 5.47990605427975], [35.683337994845154, 5.455375782881003], [35.68593489148581, 5.45185528361145], [35.6996058708841, 5.430845511482255], [35.710559265442406, 5.410270518896026], [35.71244287605362, 5.406315240083508], [35.722830826879004, 5.3817849686847605], [35.72607925664996, 5.36449055245517], [35.72624000000013, 5.364440000000116], [35.73432951500007, 5.359293998000112], [35.74436701600018, 5.352908819000049], [35.75375000000008, 5.346940000000075], [35.757041116000096, 5.3454338959999745], [35.76366570500011, 5.342402304000132], [35.77499000000017, 5.337220000000173], [35.79694000000018, 5.331110000000024], [35.82166000000001, 5.328610000000083], [35.798740000000066, 5.265550000000189], [35.79624000000018, 5.235140000000058], [35.80513000000013, 5.206810000000132], [35.83069000000006, 5.168400000000133], [35.82361000000009, 5.136670000000095], [35.802770000000066, 5.10528000000005], [35.77999000000017, 5.082639999999969], [35.77837669400009, 5.000076512000021], [35.77824540800003, 4.993357784000068], [35.77801413300017, 4.981521910000083], [35.77646798498814, 4.90239533971817], [35.77795842671287, 4.891179540709812], [35.78443238731219, 4.8687287248959725], [35.78505021201555, 4.866649269311065], [35.800693850755785, 4.842118997912317], [35.80905676126878, 4.830211358347741], [35.818548217824265, 4.81758872651357], [35.833681135225376, 4.799198308159301], [35.8391175669805, 4.7930584551148225], [35.85830550918197, 4.773107519652361], [35.863400333501644, 4.768528183716075], [35.882929883138566, 4.751617891878039], [35.89260808054088, 4.743997912317328], [35.90755425709516, 4.7316479830670914], [35.9214653230991, 4.71946764091858], [35.932178631051755, 4.709598886072214], [35.947246576230825, 4.694937369519833], [35.95680300500835, 4.685128053220403], [35.970418773827724, 4.6704070981210855], [35.98142737896494, 4.657813317790428], [35.99135889435736, 4.645876826722338], [36.006051752921536, 4.627565518508095], [36.010899480133105, 4.621346555323591], [36.03067612687813, 4.600735836167767], [36.034745814630334, 4.596816283924843], [36.055300500834726, 4.578475569678627], [36.0628576175756, 4.572286012526096], [36.07992487479132, 4.559264787576317], [36.09649176628444, 4.547755741127348], [36.104549248747915, 4.542517026650987], [36.129173622704506, 4.529591076411913], [36.153797996661105, 4.526303135041408], [36.17748309105971, 4.523225469728601], [36.178422370617696, 4.5231050872449785], [36.20304674457429, 4.519993296152312], [36.227671118530886, 4.51696431846755], [36.25229549248748, 4.514014891759515], [36.276919866444075, 4.511141922740377], [36.301544240400666, 4.508342476444194], [36.326168614357265, 4.505613766225773], [36.350792988313856, 4.5029531445081785], [36.375417362270454, 4.50040020447919], [36.400041736227045, 4.5003211020863185], [36.42466611018364, 4.500241999693446], [36.449290484140235, 4.500162897300575], [36.473914858096826, 4.500083794907702], [36.498539232053425, 4.500004692514831], [36.523163606010016, 4.4999255901219595], [36.547787979966614, 4.499846487729088], [36.572412353923205, 4.499767385336216], [36.5970367278798, 4.499688282943344], [36.621661101836395, 4.499609180550473], [36.63175491789957, 4.4986951983298535], [36.646285475792986, 4.497365379551872], [36.670909849749584, 4.494721577083412], [36.695534223706176, 4.492010577832254], [36.720158597662774, 4.489229786939445], [36.744782971619365, 4.486376474200396], [36.76940734557596, 4.483447765123899], [36.794031719532555, 4.480440631272879], [36.818656093489146, 4.47735187981866], [36.843280467445744, 4.474178142232993], [36.84338160506139, 4.474164926931106], [36.867904841402336, 4.470915862033651], [36.892529215358934, 4.460033925554712], [36.909450943412374, 4.449634655532359], [36.917153589315525, 4.444606408837345], [36.941777963272116, 4.4271313712498985], [36.9444372850524, 4.425104384133611], [36.966402337228715, 4.407172224415925], [36.9725735593904, 4.40169712006857], [37.03694532300011, 4.376630471000112], [37.0397200000001, 4.375550000000146], [37.047235413000124, 4.370001946000116], [37.08446514800005, 4.342518084000176], [37.09514145500009, 4.334636584000123], [37.099160000000154, 4.331669999999974], [37.1222587530001, 4.298050214000057], [37.13027000000011, 4.28639000000004], [37.15162284481452, 4.2733250939534235], [37.16339732888147, 4.270528593750939], [37.188021702838064, 4.2646793463606505], [37.212646076794655, 4.258829266191747], [37.235527637514245, 4.25339248434238], [37.237270450751254, 4.252978353066367], [37.26189482470784, 4.247126606806599], [37.28651919866445, 4.24127402723448], [37.311143572621035, 4.235420614171996], [37.33576794657763, 4.229566367441086], [37.33872955398545, 4.228862212943633], [37.36039232053423, 4.223711286863631], [37.385016694490815, 4.214329872884067], [37.40088670066387, 4.204331941544886], [37.409641068447414, 4.198450696087558], [37.434265442404005, 4.180313560596356], [37.434913079056706, 4.179801670146138], [37.4588898163606, 4.159399994286491], [37.46334285095699, 4.155271398747391], [37.483514190317194, 4.135019633117793], [37.48745187278106, 4.130741127348643], [37.50779384939799, 4.106210855949896], [37.5081385642738, 4.105802605299228], [37.52967282012205, 4.081680584551148], [37.532762938230384, 4.078428528959398], [37.5542097027947, 4.057150313152401], [37.557387312186975, 4.054177515961244], [37.58192015368281, 4.032620041753654], [37.582011686143574, 4.032543950976109], [37.606636060100165, 4.01312577387523], [37.61347953386237, 4.008089770354906], [37.63126043405676, 3.9953086804215845], [37.64654359992714, 3.9835594989561587], [37.655884808013354, 3.975956736915379], [37.67528877990576, 3.9590292275574117], [37.68050918196995, 3.9541910743519093], [37.7004222696736, 3.934498956158664], [37.705133555926544, 3.929530071398264], [37.722584521039224, 3.9099686847599164]]], [[[40.84709594538902, 12.838987473903968], [40.85705342237062, 12.832326214281663], [40.88167779632721, 12.824841700230543], [40.905173726037475, 12.838987473903968], [40.90630217028381, 12.839702474923412], [40.93092654424041, 12.85620771377646], [40.9410261803593, 12.863517745302715], [40.95555091819699, 12.876028326288482], [40.96977249577013, 12.888048016701463], [40.98017529215359, 12.897027369291198], [41.00028777821016, 12.91257828810021], [41.00479966611018, 12.915777894634244], [41.02942404006678, 12.931659688596524], [41.03883979602712, 12.937108559498958], [41.05404841402337, 12.945284318987941], [41.07867278797997, 12.957101051667863], [41.089084962587876, 12.961638830897705], [41.10329716193656, 12.967447341601392], [41.12792153589315, 12.975961018384162], [41.15254590984975, 12.979337351882858], [41.17717028380635, 12.982622319485893], [41.20179465776294, 12.985819580319552], [41.20452703856345, 12.986169102296452], [41.22641903171953, 12.988932600691012], [41.25104340567613, 12.991964666624058], [41.27566777963272, 12.994918895429347], [41.30029215358931, 12.997798246394911], [41.32491652754591, 13.000605530673965], [41.34954090150251, 13.00334342043941], [41.374165275459106, 13.00601445736778], [41.39668078476522, 13.010699373695198], [41.39878964941569, 13.011150882674256], [41.42341402337229, 13.016697189261278], [41.44803839732888, 13.022602727220264], [41.47266277128548, 13.028903565475527], [41.495831813573844, 13.035229645093946], [41.49728714524207, 13.03564076886473], [41.52191151919867, 13.042861294146538], [41.54653589315526, 13.050619086019314], [41.57116026711185, 13.058976427252338], [41.57337515735678, 13.059759916492693], [41.59578464106845, 13.068005614427818], [41.62040901502504, 13.077791054745768], [41.62826036873778, 13.08429018789144], [41.645033388981645, 13.099254420921245], [41.653919102943675, 13.10882045929019], [41.6625350084709, 13.133350730688935], [41.64602169824975, 13.157881002087683], [41.64503338898164, 13.159267069542413], [41.626475435178776, 13.18241127348643], [41.62040901502504, 13.189631633964542], [41.60222516008635, 13.206941544885177], [41.59578464106845, 13.213625250795713], [41.57995715218522, 13.231471816283925], [41.57116026711185, 13.242373745220934], [41.560974674169785, 13.256002087682672], [41.54653589315526, 13.27744600195924], [41.5446005392318, 13.28053235908142], [41.53033169829028, 13.305062630480169], [41.52191151919867, 13.32118640922874], [41.51778664693199, 13.329592901878915], [41.506670807558734, 13.35412317327766], [41.49728714524207, 13.374581281540983], [41.49549105498146, 13.37865344467641], [41.4763543472459, 13.403183716075157], [41.472662771285485, 13.407607418850725], [41.45484268919009, 13.427713987473904], [41.44803839732889, 13.434887183343726], [41.4304847189605, 13.45224425887265], [41.42341402337229, 13.458804939107633], [41.40267550148012, 13.476774530271399], [41.39878964941569, 13.479946121360866], [41.3741652754591, 13.498515013112572], [41.36763729572409, 13.501304801670146], [41.34954090150251, 13.509441127892234], [41.32491652754591, 13.521567541862638], [41.31684973652294, 13.525835073068894], [41.30029215358931, 13.535103540759533], [41.27566777963272, 13.55031006778574], [41.27558348872021, 13.550365344467641], [41.25104340567613, 13.56751670988261], [41.2413905338447, 13.574895615866389], [41.22641903171953, 13.587145858443563], [41.21259581919099, 13.599425887265136], [41.20179465776294, 13.609747847469679], [41.18801449689529, 13.623956158663884], [41.17717028380635, 13.632672675547898], [41.15606878011383, 13.648486430062631], [41.15254590984975, 13.650949060745807], [41.12792153589315, 13.667125601190975], [41.10329716193656, 13.656377089476937], [41.09064074434807, 13.648486430062631], [41.07867278797997, 13.640441981085935], [41.05604696872592, 13.623956158663884], [41.05404841402337, 13.621238739045534], [41.038412329091635, 13.599425887265138], [41.029424040066786, 13.586425735479027], [41.02164909263206, 13.574895615866389], [41.00569422704333, 13.550365344467641], [41.00479966611018, 13.5489540392912], [40.990490636087955, 13.525835073068894], [40.98017529215359, 13.508506989443472], [40.975986476882305, 13.501304801670146], [40.962134569288594, 13.476774530271399], [40.95555091819699, 13.464715558396978], [40.94889188323377, 13.452244258872652], [40.936219092217414, 13.427713987473904], [40.9309265442404, 13.417147060418507], [40.92408018324954, 13.403183716075157], [40.91244211506925, 13.37865344467641], [40.90630217028381, 13.371127473487896], [40.89121946556101, 13.354123173277662], [40.88167779632721, 13.345135282691992], [40.85991267323476, 13.354123173277662], [40.85705342237062, 13.355497949399389], [40.83771761159173, 13.37865344467641], [40.83242904841402, 13.391322056507354], [40.82751658221119, 13.403183716075157], [40.81747592441711, 13.427713987473904], [40.80780467445743, 13.451712097670386], [40.807591885874, 13.452244258872652], [40.79786083040207, 13.476774530271399], [40.788279233517216, 13.501304801670145], [40.78318030050083, 13.514514230626833], [40.77884367817485, 13.525835073068894], [40.769550850706885, 13.550365344467641], [40.7603975369418, 13.574895615866389], [40.75855592654424, 13.579875915516736], [40.7513806184981, 13.599425887265134], [40.742497069242155, 13.623956158663884], [40.73393155258765, 13.632881790621902], [40.71775814892509, 13.648486430062631], [40.70930717863105, 13.655837409385565], [40.687747600461186, 13.673016701461378], [40.68468280467446, 13.675292058423079], [40.66005843071786, 13.692259610111604], [40.65168288086624, 13.697546972860128], [40.63543405676127, 13.707188339221926], [40.61080968280467, 13.716660531452625], [40.59005005764597, 13.722077244258873], [40.58618530884808, 13.723091170916122], [40.56156093489149, 13.72959254402507], [40.53693656093489, 13.736165824282667], [40.5123121869783, 13.74281221129506], [40.49837264495366, 13.74660751565762], [40.4876878130217, 13.749532931501196], [40.46306343906511, 13.756329238927268], [40.43843906510851, 13.763202415966791], [40.41381469115192, 13.770153774187282], [40.41035142584997, 13.771137787056368], [40.38919031719533, 13.777184655164625], [40.36456594323873, 13.785263556118878], [40.341049765739186, 13.795668058455117], [40.33994156928213, 13.79621443366163], [40.31531719532554, 13.809992997607885], [40.30042541093547, 13.820198329853863], [40.29069282136895, 13.82785684179301], [40.27263994711236, 13.844728601252609], [40.26606844741235, 13.851939097985277], [40.252437513117655, 13.869258872651358], [40.24525723011825, 13.893789144050103], [40.24144407345576, 13.917339798090017], [40.24129062535763, 13.918319415448853], [40.23757419192154, 13.942849686847598], [40.234084986105145, 13.967379958246347], [40.23080278659476, 13.991910229645095], [40.22770970231804, 14.016440501043842], [40.22478984618114, 14.040970772442591], [40.22202906212969, 14.065501043841337], [40.21941469563563, 14.090031315240084], [40.21693539975715, 14.114561586638834], [40.21681969949916, 14.116147321078644], [40.215163869939765, 14.13909185803758], [40.21384987968562, 14.163622129436327], [40.21253609585641, 14.188152400835072], [40.2112225184035, 14.212682672233822], [40.20990914727827, 14.237212943632567], [40.208595982432094, 14.261743215031316], [40.20728302381639, 14.286273486430066], [40.205970271382576, 14.310803757828811], [40.2046577250821, 14.335334029227559], [40.203345384866395, 14.359864300626306], [40.19521308268639, 14.384394572025053], [40.19219532554258, 14.388106216169552], [40.1738029266537, 14.4089248434238], [40.16757095158598, 14.415346994109306], [40.148333126940585, 14.43345511482255], [40.142946577629374, 14.438108492868132], [40.11832220367279, 14.451726739367013], [40.09369782971619, 14.448920284661146], [40.0690734557596, 14.446023477048227], [40.044449081803, 14.44303188181701], [40.01982470784641, 14.439940769209095], [40.004014155266745, 14.437888921609385], [39.98568332100018, 14.432741424000085], [39.98425632200019, 14.432340698000132], [39.9831324075, 14.435125187492405], [39.973829391079164, 14.43387642493131], [39.97238320500003, 14.432454415000052], [39.97149884500004, 14.431584838000163], [39.97135219000006, 14.42632820600005], [39.97000771100011, 14.425401455000042], [39.96464540200009, 14.421705210000027], [39.95871524400002, 14.418309519000161], [39.95798398200009, 14.41789078800008], [39.95633320500002, 14.416079448999994], [39.954459174000135, 14.41402314100003], [39.94986367500013, 14.410645311000167], [39.94465840000015, 14.409453125000141], [39.93846445600013, 14.40874957699998], [39.93203969500013, 14.41205119600005], [39.92375602400011, 14.414994940999975], [39.911406325000144, 14.422928815000091], [39.90923139678243, 14.424671079198397], [39.89670283806344, 14.4228028785274], [39.87207846410685, 14.416757310591166], [39.863898965577306, 14.4089248434238], [39.84745409015025, 14.391800149668342], [39.84089166895787, 14.384394572025052], [39.841889269771436, 14.359864300626306], [39.84745409015025, 14.350829615932179], [39.85747907096672, 14.335334029227559], [39.87207846410684, 14.314403252111596], [39.877564125213425, 14.310803757828811], [39.89670283806344, 14.297049083127273], [39.91140294244044, 14.286273486430066], [39.92132721202003, 14.278018034628861], [39.93817249743079, 14.261743215031316], [39.94595158597663, 14.253056557286886], [39.958408415786955, 14.237212943632569], [39.97057595993322, 14.218880975996077], [39.97424253316184, 14.212682672233822], [39.98697021045385, 14.188152400835074], [39.99520033388981, 14.16923468733629], [39.99742394746649, 14.163622129436327], [40.00616316748328, 14.13909185803758], [40.011780351022594, 14.114561586638832], [40.01453663727797, 14.090031315240084], [40.01715966446263, 14.065501043841337], [40.019658868554075, 14.04097077244259], [40.01982470784641, 14.039300993901684], [40.02204281519938, 14.016440501043842], [40.02431929779757, 13.991910229645095], [40.02649542261017, 13.967379958246347], [40.028577682858355, 13.9428496868476], [40.0305720234343, 13.918319415448853], [40.03248389758492, 13.893789144050103], [40.033999109023796, 13.869258872651358], [40.03443817378941, 13.84472860125261], [40.034872642315776, 13.820198329853863], [40.03530258639896, 13.795668058455115], [40.03572807634747, 13.771137787056368], [40.03614918102052, 13.746607515657619], [40.03656596786524, 13.722077244258873], [40.03697850295268, 13.697546972860126], [40.03738685101268, 13.673016701461378], [40.037791075467766, 13.648486430062631], [40.03879156793334, 13.623956158663884], [40.044449081803, 13.614626700780086], [40.05424387940248, 13.599425887265136], [40.0690734557596, 13.578455713636625], [40.071759121199904, 13.574895615866389], [40.09177995266574, 13.550365344467641], [40.09369782971619, 13.54818627994915], [40.11488543606539, 13.525835073068894], [40.11832220367279, 13.522483017704651], [40.14294657762938, 13.503611527123201], [40.14601836262476, 13.501304801670146], [40.16757095158598, 13.483616562746782], [40.1750629492691, 13.476774530271399], [40.19219532554257, 13.459526103521808], [40.1987626721965, 13.452244258872653], [40.21681969949917, 13.429938282119828], [40.21846858375211, 13.427713987473904], [40.235111770821696, 13.403183716075157], [40.24144407345576, 13.39272902593228], [40.24935476768575, 13.37865344467641], [40.26606844741235, 13.355609208772174], [40.267186379745446, 13.354123173277662], [40.287932287175536, 13.329592901878915], [40.29069282136895, 13.326537438733148], [40.31133897732338, 13.305062630480167], [40.31531719532554, 13.301184418836447], [40.337953417211, 13.28053235908142], [40.33994156928214, 13.278825586675623], [40.36456594323873, 13.258960097434358], [40.36918431614679, 13.256002087682672], [40.38919031719533, 13.242905717010776], [40.406824081499686, 13.231471816283927], [40.41381469115192, 13.226543820566517], [40.43843906510851, 13.207056162437736], [40.43857119889808, 13.206941544885177], [40.46306343906511, 13.183452434920408], [40.464041747655514, 13.18241127348643], [40.48492964465256, 13.157881002087684], [40.4876878130217, 13.154274600730334], [40.50236957715895, 13.133350730688935], [40.5123121869783, 13.119706720873037], [40.520304434028674, 13.108820459290186], [40.53693656093489, 13.089154934056591], [40.54128688873399, 13.08429018789144], [40.56156093489149, 13.062990068082835], [40.56482254242401, 13.059759916492693], [40.58618530884808, 13.039809870804671], [40.59140760485354, 13.035229645093946], [40.61080968280467, 13.019131199652417], [40.62370295590272, 13.010699373695198], [40.63543405676127, 13.003091378113881], [40.66005843071786, 12.990077581601971], [40.66695090165712, 12.986169102296452], [40.68468280467446, 12.975516016309985], [40.70570802780308, 12.961638830897705], [40.70930717863105, 12.959113103145274], [40.73393155258765, 12.940496004083546], [40.738081020089496, 12.937108559498958], [40.75855592654424, 12.91918393884131], [40.76552725452821, 12.91257828810021], [40.78318030050083, 12.894546073236203], [40.789091886313926, 12.888048016701463], [40.80780467445743, 12.869673936136593], [40.814067917589135, 12.863517745302715], [40.83242904841402, 12.849390900103405], [40.84709594538902, 12.838987473903968]]]]}}]}